{"updated": "2026-07-10T06:55:31+00:00", "source": "VN MET", "stations": [{"icao": "VVBM", "name": "Buon Ma Thuot", "metar": "METAR VVBM 100630Z 28015KT 230V310 9999 SCT013 30/20 Q1009 NOSIG", "speci": null, "taf": "TAF VVBM 100500Z 1006/1106 22008KT 9999 SCT013 SCT040 TEMPO 1009/1013 28015G25KT 5000 TSRA SCT013 FEW015CB BKN040", "raw": "METAR VVBM 100630Z 28015KT 230V310 9999 SCT013 30/20 Q1009 NOSIG", "fltcat": "VFR", "wind": "280° @ 15 kt", "vis": ">10 km", "clouds": "SCT013", "temp": 30, "dewp": 20, "qnh": "1009 hPa"}, {"icao": "VVCA", "name": "Chu Lai", "metar": "METAR VVCA 100630Z 27009KT 240V310 9999 FEW017 BKN080 33/25 Q1002 NOSIG", "speci": null, "taf": "TAF VVCA 100500Z 1006/1015 31008KT 9999 FEW020 SCT070", "raw": "METAR VVCA 100630Z 27009KT 240V310 9999 FEW017 BKN080 33/25 Q1002 NOSIG", "fltcat": "VFR", "wind": "270° @ 9 kt", "vis": ">10 km", "clouds": "FEW017 BKN080", "temp": 33, "dewp": 25, "qnh": "1002 hPa"}, {"icao": "VVCI", "name": "Cat Bi — Hai Phong", "metar": "METAR VVCI 100630Z 12005KT 9999 FEW033 BKN046 29/26 Q1000 NOSIG", "speci": null, "taf": "TAF VVCI 100500Z 1006/1106 12005KT 9999 SCT020 BKN040 TEMPO 1008/1013 3500 TSRA BKN012 FEW027CB TEMPO 1020/1024 3500 TSRA BKN012 FEW027CB", "raw": "METAR VVCI 100630Z 12005KT 9999 FEW033 BKN046 29/26 Q1000 NOSIG", "fltcat": "VFR", "wind": "120° @ 5 kt", "vis": ">10 km", "clouds": "FEW033 BKN046", "temp": 29, "dewp": 26, "qnh": "1000 hPa"}, {"icao": "VVCR", "name": "Cam Ranh — Nha Trang", "metar": "METAR VVCR 100630Z 10007KT CAVOK 35/21 Q1005 NOSIG", "speci": null, "taf": "TAF VVCR 100500Z 1006/1106 08010KT 9999 FEW020 BECMG 1012/1013 21008KT", "raw": "METAR VVCR 100630Z 10007KT CAVOK 35/21 Q1005 NOSIG", "fltcat": "VFR", "wind": "100° @ 7 kt", "vis": "CAVOK", "clouds": "NSC", "temp": 35, "dewp": 21, "qnh": "1005 hPa", "atis": [{"kind": "ARR", "time": "2026-07-10 05:14 UTC", "text": "VVCR ARR ATIS P 0501Z VVCR INFO P 0501Z. ILS-DME YANKEE APPROACH IN USE. LDG RWY 20L AND DPTG RWY 20R.. 0501Z. WIND RWY 20L TDZ 110/10KT MID 090/9KT END 090/9KT RWY 20R TDZ 100/8KT CAVOK T35 DP23 QNH 1"}, {"kind": "DEP", "time": "2026-05-29 05:57 UTC", "text": "VVCR DEP ATIS S 0533Z VVCR INFO S 0533Z. ILS Z APCH IN USE.. LDG RWY 02R AND DPTG RWY 02L.. 0532Z. WIND RWY 02R TDZ 080/9KT MID 090/8KT END 100/8KT RWY 02L TDZ 080/8KT CAVOK T31 DP26 QNH 1009HPA TREND TEMPO FM0630 VIS 4000M MOD TSRA. ADZ ON INITIAL CTC YOU HAVE INFO S."}]}, {"icao": "VVCS", "name": "Con Dao", "metar": "METAR VVCS 100630Z 24007KT 180V310 9999 FEW017 33/25 Q1008 NOSIG", "speci": null, "taf": "TAF VVCS 100500Z 1006/1015 24008KT 9999 FEW017", "raw": "METAR VVCS 100630Z 24007KT 180V310 9999 FEW017 33/25 Q1008 NOSIG", "fltcat": "VFR", "wind": "240° @ 7 kt", "vis": ">10 km", "clouds": "FEW017", "temp": 33, "dewp": 25, "qnh": "1008 hPa"}, {"icao": "VVCT", "name": "Can Tho Intl", "metar": "METAR VVCT 100630Z 26008KT 220V310 9999 BKN015 33/25 Q1008 NOSIG", "speci": null, "taf": "TAF VVCT 100500Z 1006/1106 25008KT 9999 SCT015 SCT040 TEMPO 1006/1010 TS SCT013 FEW015CB BKN040 TEMPO 1100/1104 25015G25KT 3000 TSRA BKN013 FEW015CB", "raw": "METAR VVCT 100630Z 26008KT 220V310 9999 BKN015 33/25 Q1008 NOSIG", "fltcat": "MVFR", "wind": "260° @ 8 kt", "vis": ">10 km", "clouds": "BKN015", "temp": 33, "dewp": 25, "qnh": "1008 hPa"}, {"icao": "VVDB", "name": "Dien Bien Phu", "metar": "METAR VVDB 100630Z 20006KT 160V230 9999 SCT023 BKN031 OVC040 28/25 Q1004 NOSIG", "speci": null, "taf": "TAF VVDB 100500Z 1006/1015 21005KT 9999 SCT020 TEMPO 1007/1012 3500 TSRA SCT015 FEW027CB", "raw": "METAR VVDB 100630Z 20006KT 160V230 9999 SCT023 BKN031 OVC040 28/25 Q1004 NOSIG", "fltcat": "VFR", "wind": "200° @ 6 kt", "vis": ">10 km", "clouds": "SCT023 BKN031 OVC040", "temp": 28, "dewp": 25, "qnh": "1004 hPa"}, {"icao": "VVDH", "name": "Dong Hoi", "metar": "METAR VVDH 100630Z 26011KT 210V290 CAVOK 33/23 Q1002 NOSIG", "speci": null, "taf": "TAF VVDH 100500Z 1006/1015 24010KT 9999 FEW020 TEMPO 1006/1007 24015G25KT", "raw": "METAR VVDH 100630Z 26011KT 210V290 CAVOK 33/23 Q1002 NOSIG", "fltcat": "VFR", "wind": "260° @ 11 kt", "vis": "CAVOK", "clouds": "NSC", "temp": 33, "dewp": 23, "qnh": "1002 hPa"}, {"icao": "VVDN", "name": "Da Nang Intl", "metar": "METAR VVDN 100630Z 21009KT 9999 FEW020 BKN060 32/24 Q1002 NOSIG", "speci": null, "taf": "TAF VVDN 100500Z 1006/1106 23010KT 9999 SCT020 BKN070 BECMG 1011/1012 29007KT", "raw": "METAR VVDN 100630Z 21009KT 9999 FEW020 BKN060 32/24 Q1002 NOSIG", "fltcat": "VFR", "wind": "210° @ 9 kt", "vis": ">10 km", "clouds": "FEW020 BKN060", "temp": 32, "dewp": 24, "qnh": "1002 hPa", "atis": [{"kind": "ARR", "time": "2026-07-10 05:43 UTC", "text": "VVDN ARR ATIS H 1302Z VVDN INFO H 1302Z. ILS VICTOR APPROACH 35L.. DPTG RWY 35R.. 1302Z. WIND 150/02KT CAVOK T30 DP25 QNH 1009HPA TREND NOSIG. ADZ ON INITIAL CTC YOU HAVE INFO. H."}, {"kind": "DEP", "time": "2026-07-09 06:26 UTC", "text": "VVDN DEP ATIS R 0503Z VVDN INFO R 0503Z. ILS VICTOR APPROACH 35L.. DPTG RWY 35R.. 0502Z. WIND 090/05KT VRB BTN 070/ AND 140/ CAVOK T37 DP23 QNH 1007HPA TREND NOSIG. ADZ ON INITIAL CTC YOU HAVE INFO. R."}]}, {"icao": "VVNB", "name": "Noi Bai — Ha Noi", "metar": "METAR VVNB 100630Z 31003KT 260V050 9999 SCT027TCU BKN031 BKN037 32/26 Q1000 NOSIG", "speci": null, "taf": "TAF VVNB 100500Z 1006/1106 26005KT 9999 SCT020 BKN040 TEMPO 1006/1012 2500 +TSRA BKN010 FEW027CB TEMPO 1021/1101 3000 TSRA BKN012 FEW027CB", "raw": "METAR VVNB 100630Z 31003KT 260V050 9999 SCT027TCU BKN031 BKN037 32/26 Q1000 NOSIG", "fltcat": "VFR", "wind": "310° @ 3 kt", "vis": ">10 km", "clouds": "SCT027 BKN031 BKN037", "temp": 32, "dewp": 26, "qnh": "1000 hPa", "atis": [{"kind": "ARR", "time": "2026-07-10 06:49 UTC", "text": "VVNB ARR ATIS I 1300Z VVNB INFO I 1300Z. ILS X RWY 11L. DPTG RWY 11R AND ARR RWY 11L .. 1300Z. WIND 190/16KT VIS 6KM CLD FEW CB 2700FT FEW 3700FT BKN 4300FT T29 DP24 QNH 1006HPA TREND TEMPO TL1345 VIS 2000M HVY TSRA. ADZ ON INITIAL CTC YOU HAVE INFO I."}, {"kind": "DEP", "time": "2026-07-09 22:34 UTC", "text": "VVNB DEP ATIS C 1030Z VVNB INFO C 1030Z. ILS X RWY 11L. DPTG RWY 11R AND ARR RWY 11L .. 1030Z. WIND 150/7KT CAVOK T36 DP24 QNH 1002HPA TREND NOSIG. ADZ ON INITIAL CTC YOU HAVE INFO C."}]}, {"icao": "VVNS", "name": "Na San — Son La", "metar": "METAR VVNS 100600Z /////KT 9999 SCT025 28/22 Q1005 NOSIG", "speci": null, "taf": null, "raw": "METAR VVNS 100600Z /////KT 9999 SCT025 28/22 Q1005 NOSIG", "fltcat": "VFR", "wind": "—", "vis": ">10 km", "clouds": "SCT025", "temp": 28, "dewp": 22, "qnh": "1005 hPa"}, {"icao": "VVPB", "name": "Phu Bai — Hue", "metar": "METAR VVPB 100630Z 25012KT 9999 SCT017 SCT060 34/20 Q1002 NOSIG", "speci": null, "taf": "TAF VVPB 100500Z 1006/1106 25010KT 9999 SCT017 SCT060", "raw": "METAR VVPB 100630Z 25012KT 9999 SCT017 SCT060 34/20 Q1002 NOSIG", "fltcat": "VFR", "wind": "250° @ 12 kt", "vis": ">10 km", "clouds": "SCT017 SCT060", "temp": 34, "dewp": 20, "qnh": "1002 hPa"}, {"icao": "VVPC", "name": "Phu Cat — Quy Nhon", "metar": "METAR VVPC 100630Z 24013G24KT 9999 FEW030 SCT060 36/21 Q1003 NOSIG", "speci": null, "taf": "TAF VVPC 100500Z 1006/1106 26013KT 9999 FEW020 SCT050 TEMPO 1006/1012 26015G25KT TEMPO 1100/1106 26017G27KT", "raw": "METAR VVPC 100630Z 24013G24KT 9999 FEW030 SCT060 36/21 Q1003 NOSIG", "fltcat": "VFR", "wind": "240° @ 13 kt G24", "vis": ">10 km", "clouds": "FEW030 SCT060", "temp": 36, "dewp": 21, "qnh": "1003 hPa"}, {"icao": "VVPK", "name": "Pleiku", "metar": "METAR VVPK 100630Z 28016KT 240V300 9999 SCT020 BKN040 26/21 Q1010 TEMPO 28016G26KT", "speci": null, "taf": "TAF VVPK 100500Z 1006/1106 28016KT 9999 SCT015 SCT050 TEMPO 1006/1012 28017G27KT TEMPO 1022/1101 3500 RA BR BKN003 BKN006 TEMPO 1101/1106 28018G28KT", "raw": "METAR VVPK 100630Z 28016KT 240V300 9999 SCT020 BKN040 26/21 Q1010 TEMPO 28016G26KT", "fltcat": "VFR", "wind": "280° @ 16 kt", "vis": ">10 km", "clouds": "SCT020 BKN040", "temp": 26, "dewp": 21, "qnh": "1010 hPa"}, {"icao": "VVPQ", "name": "Phu Quoc Intl", "metar": "METAR VVPQ 100630Z 27013KT 9999 SCT015 32/30 Q1009 NOSIG", "speci": null, "taf": "TAF VVPQ 100500Z 1006/1106 27010KT 9999 SCT015 PROB30 TEMPO 1006/1009 27015G28KT 5000 TSRA SCT015 FEW017CB TEMPO 1022/1102 27015G28KT 5000 TSRA SCT015 FEW017CB", "raw": "METAR VVPQ 100630Z 27013KT 9999 SCT015 32/30 Q1009 NOSIG", "fltcat": "VFR", "wind": "270° @ 13 kt", "vis": ">10 km", "clouds": "SCT015", "temp": 32, "dewp": 30, "qnh": "1009 hPa"}, {"icao": "VVRG", "name": "Rach Gia", "metar": "METAR VVRG 100630Z 26012KT 220V300 9999 SCT015 32/26 Q1008 NOSIG", "speci": null, "taf": "TAF VVRG 100500Z 1006/1015 25008KT 9999 SCT013 SCT040 TEMPO 1006/1010 TS SCT013 FEW015CB BKN040", "raw": "METAR VVRG 100630Z 26012KT 220V300 9999 SCT015 32/26 Q1008 NOSIG", "fltcat": "VFR", "wind": "260° @ 12 kt", "vis": ">10 km", "clouds": "SCT015", "temp": 32, "dewp": 26, "qnh": "1008 hPa"}, {"icao": "VVTH", "name": "Dong Tac — Tuy Hoa", "metar": "METAR VVTH 100630Z 26014KT 210V300 9999 FEW017 SCT061 36/22 Q1003 TEMPO 26015G25KT", "speci": null, "taf": "TAF VVTH 100500Z 1006/1015 26017KT 9999 FEW015 SCT060 TEMPO 1006/1013 26020G30KT", "raw": "METAR VVTH 100630Z 26014KT 210V300 9999 FEW017 SCT061 36/22 Q1003 TEMPO 26015G25KT", "fltcat": "VFR", "wind": "260° @ 14 kt", "vis": ">10 km", "clouds": "FEW017 SCT061", "temp": 36, "dewp": 22, "qnh": "1003 hPa"}, {"icao": "VVTS", "name": "Tan Son Nhat — Ho Chi Minh City", "metar": "METAR VVTS 100630Z 26015KT 9999 SCT029 35/24 Q1007 NOSIG", "speci": null, "taf": "TAF VVTS 100500Z 1006/1112 27012KT 9999 SCT017 TEMPO 1007/1010 27016G28KT 5000 SHRA SCT015 FEW017CB", "raw": "METAR VVTS 100630Z 26015KT 9999 SCT029 35/24 Q1007 NOSIG", "fltcat": "VFR", "wind": "260° @ 15 kt", "vis": ">10 km", "clouds": "SCT029", "temp": 35, "dewp": 24, "qnh": "1007 hPa", "atis": [{"kind": "ARR", "time": "2026-07-10 05:50 UTC", "text": "VVTS ARR ATIS O 1300Z VVTS INFO O 1300Z. ILSW APCH IN RWY 25R.. LDG RWY 25R AND DEP RWY 25L.. 1300Z. WIND RWY 25R TDZ 200/5KT VRB BTN 170/ AND 260/ VIS 10KM CLD FEW 2500FT T30 DP26 QNH 1010HPA TREND NOSIG. ADZ ON INITIAL CTC YOU HAVE INFO O."}, {"kind": "DEP", "time": "2026-07-09 12:08 UTC", "text": "VVTS DEP ATIS C 0700Z VVTS INFO C 0700Z. ILSW APCH IN RWY 25R.. LDG RWY 25R AND DEP RWY 25L.. 0700Z. WIND RWY 25R TDZ 220/6KT VRB BTN 120/ AND 250/ VIS 10KM CLD SCT 2300FT FEW CB 2500FT BKN 4200FT T33 DP25 QNH 1008HPA CB RWY 25 CB RWY 07 TREND NOSIG. ADZ ON INITIAL CTC YOU HAVE INFO C."}]}, {"icao": "VVTX", "name": "Tho Xuan — Thanh Hoa", "metar": "METAR COR VVTX 100630Z 14003KT 9999 -SHRA SCT025 FEW027CB BKN050 34/24 Q0999 TEMPO 4000 SHRA", "speci": null, "taf": "TAF AMD VVTX 100545Z 1006/1015 12005KT 9999 SCT020 TEMPO 1006/1012 3500 TSRA SCT015 FEW027CB", "raw": "METAR COR VVTX 100630Z 14003KT 9999 -SHRA SCT025 FEW027CB BKN050 34/24 Q0999 TEMPO 4000 SHRA", "fltcat": "VFR", "wind": "140° @ 3 kt", "vis": ">10 km", "clouds": "SCT025 FEW027 BKN050", "temp": 34, "dewp": 24, "qnh": "999 hPa"}, {"icao": "VVVD", "name": "Van Don — Quang Ninh", "metar": "METAR VVVD 100630Z 13006KT 9999 FEW020 32/27 Q1001 NOSIG", "speci": null, "taf": "TAF VVVD 100500Z 1006/1106 08005KT 9999 SCT017 BKN040 TEMPO 1008/1014 3500 TSRA BKN012 FEW027CB TEMPO 1020/1024 3500 TSRA BKN012 FEW027CB", "raw": "METAR VVVD 100630Z 13006KT 9999 FEW020 32/27 Q1001 NOSIG", "fltcat": "VFR", "wind": "130° @ 6 kt", "vis": ">10 km", "clouds": "FEW020", "temp": 32, "dewp": 27, "qnh": "1001 hPa"}, {"icao": "VVVH", "name": "Vinh", "metar": "METAR VVVH 100630Z 24012KT 200V280 CAVOK 34/22 Q1000 NOSIG", "speci": null, "taf": "TAF VVVH 100500Z 1006/1106 22010KT 9999 FEW020", "raw": "METAR VVVH 100630Z 24012KT 200V280 CAVOK 34/22 Q1000 NOSIG", "fltcat": "VFR", "wind": "240° @ 12 kt", "vis": "CAVOK", "clouds": "NSC", "temp": 34, "dewp": 22, "qnh": "1000 hPa"}]}