{"updated": "2026-07-18T08:33:31+00:00", "source": "VN MET", "stations": [{"icao": "VVBM", "name": "Buon Ma Thuot", "metar": "METAR VVBM 180830Z 29009KT 230V320 9999 SCT015 31/22 Q1009 NOSIG", "speci": null, "taf": "TAF VVBM 180500Z 1806/1906 28008KT 9999 SCT013 TEMPO 1808/1812 5000 TSRA BKN010 FEW013CB", "raw": "METAR VVBM 180830Z 29009KT 230V320 9999 SCT015 31/22 Q1009 NOSIG", "fltcat": "VFR", "wind": "290° @ 9 kt", "vis": ">10 km", "clouds": "SCT015", "temp": 31, "dewp": 22, "qnh": "1009 hPa"}, {"icao": "VVCA", "name": "Chu Lai", "metar": "METAR VVCA 180830Z 09011KT 9999 FEW030 36/24 Q1002 NOSIG", "speci": null, "taf": "TAF VVCA 180500Z 1806/1815 06008KT 9999 FEW017", "raw": "METAR VVCA 180830Z 09011KT 9999 FEW030 36/24 Q1002 NOSIG", "fltcat": "VFR", "wind": "090° @ 11 kt", "vis": ">10 km", "clouds": "FEW030", "temp": 36, "dewp": 24, "qnh": "1002 hPa"}, {"icao": "VVCI", "name": "Cat Bi — Hai Phong", "metar": "METAR VVCI 180830Z 17011KT CAVOK 33/25 Q0999 NOSIG", "speci": null, "taf": "TAF VVCI 180500Z 1806/1906 23006KT 9999 FEW030 TEMPO 1821/1902 3200 TSRA SCT012 FEW027CB", "raw": "METAR VVCI 180830Z 17011KT CAVOK 33/25 Q0999 NOSIG", "fltcat": "VFR", "wind": "170° @ 11 kt", "vis": "CAVOK", "clouds": "NSC", "temp": 33, "dewp": 25, "qnh": "999 hPa"}, {"icao": "VVCR", "name": "Cam Ranh — Nha Trang", "metar": "METAR VVCR 180830Z 11006KT 080V190 9999 FEW021 36/23 Q1005 NOSIG", "speci": null, "taf": "TAF VVCR 180500Z 1806/1906 08010KT 9999 FEW020 TEMPO 1808/1812 TS SCT013 FEW015CB BKN060 BECMG 1814/1815 20006KT BECMG 1902/1903 07010KT", "raw": "METAR VVCR 180830Z 11006KT 080V190 9999 FEW021 36/23 Q1005 NOSIG", "fltcat": "VFR", "wind": "110° @ 6 kt", "vis": ">10 km", "clouds": "FEW021", "temp": 36, "dewp": 23, "qnh": "1005 hPa", "atis": [{"kind": "ARR", "time": "2026-07-17 14:03 UTC", "text": "VVCR ARR ATIS F 1401Z VVCR INFO F 1401Z. ILS Z APCH IN USE.. LDG RWY 02R AND DPTG RWY 02L.. 1400Z. WIND RWY 02R TDZ 040/3KT MID 340/3KT END 010/6KT RWY 02L TDZ 020/3KT VIS RWY 02R TDZ 10KM END"}, {"kind": "DEP", "time": "2026-05-29 05:57 UTC", "text": "VVCR DEP ATIS S 0533Z VVCR INFO S 0533Z. ILS Z APCH IN USE.. LDG RWY 02R AND DPTG RWY 02L.. 0532Z. WIND RWY 02R TDZ 080/9KT MID 090/8KT END 100/8KT RWY 02L TDZ 080/8KT CAVOK T31 DP26 QNH 1009HPA TREND TEMPO FM0630 VIS 4000M MOD TSRA. ADZ ON INITIAL CTC YOU HAVE INFO S."}]}, {"icao": "VVCS", "name": "Con Dao", "metar": "METAR VVCS 180830Z 22006KT 160V300 9999 FEW017 32/24 Q1008 NOSIG", "speci": null, "taf": "TAF VVCS 180500Z 1806/1815 VRB03KT 9999 SCT017", "raw": "METAR VVCS 180830Z 22006KT 160V300 9999 FEW017 32/24 Q1008 NOSIG", "fltcat": "VFR", "wind": "220° @ 6 kt", "vis": ">10 km", "clouds": "FEW017", "temp": 32, "dewp": 24, "qnh": "1008 hPa"}, {"icao": "VVCT", "name": "Can Tho Intl", "metar": "METAR VVCT 180830Z 26009KT 9999 SCT013 32/25 Q1007 NOSIG", "speci": null, "taf": "TAF VVCT 180500Z 1806/1906 25008KT 9999 SCT015 TEMPO 1807/1812 5000 TSRA BKN013 FEW015CB", "raw": "METAR VVCT 180830Z 26009KT 9999 SCT013 32/25 Q1007 NOSIG", "fltcat": "VFR", "wind": "260° @ 9 kt", "vis": ">10 km", "clouds": "SCT013", "temp": 32, "dewp": 25, "qnh": "1007 hPa"}, {"icao": "VVDB", "name": "Dien Bien Phu", "metar": "METAR VVDB 180830Z 06003KT 9999 BKN022 OVC032 24/23 Q1005 NOSIG", "speci": null, "taf": "TAF VVDB 180500Z 1806/1815 VRB02KT 6000 -RA SCT015 BKN025 TEMPO 1807/1811 4000 SHRA SCT012 FEW025TCU", "raw": "METAR VVDB 180830Z 06003KT 9999 BKN022 OVC032 24/23 Q1005 NOSIG", "fltcat": "MVFR", "wind": "060° @ 3 kt", "vis": ">10 km", "clouds": "BKN022 OVC032", "temp": 24, "dewp": 23, "qnh": "1005 hPa"}, {"icao": "VVDH", "name": "Dong Hoi", "metar": "METAR VVDH 180830Z 27011KT 230V300 CAVOK 37/22 Q1002 NOSIG", "speci": null, "taf": "TAF VVDH 180500Z 1806/1815 24010KT 9999 FEW020", "raw": "METAR VVDH 180830Z 27011KT 230V300 CAVOK 37/22 Q1002 NOSIG", "fltcat": "VFR", "wind": "270° @ 11 kt", "vis": "CAVOK", "clouds": "NSC", "temp": 37, "dewp": 22, "qnh": "1002 hPa"}, {"icao": "VVDN", "name": "Da Nang Intl", "metar": "METAR VVDN 180830Z 01008KT 9999 FEW020 35/23 Q1003 NOSIG", "speci": null, "taf": "TAF VVDN 180500Z 1806/1906 23010KT 9999 FEW020 BECMG 1806/1807 01010KT BECMG 1808/1809 12010KT BECMG 1812/1813 22008KT", "raw": "METAR VVDN 180830Z 01008KT 9999 FEW020 35/23 Q1003 NOSIG", "fltcat": "VFR", "wind": "010° @ 8 kt", "vis": ">10 km", "clouds": "FEW020", "temp": 35, "dewp": 23, "qnh": "1003 hPa", "atis": [{"kind": "ARR", "time": "2026-07-18 03:06 UTC", "text": "VVDN ARR ATIS I 0402Z VVDN INFO I 0402Z. ILS VICTOR APPROACH 35L.. DPTG RWY 35R.. 0402Z. WIND VRB/02KT CAVOK T37 DP22 QNH 1004HPA TREND NOSIG. ADZ ON INITIAL CTC YOU HAVE INFO. I."}, {"kind": "DEP", "time": "2026-07-18 08:03 UTC", "text": "VVDN DEP ATIS M 0536Z VVDN INFO M 0536Z. ILS VICTOR APPROACH 35L.. DPTG RWY 35R.. 0536Z. WIND 040/01KT VIS 10KM CLD FEW 6600FT T39 DP24 QNH 1003HPA TREND NOSIG. ADZ ON INITIAL CTC YOU HAVE INFO. M."}]}, {"icao": "VVNB", "name": "Noi Bai — Ha Noi", "metar": "METAR VVNB 180830Z VRB03G13KT CAVOK 35/24 Q0999 NOSIG", "speci": null, "taf": "TAF VVNB 180500Z 1806/1906 30006KT 9999 FEW030 TEMPO 1811/1814 3500 TSRA SCT012 FEW027CB TEMPO 1820/1901 3000 TSRA SCT010 FEW027CB", "raw": "METAR VVNB 180830Z VRB03G13KT CAVOK 35/24 Q0999 NOSIG", "fltcat": "VFR", "wind": "VRB @ 3 kt G13", "vis": "CAVOK", "clouds": "NSC", "temp": 35, "dewp": 24, "qnh": "999 hPa", "atis": [{"kind": "ARR", "time": "2026-07-18 06:42 UTC", "text": "VVNB ARR ATIS P 0630Z VVNB INFO P 0630Z. ILS X RWY 11L. DPTG RWY 11R AND ARR RWY 11L .. 0630Z. WIND 170/3KT VIS 10KM CLD NSC T35 DP24 QNH 1000HPA TREND NOSIG. ADZ ON INITIAL CTC YOU HAVE INFO P."}, {"kind": "DEP", "time": "2026-07-18 08:30 UTC", "text": "VVNB DEP ATIS Y 0531Z VVNB INFO Y 0531Z. ILS X RWY 29R.. DPTG RWY 29L AND ARR RWY 29R.. 0530Z. WIND 300/6KT VRB BTN 260/ AND 330/ VIS 10KM CLD FEW 1600FT T37 DP25 QNH 1000HPA TREND NOSIG. ADZ ON INITIAL CTC YOU HAVE INFO Y."}]}, {"icao": "VVNS", "name": "Na San — Son La", "metar": "METAR VVNS 180800Z /////KT 9999 BKN030 27/23 Q1005 NOSIG", "speci": null, "taf": null, "raw": "METAR VVNS 180800Z /////KT 9999 BKN030 27/23 Q1005 NOSIG", "fltcat": "MVFR", "wind": "—", "vis": ">10 km", "clouds": "BKN030", "temp": 27, "dewp": 23, "qnh": "1005 hPa"}, {"icao": "VVPB", "name": "Phu Bai — Hue", "metar": "METAR VVPB 180830Z 09007KT 9999 FEW020 35/22 Q1002 NOSIG", "speci": null, "taf": "TAF VVPB 180500Z 1806/1906 25012KT 9999 FEW020 BECMG 1806/1808 05010KT BECMG 1812/1813 21007KT", "raw": "METAR VVPB 180830Z 09007KT 9999 FEW020 35/22 Q1002 NOSIG", "fltcat": "VFR", "wind": "090° @ 7 kt", "vis": ">10 km", "clouds": "FEW020", "temp": 35, "dewp": 22, "qnh": "1002 hPa"}, {"icao": "VVPC", "name": "Phu Cat — Quy Nhon", "metar": "METAR VVPC 180830Z 22010KT 190V270 9999 FEW030 37/22 Q1004 NOSIG", "speci": null, "taf": "TAF VVPC 180500Z 1806/1906 26014KT 9999 FEW020 TEMPO 1806/1809 26015G25KT", "raw": "METAR VVPC 180830Z 22010KT 190V270 9999 FEW030 37/22 Q1004 NOSIG", "fltcat": "VFR", "wind": "220° @ 10 kt", "vis": ">10 km", "clouds": "FEW030", "temp": 37, "dewp": 22, "qnh": "1004 hPa"}, {"icao": "VVPK", "name": "Pleiku", "metar": "METAR VVPK 180830Z 26009KT 230V300 9999 FEW027 28/21 Q1011 NOSIG", "speci": null, "taf": "TAF VVPK 180500Z 1806/1906 26012KT 9999 SCT013 TEMPO 1806/1809 26015G25KT TEMPO 1809/1812 26015G25KT 4000 SHRA BKN010 FEW015CB BKN040 TEMPO 1822/1824 2500 RA BR BKN002 BKN004 TEMPO 1900/1902 4000 RA BR BKN004 BKN008", "raw": "METAR VVPK 180830Z 26009KT 230V300 9999 FEW027 28/21 Q1011 NOSIG", "fltcat": "VFR", "wind": "260° @ 9 kt", "vis": ">10 km", "clouds": "FEW027", "temp": 28, "dewp": 21, "qnh": "1011 hPa"}, {"icao": "VVPQ", "name": "Phu Quoc Intl", "metar": "METAR VVPQ 180830Z 26010KT 9999 SCT015 31/29 Q1008 NOSIG", "speci": null, "taf": "TAF VVPQ 180500Z 1806/1906 26012KT 9999 SCT015 TEMPO 1822/1902 5000 TSRA BKN015 FEW017CB BKN040", "raw": "METAR VVPQ 180830Z 26010KT 9999 SCT015 31/29 Q1008 NOSIG", "fltcat": "VFR", "wind": "260° @ 10 kt", "vis": ">10 km", "clouds": "SCT015", "temp": 31, "dewp": 29, "qnh": "1008 hPa"}, {"icao": "VVRG", "name": "Rach Gia", "metar": "METAR VVRG 180830Z 25011KT 220V280 9999 SCT015 FEW017CB 31/25 Q1007 NOSIG", "speci": null, "taf": "TAF VVRG 180500Z 1806/1815 25010KT 9999 SCT015 TEMPO 1807/1812 TS SCT015 FEW017CB", "raw": "METAR VVRG 180830Z 25011KT 220V280 9999 SCT015 FEW017CB 31/25 Q1007 NOSIG", "fltcat": "VFR", "wind": "250° @ 11 kt", "vis": ">10 km", "clouds": "SCT015 FEW017", "temp": 31, "dewp": 25, "qnh": "1007 hPa"}, {"icao": "VVTH", "name": "Dong Tac — Tuy Hoa", "metar": "METAR VVTH 180830Z VRB07KT 9999 FEW059 37/22 Q1004 NOSIG", "speci": null, "taf": "TAF VVTH 180500Z 1806/1815 27015KT 9999 FEW017 TEMPO 1806/1809 27015G25KT", "raw": "METAR VVTH 180830Z VRB07KT 9999 FEW059 37/22 Q1004 NOSIG", "fltcat": "VFR", "wind": "VRB @ 7 kt", "vis": ">10 km", "clouds": "FEW059", "temp": 37, "dewp": 22, "qnh": "1004 hPa"}, {"icao": "VVTS", "name": "Tan Son Nhat — Ho Chi Minh City", "metar": "METAR VVTS 180830Z 29014G28KT 260V330 9999 SCT020 FEW025CB SCT045 32/24 Q1006 NOSIG", "speci": null, "taf": "TAF VVTS 180500Z 1806/1912 26008KT 9999 SCT017 TEMPO 1808/1811 5000 TSRA SCT015 FEW017CB TEMPO 1907/1910 26015G25KT 3000 TSRA SCT015 SCT017CB", "raw": "METAR VVTS 180830Z 29014G28KT 260V330 9999 SCT020 FEW025CB SCT045 32/24 Q1006 NOSIG", "fltcat": "VFR", "wind": "290° @ 14 kt G28", "vis": ">10 km", "clouds": "SCT020 FEW025 SCT045", "temp": 32, "dewp": 24, "qnh": "1006 hPa", "atis": [{"kind": "ARR", "time": "2026-07-18 05:50 UTC", "text": "VVTS ARR ATIS U 0430Z VVTS INFO U 0430Z. ILSW APCH IN RWY 25R.. LDG RWY 25R AND DEP RWY 25L.. 0430Z. WIND RWY 25L TDZ 250/10KT MAX17 MNM7 MID 230/14KT END 250/9KT MAX15 MNM5 VRB BTN 220/ AND 280/ RWY 25R TDZ 250/10KT MAX17 MNM7 VIS RWY 25R TDZ 10KM FBL SHRA CLD RWY 25R BKN 2500FT FEW CB 2700FT T32 DP27 QNH 1008HPA CB RWY 25 TREND TEMPO TL0500 VIS 4000M MOD SHRA. ADZ ON INITIAL CTC YOU HAVE INFO U."}, {"kind": "DEP", "time": "2026-07-18 06:13 UTC", "text": "VVTS DEP ATIS V 0500Z VVTS INFO V 0500Z. ILSW APCH IN RWY 25R.. LDG RWY 25R AND DEP RWY 25L.. 0500Z. WIND RWY 25L TDZ 270/12KT MAX17 MNM8 MID 270/12KT MAX17 MNM9 END 280/12KT MAX18 MNM8 VRB BTN 250/ AND 310/ RWY 25R TDZ 270/12KT MAX17 MNM8 VIS RWY 25R TDZ 10KM CLD RWY 25R BKN 2500FT FEW CB 2700FT T34 DP26 QNH 1007HPA CB IN APCH TREND NOSIG. ADZ ON INITIAL CTC YOU HAVE INFO V."}]}, {"icao": "VVTX", "name": "Tho Xuan — Thanh Hoa", "metar": "METAR VVTX 180830Z 25008KT 220V280 9999 FEW030 36/20 Q0999 NOSIG", "speci": null, "taf": "TAF VVTX 180500Z 1806/1815 25006KT 9999 FEW030 PROB40 TEMPO 1809/1812 4000 TSRA SCT015 FEW027CB", "raw": "METAR VVTX 180830Z 25008KT 220V280 9999 FEW030 36/20 Q0999 NOSIG", "fltcat": "VFR", "wind": "250° @ 8 kt", "vis": ">10 km", "clouds": "FEW030", "temp": 36, "dewp": 20, "qnh": "999 hPa"}, {"icao": "VVVD", "name": "Van Don — Quang Ninh", "metar": "METAR VVVD 180830Z AUTO 18012KT 9999 NCD 34/26 Q1000", "speci": null, "taf": "TAF VVVD 180500Z 1806/1906 20006KT 9999 FEW030 TEMPO 1820/1901 3000 TSRA SCT010 FEW027CB", "raw": "METAR VVVD 180830Z AUTO 18012KT 9999 NCD 34/26 Q1000", "fltcat": "VFR", "wind": "180° @ 12 kt", "vis": ">10 km", "clouds": "—", "temp": 34, "dewp": 26, "qnh": "1000 hPa"}, {"icao": "VVVH", "name": "Vinh", "metar": "METAR VVVH 180830Z 24010KT 200V280 CAVOK 36/21 Q1001 NOSIG", "speci": null, "taf": "TAF VVVH 180500Z 1806/1906 24010KT 9999 FEW030 TEMPO 1806/1809 24015G25KT", "raw": "METAR VVVH 180830Z 24010KT 200V280 CAVOK 36/21 Q1001 NOSIG", "fltcat": "VFR", "wind": "240° @ 10 kt", "vis": "CAVOK", "clouds": "NSC", "temp": 36, "dewp": 21, "qnh": "1001 hPa"}]}