{"updated": "2026-07-23T18:44:26+00:00", "source": "VN MET", "stations": [{"icao": "VVBM", "name": "Buon Ma Thuot", "metar": "METAR VVBM 231830Z 25005KT 9000 -RA BKN008 FEW015CB BKN030 22/22 Q1010 NOSIG", "speci": null, "taf": "TAF VVBM 231700Z 2318/2418 VRB03KT 9999 SCT015 SCT040 TEMPO 2318/2321 5000 TSRA BKN010 FEW015CB BKN040 BECMG 2401/2402 30010KT TEMPO 2407/2412 5000 TSRA BKN010 FEW015CB BKN040", "raw": "METAR VVBM 231830Z 25005KT 9000 -RA BKN008 FEW015CB BKN030 22/22 Q1010 NOSIG", "fltcat": "IFR", "wind": "250° @ 5 kt", "vis": "9.0 km", "clouds": "BKN008 FEW015 BKN030", "temp": 22, "dewp": 22, "qnh": "1010 hPa"}, {"icao": "VVCA", "name": "Chu Lai", "metar": "METAR VVCA 231830Z AUTO 21008KT 9999 FEW099/// BKN120/// BKN150/// 28/24 Q1004", "speci": null, "taf": "TAF VVCA 222300Z 2300/2309 23005KT 9999 FEW020 BECMG 2302/2304 08010KT TEMPO 2307/2309 23018G28KT 2500 +TSRA BKN013 SCT015CB BKN050", "raw": "METAR VVCA 231830Z AUTO 21008KT 9999 FEW099/// BKN120/// BKN150/// 28/24 Q1004", "fltcat": "VFR", "wind": "210° @ 8 kt", "vis": ">10 km", "clouds": "FEW099 BKN120 BKN150", "temp": 28, "dewp": 24, "qnh": "1004 hPa"}, {"icao": "VVCI", "name": "Cat Bi — Hai Phong", "metar": "METAR VVCI 231830Z 13004KT 080V150 9999 FEW020 28/26 Q1004 NOSIG", "speci": null, "taf": "TAF VVCI 231700Z 2318/2418 12005KT 9999 FEW025 TEMPO 2318/2324 3200 TSRA SCT010 FEW027CB TEMPO 2405/2410 18015G25KT 4000 TSRA SCT012 FEW030CB", "raw": "METAR VVCI 231830Z 13004KT 080V150 9999 FEW020 28/26 Q1004 NOSIG", "fltcat": "VFR", "wind": "130° @ 4 kt", "vis": ">10 km", "clouds": "FEW020", "temp": 28, "dewp": 26, "qnh": "1004 hPa"}, {"icao": "VVCR", "name": "Cam Ranh — Nha Trang", "metar": "METAR VVCR 231830Z 29004KT CAVOK 28/24 Q1006 NOSIG", "speci": null, "taf": "TAF VVCR 231700Z 2318/2418 32007KT 9999 FEW020 BECMG 2402/2403 11011KT TEMPO 2407/2411 26015G25KT 4000 TSRA BKN013 FEW017CB BKN050 BECMG 2413/2414 30007KT", "raw": "METAR VVCR 231830Z 29004KT CAVOK 28/24 Q1006 NOSIG", "fltcat": "VFR", "wind": "290° @ 4 kt", "vis": "CAVOK", "clouds": "NSC", "temp": 28, "dewp": 24, "qnh": "1006 hPa", "atis": [{"kind": "ARR", "time": "2026-07-22 05:32 UTC", "text": "VVCR ARR ATIS O 1300Z VVCR INFO O 1300Z. ILS YANKEE APPROACH IN USE. LDG RWY 20L AND DPTG RWY 20R.. 1300Z. WIND RWY 20L TDZ 190/7KT MID 190/8KT END 180/7KT RWY 20R TDZ 190/7KT VIS RWY 20L TDZ 10KM END 10KM CLD RWY 20L SCT 7200FT T31 DP24 QNH 1007HPA TREND NOSIG. ADZ ON INITIAL CTC YOU HAVE INFO O."}, {"kind": "DEP", "time": "2026-05-29 05:57 UTC", "text": "VVCR DEP ATIS S 0533Z VVCR INFO S 0533Z. ILS Z APCH IN USE.. LDG RWY 02R AND DPTG RWY 02L.. 0532Z. WIND RWY 02R TDZ 080/9KT MID 090/8KT END 100/8KT RWY 02L TDZ 080/8KT CAVOK T31 DP26 QNH 1009HPA TREND TEMPO FM0630 VIS 4000M MOD TSRA. ADZ ON INITIAL CTC YOU HAVE INFO S."}]}, {"icao": "VVCT", "name": "Can Tho Intl", "metar": "METAR VVCT 231830Z VRB02KT 9999 FEW015 SCT050 27/25 Q1008 NOSIG", "speci": null, "taf": "TAF VVCT 231700Z 2318/2418 VRB03KT 9999 SCT015 SCT040 BECMG 2401/2402 26010KT TEMPO 2406/2410 5000 TSRA SCT015 FEW017CB", "raw": "METAR VVCT 231830Z VRB02KT 9999 FEW015 SCT050 27/25 Q1008 NOSIG", "fltcat": "VFR", "wind": "VRB @ 2 kt", "vis": ">10 km", "clouds": "FEW015 SCT050", "temp": 27, "dewp": 25, "qnh": "1008 hPa"}, {"icao": "VVDB", "name": "Dien Bien Phu", "metar": "METAR VVDB 231830Z AUTO 33002KT 9999 // FEW004/// SCT029/// OVC056/// 24/23 Q1006 RE//", "speci": "SPECI VVDB 231841Z AUTO VRB02KT 9999 // BKN004/// OVC060/// 24/23 Q1006 RE//", "taf": "TAF VVDB 222300Z 2300/2309 VRB02KT 9999 SCT025 TEMPO 2300/2304 4000 TSRA SCT010 FEW027CB", "raw": "SPECI VVDB 231841Z AUTO VRB02KT 9999 // BKN004/// OVC060/// 24/23 Q1006 RE//", "fltcat": "LIFR", "wind": "VRB @ 2 kt", "vis": ">10 km", "clouds": "BKN004 OVC060", "temp": 24, "dewp": 23, "qnh": "1006 hPa"}, {"icao": "VVDH", "name": "Dong Hoi", "metar": "METAR VVDH 231830Z AUTO VRB02KT 9999 NCD 28/25 Q1004", "speci": null, "taf": "TAF VVDH 222300Z 2300/2309 21006KT 9999 FEW035", "raw": "METAR VVDH 231830Z AUTO VRB02KT 9999 NCD 28/25 Q1004", "fltcat": "VFR", "wind": "VRB @ 2 kt", "vis": ">10 km", "clouds": "—", "temp": 28, "dewp": 25, "qnh": "1004 hPa"}, {"icao": "VVDN", "name": "Da Nang Intl", "metar": "METAR VVDN 231830Z 20004KT 9999 FEW020 SCT080 27/25 Q1005 NOSIG", "speci": null, "taf": "TAF VVDN 231700Z 2318/2418 21006KT 8000 SCT017 BKN060 BECMG 2404/2405 08010KT TEMPO 2408/2412 23015G25KT 3000 TSRA BKN013 FEW017CB BKN060 BECMG 2412/2413 20007KT", "raw": "METAR VVDN 231830Z 20004KT 9999 FEW020 SCT080 27/25 Q1005 NOSIG", "fltcat": "VFR", "wind": "200° @ 4 kt", "vis": ">10 km", "clouds": "FEW020 SCT080", "temp": 27, "dewp": 25, "qnh": "1005 hPa", "atis": [{"kind": "ARR", "time": "2026-07-23 15:40 UTC", "text": "VVDN ARR ATIS E 1532Z VVDN INFO E 1532Z. ILS VICTOR APPROACH 35L.. DPTG RWY 35R.. 1532Z. WIND 220/03KT CAVOK T27 DP26 QNH 1006HPA TREND NOSIG. RUNWAY 35R 35L SURFACE CONDITION CODE 5 5 5.. ADZ ON"}, {"kind": "DEP", "time": "2026-07-22 10:38 UTC", "text": "VVDN DEP ATIS G 1432Z VVDN INFO G 1432Z. ILS VICTOR APPROACH 35L.. DPTG RWY 35R.. 1432Z. WIND VRB/01KT CAVOK T32 DP24 QNH 1004HPA TREND NOSIG. ADZ ON INITIAL CTC YOU HAVE INFO. G."}]}, {"icao": "VVNB", "name": "Noi Bai — Ha Noi", "metar": "METAR VVNB 231830Z 01003KT 9000 -RA FEW017 FEW030CB BKN032 27/26 Q1004 NOSIG", "speci": null, "taf": "TAF VVNB 231700Z 2318/2418 09005KT 9999 SCT020 TEMPO 2318/2324 3200 TSRA SCT010 FEW027CB TEMPO 2406/2410 18015G25KT 3000 TSRA SCT010 FEW027CB", "raw": "METAR VVNB 231830Z 01003KT 9000 -RA FEW017 FEW030CB BKN032 27/26 Q1004 NOSIG", "fltcat": "VFR", "wind": "010° @ 3 kt", "vis": "9.0 km", "clouds": "FEW017 FEW030 BKN032", "temp": 27, "dewp": 26, "qnh": "1004 hPa", "atis": [{"kind": "ARR", "time": "2026-07-23 15:52 UTC", "text": "VVNB ARR ATIS L 0100Z VVNB INFO L 0100Z. ILS X RWY 11L. DPTG RWY 11R AND ARR RWY 11L .. 0100Z. WIND VRB4KT CAVOK T33 DP28 QNH 1001HPA TREND NOSIG. ADZ ON INITIAL CTC YOU HAVE INFO L."}, {"kind": "DEP", "time": "2026-07-23 09:36 UTC", "text": "VVNB DEP ATIS F 2246Z VVNB INFO F 2246Z. ILS X RWY 11R CAT I.. DPTG RWY 11R AND ARR RWY 11R. 2230Z. WIND RWY 11R TDZ 080/4KT MID 080/4KT END 080/3KT CAVOK T30 DP28 QNH 1000HPA QFE RWY 11R 0999HPA TREND NOSIG. ADZ ON INITIAL CTC YOU HAVE INFO F."}]}, {"icao": "VVPB", "name": "Phu Bai — Hue", "metar": "METAR VVPB 231830Z 29002KT 9999 FEW017 SCT060 29/24 Q1004 NOSIG", "speci": null, "taf": "TAF VVPB 231700Z 2318/2418 24006KT 8000 SCT017 SCT060 BECMG 2403/2404 07010KT TEMPO 2409/2413 24015G25KT 4000 TSRA BKN013 FEW017CB BKN060 BECMG 2413/2414 24007KT", "raw": "METAR VVPB 231830Z 29002KT 9999 FEW017 SCT060 29/24 Q1004 NOSIG", "fltcat": "VFR", "wind": "290° @ 2 kt", "vis": ">10 km", "clouds": "FEW017 SCT060", "temp": 29, "dewp": 24, "qnh": "1004 hPa"}, {"icao": "VVPC", "name": "Phu Cat — Quy Nhon", "metar": "METAR VVPC 231830Z AUTO 32005KT 9999 NCD 28/24 Q1005", "speci": null, "taf": "TAF VVPC 231700Z 2318/2418 25009KT 9999 FEW020 SCT060 TEMPO 2409/2412 28016G28KT 2500 +TSRA BKN010 SCT015CB BKN050", "raw": "METAR VVPC 231830Z AUTO 32005KT 9999 NCD 28/24 Q1005", "fltcat": "VFR", "wind": "320° @ 5 kt", "vis": ">10 km", "clouds": "—", "temp": 28, "dewp": 24, "qnh": "1005 hPa"}, {"icao": "VVPK", "name": "Pleiku", "metar": "METAR VVPK 231830Z AUTO 27009KT 240V300 9999 DZ FEW004/// SCT011/// BKN035/// 22/20 Q1011", "speci": null, "taf": "TAF VVPK 231700Z 2318/2418 24008KT 9999 SCT010 TEMPO 2322/2324 3500 RA BR BKN004 BKN008 TEMPO 2408/2413 27015G25KT 4000 TSRA BKN010 FEW017CB BKN050", "raw": "METAR VVPK 231830Z AUTO 27009KT 240V300 9999 DZ FEW004/// SCT011/// BKN035/// 22/20 Q1011", "fltcat": "VFR", "wind": "270° @ 9 kt", "vis": ">10 km", "clouds": "FEW004 SCT011 BKN035", "temp": 22, "dewp": 20, "qnh": "1011 hPa"}, {"icao": "VVPQ", "name": "Phu Quoc Intl", "metar": "METAR VVPQ 231830Z 27011KT 9999 SCT015 SCT040 29/27 Q1008 NOSIG", "speci": null, "taf": "TAF VVPQ 231700Z 2318/2418 28010KT 9999 SCT017 SCT040 TEMPO 2322/2402 28015G28KT 4000 TSRA BKN015 FEW017CB", "raw": "METAR VVPQ 231830Z 27011KT 9999 SCT015 SCT040 29/27 Q1008 NOSIG", "fltcat": "VFR", "wind": "270° @ 11 kt", "vis": ">10 km", "clouds": "SCT015 SCT040", "temp": 29, "dewp": 27, "qnh": "1008 hPa"}, {"icao": "VVTH", "name": "Dong Tac — Tuy Hoa", "metar": "METAR VVTH 231830Z AUTO 19003KT 140V210 CAVOK 28/23 Q1006", "speci": null, "taf": "TAF VVTH 222300Z 2300/2309 22010KT 9999 FEW020", "raw": "METAR VVTH 231830Z AUTO 19003KT 140V210 CAVOK 28/23 Q1006", "fltcat": "VFR", "wind": "190° @ 3 kt", "vis": "CAVOK", "clouds": "NSC", "temp": 28, "dewp": 23, "qnh": "1006 hPa"}, {"icao": "VVTS", "name": "Tan Son Nhat — Ho Chi Minh City", "metar": "METAR VVTS 231830Z VRB02KT 9999 FEW021 28/25 Q1007 NOSIG", "speci": null, "taf": "TAF VVTS 231700Z 2318/2424 VRB03KT 9999 SCT017 PROB40 TEMPO 2320/2324 5000 SHRA SCT015 FEW017CB BECMG 2400/2401 26010KT TEMPO 2406/2408 5000 TSRA BKN015 FEW017CB TEMPO 2408/2412 26015G28KT 2000 +TSRA BKN013 SCT015CB", "raw": "METAR VVTS 231830Z VRB02KT 9999 FEW021 28/25 Q1007 NOSIG", "fltcat": "VFR", "wind": "VRB @ 2 kt", "vis": ">10 km", "clouds": "FEW021", "temp": 28, "dewp": 25, "qnh": "1007 hPa", "atis": [{"kind": "ARR", "time": "2026-07-23 18:05 UTC", "text": "VVTS ARR ATIS I 0130Z VVTS INFO I 0130Z. ILSW APCH IN RWY 25R.. LDG RWY 25R AND DEP RWY 25L.. 0130Z. WIND RWY 25L TDZ 240/13KT MAX18 MNM8 MID 230/13KT END 240/12KT MAX18 MNM8 RWY 25R TDZ 240/13KT MAX18 MNM8 VIS 10KM CLD BKN 2000FT T31 DP27 QNH 1009HPA TREND NOSIG. ADZ ON INITIAL CTC YOU HAVE INFO I."}, {"kind": "DEP", "time": "2026-07-23 04:13 UTC", "text": "VVTS DEP ATIS Y 2030Z VVTS INFO Y 2030Z. ILSW APCH IN RWY 25R.. LDG RWY 25R AND DEP RWY 25L.. 2030Z. WIND RWY 25R TDZ 240/8KT MAX15 MNM6 END 240/8KT VIS 10KM CLD FEW 1600FT T29 DP27 QNH 1007HPA TREND NOSIG. ADZ ON INITIAL CTC YOU HAVE INFO Y."}]}, {"icao": "VVTX", "name": "Tho Xuan — Thanh Hoa", "metar": "METAR VVTX 231830Z AUTO 31003KT CAVOK 26/23 Q1003 NOSIG", "speci": null, "taf": "TAF VVTX 222300Z 2300/2309 32005KT 9999 FEW030", "raw": "METAR VVTX 231830Z AUTO 31003KT CAVOK 26/23 Q1003 NOSIG", "fltcat": "VFR", "wind": "310° @ 3 kt", "vis": "CAVOK", "clouds": "NSC", "temp": 26, "dewp": 23, "qnh": "1003 hPa"}, {"icao": "VVVD", "name": "Van Don — Quang Ninh", "metar": "METAR VVVD 231830Z AUTO VRB01KT 9999 FEW034/// SCT060/// 27/27 Q1004", "speci": null, "taf": "TAF VVVD 231700Z 2318/2418 VRB02KT 9999 SCT020 TEMPO 2318/2324 3000 TSRA SCT010 FEW027CB TEMPO 2405/2410 18015G25KT 3500 TSRA SCT010 FEW025CB", "raw": "METAR VVVD 231830Z AUTO VRB01KT 9999 FEW034/// SCT060/// 27/27 Q1004", "fltcat": "VFR", "wind": "VRB @ 1 kt", "vis": ">10 km", "clouds": "FEW034 SCT060", "temp": 27, "dewp": 27, "qnh": "1004 hPa"}, {"icao": "VVVH", "name": "Vinh", "metar": "METAR VVVH 231830Z 30005KT 270V330 CAVOK 26/24 Q1003 NOSIG", "speci": null, "taf": "TAF VVVH 231700Z 2318/2418 VRB02KT 9999 FEW030 TEMPO 2410/2415 3500 TSRA SCT010 FEW028CB", "raw": "METAR VVVH 231830Z 30005KT 270V330 CAVOK 26/24 Q1003 NOSIG", "fltcat": "VFR", "wind": "300° @ 5 kt", "vis": "CAVOK", "clouds": "NSC", "temp": 26, "dewp": 24, "qnh": "1003 hPa"}]}