{"updated": "2026-07-14T05:31:09+00:00", "source": "VN MET", "stations": [{"icao": "VVBM", "name": "Buon Ma Thuot", "metar": "METAR VVBM 140530Z 24012KT 200V290 9999 SCT015 FEW017CB 29/22 Q1010 NOSIG", "speci": null, "taf": "TAF VVBM 132300Z 1400/1424 24006KT 9999 SCT013 BKN040 TEMPO 1408/1411 3000 TSRA BKN010 FEW013CB TEMPO 1411/1414 5000 SHRA SCT013 FEW015CB BKN040", "raw": "METAR VVBM 140530Z 24012KT 200V290 9999 SCT015 FEW017CB 29/22 Q1010 NOSIG", "fltcat": "VFR", "wind": "240° @ 12 kt", "vis": ">10 km", "clouds": "SCT015 FEW017", "temp": 29, "dewp": 22, "qnh": "1010 hPa"}, {"icao": "VVCA", "name": "Chu Lai", "metar": "METAR VVCA 140530Z 06011KT 030V090 9999 FEW020 32/25 Q1003 NOSIG", "speci": null, "taf": "TAF VVCA 140200Z 1403/1412 08010KT 9999 FEW020 TEMPO 1409/1412 TS SCT013 FEW015CB SCT060", "raw": "METAR VVCA 140530Z 06011KT 030V090 9999 FEW020 32/25 Q1003 NOSIG", "fltcat": "VFR", "wind": "060° @ 11 kt", "vis": ">10 km", "clouds": "FEW020", "temp": 32, "dewp": 25, "qnh": "1003 hPa"}, {"icao": "VVCI", "name": "Cat Bi — Hai Phong", "metar": "METAR VVCI 140530Z 13005KT 080V150 9999 FEW040 33/26 Q1001 NOSIG", "speci": null, "taf": "TAF VVCI 132300Z 1400/1424 11006KT 9999 FEW020 TEMPO 1420/1424 4000 TSRA SCT015 FEW027CB", "raw": "METAR VVCI 140530Z 13005KT 080V150 9999 FEW040 33/26 Q1001 NOSIG", "fltcat": "VFR", "wind": "130° @ 5 kt", "vis": ">10 km", "clouds": "FEW040", "temp": 33, "dewp": 26, "qnh": "1001 hPa"}, {"icao": "VVCR", "name": "Cam Ranh — Nha Trang", "metar": "METAR VVCR 140500Z 19012KT 9999 FEW021 33/24 Q1007 NOSIG", "speci": null, "taf": "TAF VVCR 132300Z 1400/1424 19012KT 9999 FEW020 TEMPO 1407/1412 TS SCT013 FEW017CB", "raw": "METAR VVCR 140500Z 19012KT 9999 FEW021 33/24 Q1007 NOSIG", "fltcat": "VFR", "wind": "190° @ 12 kt", "vis": ">10 km", "clouds": "FEW021", "temp": 33, "dewp": 24, "qnh": "1007 hPa", "atis": [{"kind": "ARR", "time": "2026-07-13 09:29 UTC", "text": "VVCR ARR ATIS W 1330Z VVCR INFO W 1330Z. ILS YANKEE APPROACH IN USE. LDG RWY 20L AND DPTG RWY 20R.. 1330Z. WIND RWY 20L TDZ 330/3KT VRB BTN 260/ AND 360/ MID 310/3KT VRB BTN 280/ AND 340/ END 320/3KT RWY 20R TDZ 320/1KT CAVOK T29 DP25 QNH 1010HPA TREND NOSIG. ADZ ON INITIAL CTC YOU HAVE INFO W."}, {"kind": "DEP", "time": "2026-05-29 05:57 UTC", "text": "VVCR DEP ATIS S 0533Z VVCR INFO S 0533Z. ILS Z APCH IN USE.. LDG RWY 02R AND DPTG RWY 02L.. 0532Z. WIND RWY 02R TDZ 080/9KT MID 090/8KT END 100/8KT RWY 02L TDZ 080/8KT CAVOK T31 DP26 QNH 1009HPA TREND TEMPO FM0630 VIS 4000M MOD TSRA. ADZ ON INITIAL CTC YOU HAVE INFO S."}]}, {"icao": "VVCS", "name": "Con Dao", "metar": "METAR VVCS 140430Z VRB02KT 9999 -RA SCT015 FEW017CB OVC040 25/24 Q1011 NOSIG", "speci": null, "taf": "TAF VVCS 140200Z 1403/1412 18008KT 9999 SCT017 SCT040 TEMPO 1403/1407 18015G26KT 4000 TSRA SCT015 FEW017CB SCT040", "raw": "METAR VVCS 140430Z VRB02KT 9999 -RA SCT015 FEW017CB OVC040 25/24 Q1011 NOSIG", "fltcat": "VFR", "wind": "VRB @ 2 kt", "vis": ">10 km", "clouds": "SCT015 FEW017 OVC040", "temp": 25, "dewp": 24, "qnh": "1011 hPa"}, {"icao": "VVCT", "name": "Can Tho Intl", "metar": "METAR VVCT 140530Z 26008KT 230V310 9999 SCT015 31/26 Q1009 NOSIG", "speci": null, "taf": "TAF VVCT 132300Z 1400/1424 24010KT 9999 SCT015 SCT050 TEMPO 1400/1404 4000 TSRA SCT013 FEW015CB TEMPO 1407/1410 25015G27KT 3000 TSRA BKN013 FEW015CB BKN040", "raw": "METAR VVCT 140530Z 26008KT 230V310 9999 SCT015 31/26 Q1009 NOSIG", "fltcat": "VFR", "wind": "260° @ 8 kt", "vis": ">10 km", "clouds": "SCT015", "temp": 31, "dewp": 26, "qnh": "1009 hPa"}, {"icao": "VVDB", "name": "Dien Bien Phu", "metar": "METAR VVDB 140530Z VRB02KT CAVOK 32/25 Q1005 NOSIG", "speci": null, "taf": "TAF VVDB 140200Z 1403/1412 VRB02KT 9999 FEW025 TEMPO 1408/1412 4000 TSRA SCT015 FEW027CB", "raw": "METAR VVDB 140530Z VRB02KT CAVOK 32/25 Q1005 NOSIG", "fltcat": "VFR", "wind": "VRB @ 2 kt", "vis": "CAVOK", "clouds": "NSC", "temp": 32, "dewp": 25, "qnh": "1005 hPa"}, {"icao": "VVDH", "name": "Dong Hoi", "metar": "METAR VVDH 140530Z VRB05KT 9999 SCT040 34/24 Q1003 NOSIG", "speci": null, "taf": "TAF VVDH 140200Z 1403/1412 22010KT 9999 FEW030", "raw": "METAR VVDH 140530Z VRB05KT 9999 SCT040 34/24 Q1003 NOSIG", "fltcat": "VFR", "wind": "VRB @ 5 kt", "vis": ">10 km", "clouds": "SCT040", "temp": 34, "dewp": 24, "qnh": "1003 hPa"}, {"icao": "VVDN", "name": "Da Nang Intl", "metar": "METAR VVDN 140500Z 32005KT 280V010 9999 FEW020 SCT060 33/25 Q1004 NOSIG", "speci": null, "taf": "TAF VVDN 132300Z 1400/1424 22008KT 9999 FEW020 SCT070 BECMG 1404/1405 01010KT TEMPO 1409/1413 TS SCT013 FEW015CB BKN060 BECMG 1413/1414 22006KT", "raw": "METAR VVDN 140500Z 32005KT 280V010 9999 FEW020 SCT060 33/25 Q1004 NOSIG", "fltcat": "VFR", "wind": "320° @ 5 kt", "vis": ">10 km", "clouds": "FEW020 SCT060", "temp": 33, "dewp": 25, "qnh": "1004 hPa", "atis": [{"kind": "ARR", "time": "2026-07-14 03:48 UTC", "text": "VVDN ARR ATIS T 1932Z VVDN INFO T 1932Z. ILS VICTOR APPROACH 35L.. DPTG RWY 35R.. 1932Z. WIND 220/05KT CAVOK T27 DP25 QNH 1008HPA TREND NOSIG. ADZ ON INITIAL CTC YOU HAVE INFO. T."}, {"kind": "DEP", "time": "2026-07-12 02:50 UTC", "text": "VVDN DEP ATIS N 0423Z VVDN INFO N 0423Z. ILS VICTOR APPROACH 35L.. DPTG RWY 35R.. 0423Z. WIND 010/02KT CAVOK T36 DP24 QNH 1008HPA TREND NOSIG. WS ALL RWY. ADZ ON INITIAL CTC YOU HAVE INFO. N."}]}, {"icao": "VVNB", "name": "Noi Bai — Ha Noi", "metar": "METAR VVNB 140530Z VRB03KT 9999 FEW037 35/26 Q1001 NOSIG", "speci": null, "taf": "TAF VVNB 132300Z 1400/1424 08006KT 9999 FEW025 PROB30 TEMPO 1408/1412 4000 TSRA SCT010 FEW027CB", "raw": "METAR VVNB 140530Z VRB03KT 9999 FEW037 35/26 Q1001 NOSIG", "fltcat": "VFR", "wind": "VRB @ 3 kt", "vis": ">10 km", "clouds": "FEW037", "temp": 35, "dewp": 26, "qnh": "1001 hPa", "atis": [{"kind": "ARR", "time": "2026-07-14 02:24 UTC", "text": "VVNB ARR ATIS D 1900Z VVNB INFO D 1900Z. ILS X RWY 11L. DPTG RWY 11R AND ARR RWY 11L .. 1900Z. WIND VRB BTN 120/ AND 200/2KT CAVOK T27 DP26 QNH 1005HPA TREND NOSIG. RWY CONDITION REPORT 5 5 5.. ADZ ON INITIAL CTC YOU HAVE INFO D."}, {"kind": "DEP", "time": "2026-07-14 04:00 UTC", "text": "VVNB DEP ATIS E 1930Z VVNB INFO E 1930Z. ILS X RWY 11L. DPTG RWY 11R AND ARR RWY 11L .. 1930Z. WIND 100/3KT VIS 10KM CLD NSC T27 DP26 QNH 1005HPA TREND NOSIG. RWY CONDITION REPORT 5 5 5.. ADZ ON INITIAL CTC YOU HAVE INFO E."}]}, {"icao": "VVPB", "name": "Phu Bai — Hue", "metar": "METAR VVPB 140500Z 26010KT 9999 FEW028 SCT037 35/20 Q1004 NOSIG", "speci": null, "taf": "TAF VVPB 132300Z 1400/1424 20008KT 9999 FEW020 SCT060 BECMG 1406/1407 10010KT TEMPO 1408/1412 TS SCT012 FEW015CB BKN050 BECMG 1412/1413 20006KT", "raw": "METAR VVPB 140500Z 26010KT 9999 FEW028 SCT037 35/20 Q1004 NOSIG", "fltcat": "VFR", "wind": "260° @ 10 kt", "vis": ">10 km", "clouds": "FEW028 SCT037", "temp": 35, "dewp": 20, "qnh": "1004 hPa"}, {"icao": "VVPC", "name": "Phu Cat — Quy Nhon", "metar": "METAR VVPC 140500Z 24011KT 9999 FEW025 SCT060 33/22 Q1005 TEMPO 24015G25KT", "speci": null, "taf": "TAF VVPC 132300Z 1400/1424 20006KT 9999 FEW020 SCT070 TEMPO 1401/1408 24015G25KT TEMPO 1408/1412 TS SCT013 FEW015CB BKN060", "raw": "METAR VVPC 140500Z 24011KT 9999 FEW025 SCT060 33/22 Q1005 TEMPO 24015G25KT", "fltcat": "VFR", "wind": "240° @ 11 kt", "vis": ">10 km", "clouds": "FEW025 SCT060", "temp": 33, "dewp": 22, "qnh": "1005 hPa"}, {"icao": "VVPK", "name": "Pleiku", "metar": "METAR VVPK 140530Z 28013KT 240V300 9999 SCT015 26/21 Q1011 NOSIG", "speci": null, "taf": "TAF AMD VVPK 140100Z 1401/1424 26010KT 2000 RA BR BKN002 BKN004 BECMG 1401/1402 4000 RA BR BKN004 BKN008 BECMG 1402/1403 8000 NSW SCT013 TEMPO 1403/1406 25015G25KT TEMPO 1408/1412 27015G27KT 3500 TSRA BKN010 FEW015CB BKN050 TEMPO 1422/1424 0800 FG VV002", "raw": "METAR VVPK 140530Z 28013KT 240V300 9999 SCT015 26/21 Q1011 NOSIG", "fltcat": "VFR", "wind": "280° @ 13 kt", "vis": ">10 km", "clouds": "SCT015", "temp": 26, "dewp": 21, "qnh": "1011 hPa"}, {"icao": "VVPQ", "name": "Phu Quoc Intl", "metar": "METAR VVPQ 140530Z 25007KT 6000 SHRA SCT013 FEW017CB BKN040 26/25 Q1011 TEMPO TL0615 30015G28KT 3000 TSRA", "speci": null, "taf": "TAF VVPQ 132300Z 1400/1424 27010KT 9999 SCT015 SCT040 TEMPO 1400/1403 3000 TSRA BKN013 FEW015CB BKN040 TEMPO 1403/1407 28020G30KT 2000 +TSRA SCT013 SCT015CB BKN040 TEMPO 1407/1410 5000 SHRA SCT013 FEW015CB BKN040", "raw": "METAR VVPQ 140530Z 25007KT 6000 SHRA SCT013 FEW017CB BKN040 26/25 Q1011 TEMPO TL0615 30015G28KT 3000 TSRA", "fltcat": "MVFR", "wind": "250° @ 7 kt", "vis": "6.0 km", "clouds": "SCT013 FEW017 BKN040", "temp": 26, "dewp": 25, "qnh": "1011 hPa"}, {"icao": "VVRG", "name": "Rach Gia", "metar": "METAR VVRG 140500Z 26008KT 210V320 9999 SCT013 FEW015CB BKN040 28/24 Q1010 NOSIG", "speci": null, "taf": "TAF VVRG 140200Z 1403/1412 27008KT 9999 SCT017 SCT040 TEMPO 1403/1407 27015G26KT 4000 TSRA BKN015 FEW017CB", "raw": "METAR VVRG 140500Z 26008KT 210V320 9999 SCT013 FEW015CB BKN040 28/24 Q1010 NOSIG", "fltcat": "VFR", "wind": "260° @ 8 kt", "vis": ">10 km", "clouds": "SCT013 FEW015 BKN040", "temp": 28, "dewp": 24, "qnh": "1010 hPa"}, {"icao": "VVTH", "name": "Dong Tac — Tuy Hoa", "metar": "METAR VVTH 140500Z 24009KT 190V270 9999 FEW016 SCT051 34/23 Q1006 NOSIG", "speci": null, "taf": "TAF VVTH 140200Z 1403/1412 23010KT 9999 FEW017 SCT060 BECMG 1405/1406 14010KT TEMPO 1408/1412 TS SCT013 FEW015CB BKN060", "raw": "METAR VVTH 140500Z 24009KT 190V270 9999 FEW016 SCT051 34/23 Q1006 NOSIG", "fltcat": "VFR", "wind": "240° @ 9 kt", "vis": ">10 km", "clouds": "FEW016 SCT051", "temp": 34, "dewp": 23, "qnh": "1006 hPa"}, {"icao": "VVTS", "name": "Tan Son Nhat — Ho Chi Minh City", "metar": "METAR VVTS 140530Z 27011KT 240V310 9999 FEW042 33/24 Q1008 NOSIG", "speci": null, "taf": "TAF VVTS 132300Z 1400/1506 24010KT 9999 SCT017 TEMPO 1402/1405 24015G25KT 5000 TSRA BKN015 FEW017CB TEMPO 1405/1410 24018G30KT 2500 +TSRA BKN015 SCT017CB", "raw": "METAR VVTS 140530Z 27011KT 240V310 9999 FEW042 33/24 Q1008 NOSIG", "fltcat": "VFR", "wind": "270° @ 11 kt", "vis": ">10 km", "clouds": "FEW042", "temp": 33, "dewp": 24, "qnh": "1008 hPa", "atis": [{"kind": "ARR", "time": "2026-07-14 01:16 UTC", "text": "VVTS ARR ATIS D 1830Z VVTS INFO D 1830Z. ILSW APCH IN RWY 25R.. LDG RWY 25R AND DEP RWY 25L.. 1830Z. WIND RWY 25R TDZ 320/3KT VRB BTN 260/ AND 020/ CAVOK T28 DP26 QNH 1010HPA TREND NOSIG. ADZ ON INITIAL CTC YOU HAVE INFO D."}, {"kind": "DEP", "time": "2026-07-14 04:23 UTC", "text": "VVTS DEP ATIS F 1930Z VVTS INFO F 1930Z. ILSW APCH IN RWY 25R.. LDG RWY 25R AND DEP RWY 25L.. 1930Z. WIND RWY 25R TDZ 240/5KT VRB BTN 200/ AND 290/ CAVOK T28 DP26 QNH 1009HPA TREND NOSIG. ADZ ON INITIAL CTC YOU HAVE INFO F."}]}, {"icao": "VVTX", "name": "Tho Xuan — Thanh Hoa", "metar": "METAR VVTX 140530Z 14005KT 9999 SCT025 35/25 Q1001 NOSIG", "speci": null, "taf": "TAF VVTX 140200Z 1403/1412 21006KT 9999 FEW020 TEMPO 1408/1412 3500 TSRA SCT012 FEW027CB", "raw": "METAR VVTX 140530Z 14005KT 9999 SCT025 35/25 Q1001 NOSIG", "fltcat": "VFR", "wind": "140° @ 5 kt", "vis": ">10 km", "clouds": "SCT025", "temp": 35, "dewp": 25, "qnh": "1001 hPa"}, {"icao": "VVVD", "name": "Van Don — Quang Ninh", "metar": "METAR VVVD 140530Z AUTO VRB04KT 9999 SCT027/// BKN040/// BKN160/// 34/28 Q1002", "speci": null, "taf": "TAF VVVD 132300Z 1400/1424 21005KT 9999 FEW025 TEMPO 1419/1424 3500 TSRA SCT015 FEW027CB", "raw": "METAR VVVD 140530Z AUTO VRB04KT 9999 SCT027/// BKN040/// BKN160/// 34/28 Q1002", "fltcat": "VFR", "wind": "VRB @ 4 kt", "vis": ">10 km", "clouds": "SCT027 BKN040 BKN160", "temp": 34, "dewp": 28, "qnh": "1002 hPa"}, {"icao": "VVVH", "name": "Vinh", "metar": "METAR VVVH 140530Z 25007KT 190V290 CAVOK 35/23 Q1002 NOSIG", "speci": null, "taf": "TAF VVVH 132300Z 1400/1424 23005KT 9999 FEW020", "raw": "METAR VVVH 140530Z 25007KT 190V290 CAVOK 35/23 Q1002 NOSIG", "fltcat": "VFR", "wind": "250° @ 7 kt", "vis": "CAVOK", "clouds": "NSC", "temp": 35, "dewp": 23, "qnh": "1002 hPa"}]}