{"updated": "2026-07-24T01:12:41+00:00", "source": "VN MET", "stations": [{"icao": "VVBM", "name": "Buon Ma Thuot", "metar": "METAR VVBM 240100Z 21004KT 170V270 9999 BKN012 26/23 Q1010 NOSIG", "speci": null, "taf": "TAF VVBM 232300Z 2400/2424 29007KT 9999 SCT015 SCT040 TEMPO 2407/2412 5000 TSRA BKN010 FEW015CB BKN040", "raw": "METAR VVBM 240100Z 21004KT 170V270 9999 BKN012 26/23 Q1010 NOSIG", "fltcat": "MVFR", "wind": "210° @ 4 kt", "vis": ">10 km", "clouds": "BKN012", "temp": 26, "dewp": 23, "qnh": "1010 hPa"}, {"icao": "VVCA", "name": "Chu Lai", "metar": "METAR VVCA 240100Z 01004KT 300V090 CAVOK 32/24 Q1004 NOSIG", "speci": null, "taf": "TAF VVCA 232300Z 2400/2409 19005KT 9999 FEW015 BECMG 2404/2405 08010KT TEMPO 2407/2409 TS SCT013 FEW015CB SCT060", "raw": "METAR VVCA 240100Z 01004KT 300V090 CAVOK 32/24 Q1004 NOSIG", "fltcat": "VFR", "wind": "010° @ 4 kt", "vis": "CAVOK", "clouds": "NSC", "temp": 32, "dewp": 24, "qnh": "1004 hPa"}, {"icao": "VVCI", "name": "Cat Bi — Hai Phong", "metar": "METAR VVCI 240100Z 09004KT 9999 SCT021 FEW025TCU 27/26 Q1006 TEMPO FM0200 3000 TSRA", "speci": null, "taf": "TAF VVCI 232300Z 2400/2424 14005KT 9999 SCT020 TEMPO 2400/2403 3500 TSRA SCT012 FEW027CB TEMPO 2406/2412 3000 TSRA SCT010 FEW027CB TEMPO 2416/2422 3000 TSRA SCT010 FEW027CB", "raw": "METAR VVCI 240100Z 09004KT 9999 SCT021 FEW025TCU 27/26 Q1006 TEMPO FM0200 3000 TSRA", "fltcat": "VFR", "wind": "090° @ 4 kt", "vis": ">10 km", "clouds": "SCT021 FEW025", "temp": 27, "dewp": 26, "qnh": "1006 hPa"}, {"icao": "VVCR", "name": "Cam Ranh — Nha Trang", "metar": "METAR VVCR 240100Z 32003KT 290V360 CAVOK 30/23 Q1006 NOSIG", "speci": null, "taf": "TAF VVCR 232300Z 2400/2424 32005KT 9999 FEW020 BECMG 2402/2403 11011KT TEMPO 2407/2411 4000 TSRA BKN013 FEW017CB BKN050 BECMG 2413/2414 30007KT", "raw": "METAR VVCR 240100Z 32003KT 290V360 CAVOK 30/23 Q1006 NOSIG", "fltcat": "VFR", "wind": "320° @ 3 kt", "vis": "CAVOK", "clouds": "NSC", "temp": 30, "dewp": 23, "qnh": "1006 hPa", "atis": [{"kind": "ARR", "time": "2026-07-22 05:32 UTC", "text": "VVCR ARR ATIS O 1300Z VVCR INFO O 1300Z. ILS YANKEE APPROACH IN USE. LDG RWY 20L AND DPTG RWY 20R.. 1300Z. WIND RWY 20L TDZ 190/7KT MID 190/8KT END 180/7KT RWY 20R TDZ 190/7KT VIS RWY 20L TDZ 10KM END 10KM CLD RWY 20L SCT 7200FT T31 DP24 QNH 1007HPA TREND NOSIG. ADZ ON INITIAL CTC YOU HAVE INFO O."}, {"kind": "DEP", "time": "2026-05-29 05:57 UTC", "text": "VVCR DEP ATIS S 0533Z VVCR INFO S 0533Z. ILS Z APCH IN USE.. LDG RWY 02R AND DPTG RWY 02L.. 0532Z. WIND RWY 02R TDZ 080/9KT MID 090/8KT END 100/8KT RWY 02L TDZ 080/8KT CAVOK T31 DP26 QNH 1009HPA TREND TEMPO FM0630 VIS 4000M MOD TSRA. ADZ ON INITIAL CTC YOU HAVE INFO S."}]}, {"icao": "VVCS", "name": "Con Dao", "metar": "METAR VVCS 240100Z 24005KT 190V320 9999 FEW017 30/25 Q1007 NOSIG", "speci": null, "taf": "TAF VVCS 232300Z 2400/2409 25010KT 9999 SCT017 TEMPO 2402/2405 5000 TSRA BKN015 FEW017CB TEMPO 2405/2409 25015G26KT 3000 TSRA BKN015 SCT017CB", "raw": "METAR VVCS 240100Z 24005KT 190V320 9999 FEW017 30/25 Q1007 NOSIG", "fltcat": "VFR", "wind": "240° @ 5 kt", "vis": ">10 km", "clouds": "FEW017", "temp": 30, "dewp": 25, "qnh": "1007 hPa"}, {"icao": "VVCT", "name": "Can Tho Intl", "metar": "METAR VVCT 240100Z 25006KT 9999 FEW013 FEW015CB 30/25 Q1007 NOSIG", "speci": null, "taf": "TAF AMD VVCT 232325Z 2400/2424 26007KT 9999 SCT015 SCT040 TEMPO 2400/2405 5000 TSRA SCT015 FEW017CB", "raw": "METAR VVCT 240100Z 25006KT 9999 FEW013 FEW015CB 30/25 Q1007 NOSIG", "fltcat": "VFR", "wind": "250° @ 6 kt", "vis": ">10 km", "clouds": "FEW013 FEW015", "temp": 30, "dewp": 25, "qnh": "1007 hPa"}, {"icao": "VVDB", "name": "Dien Bien Phu", "metar": "METAR VVDB 240100Z VRB01KT 9999 FEW004 BKN032 24/23 Q1008 NOSIG", "speci": null, "taf": "TAF VVDB 232300Z 2400/2409 VRB02KT 9999 SCT020 TEMPO 2400/2403 4000 SHRA SCT010 FEW025TCU TEMPO 2408/2409 3500 TSRA SCT010 FEW027CB", "raw": "METAR VVDB 240100Z VRB01KT 9999 FEW004 BKN032 24/23 Q1008 NOSIG", "fltcat": "VFR", "wind": "VRB @ 1 kt", "vis": ">10 km", "clouds": "FEW004 BKN032", "temp": 24, "dewp": 23, "qnh": "1008 hPa"}, {"icao": "VVDH", "name": "Dong Hoi", "metar": "METAR VVDH 240100Z 31004KT 270V350 CAVOK 30/24 Q1005 NOSIG", "speci": null, "taf": "TAF VVDH 232300Z 2400/2409 20006KT 9999 FEW030", "raw": "METAR VVDH 240100Z 31004KT 270V350 CAVOK 30/24 Q1005 NOSIG", "fltcat": "VFR", "wind": "310° @ 4 kt", "vis": "CAVOK", "clouds": "NSC", "temp": 30, "dewp": 24, "qnh": "1005 hPa"}, {"icao": "VVDL", "name": "Lien Khuong — Da Lat", "metar": "METAR VVDL 240100Z VRB03KT 9999 SCT013 22/22 Q1013 NOSIG", "speci": null, "taf": "TAF VVDL 232300Z 2400/2424 28010KT 9999 SCT015 TEMPO 2407/2412 28015G26KT 3000 TSRA BKN010 SCT015CB", "raw": "METAR VVDL 240100Z VRB03KT 9999 SCT013 22/22 Q1013 NOSIG", "fltcat": "VFR", "wind": "VRB @ 3 kt", "vis": ">10 km", "clouds": "SCT013", "temp": 22, "dewp": 22, "qnh": "1013 hPa"}, {"icao": "VVDN", "name": "Da Nang Intl", "metar": "METAR VVDN 240100Z VRB01KT CAVOK 31/24 Q1005 NOSIG", "speci": null, "taf": "TAF VVDN 232300Z 2400/2424 22005KT 9999 FEW017 BECMG 2404/2405 02010KT TEMPO 2408/2412 23015G25KT 3000 TSRA BKN013 FEW017CB BKN060 BECMG 2412/2413 20007KT", "raw": "METAR VVDN 240100Z VRB01KT CAVOK 31/24 Q1005 NOSIG", "fltcat": "VFR", "wind": "VRB @ 1 kt", "vis": "CAVOK", "clouds": "NSC", "temp": 31, "dewp": 24, "qnh": "1005 hPa", "atis": [{"kind": "ARR", "time": "2026-07-23 23:16 UTC", "text": "VVDN ARR ATIS J 0302Z VVDN INFO J 0302Z. ILS VICTOR APPROACH 35L.. DPTG RWY 35R.. 0302Z. WIND 260/06KT CAVOK T36 DP22 QNH 1005HPA TREND NOSIG. ADZ ON INITIAL CTC YOU HAVE INFO. J."}, {"kind": "DEP", "time": "2026-07-22 10:38 UTC", "text": "VVDN DEP ATIS G 1432Z VVDN INFO G 1432Z. ILS VICTOR APPROACH 35L.. DPTG RWY 35R.. 1432Z. WIND VRB/01KT CAVOK T32 DP24 QNH 1004HPA TREND NOSIG. ADZ ON INITIAL CTC YOU HAVE INFO. G."}]}, {"icao": "VVNB", "name": "Noi Bai — Ha Noi", "metar": "METAR COR VVNB 240100Z 04009KT 9999 FEW044 SCT065 27/25 Q1005 TEMPO FM0140 2500 +TSRA FEW027CB", "speci": null, "taf": "TAF AMD VVNB 240047Z 2401/2424 05005KT 9999 FEW020 TEMPO 2401/2403 3000 TSRA SCT010 FEW027CB TEMPO 2406/2410 3500 TSRA SCT010 FEW027CB TEMPO 2418/2422 3000 TSRA SCT010 FEW027CB", "raw": "METAR COR VVNB 240100Z 04009KT 9999 FEW044 SCT065 27/25 Q1005 TEMPO FM0140 2500 +TSRA FEW027CB", "fltcat": "VFR", "wind": "040° @ 9 kt", "vis": ">10 km", "clouds": "FEW044 SCT065 FEW027", "temp": 27, "dewp": 25, "qnh": "1005 hPa", "atis": [{"kind": "ARR", "time": "2026-07-24 00:46 UTC", "text": "VVNB ARR ATIS Q 0330Z VVNB INFO Q 0330Z. ILS X RWY 11L. DPTG RWY 11R AND ARR RWY 11L .. 0330Z. WIND 030/8KT CAVOK T34 DP28 QNH 1002HPA TREND NOSIG. ADZ ON INITIAL CTC YOU HAVE INFO Q."}, {"kind": "DEP", "time": "2026-07-24 01:10 UTC", "text": "VVNB DEP ATIS Q 0330Z VVNB INFO Q 0330Z. ILS X RWY 11L. DPTG RWY 11R AND ARR RWY 11L .. 0330Z. WIND 030/8KT CAVOK T34 DP28 QNH 1002HPA TREND NOSIG. ADZ ON INITIAL CTC YOU HAVE INFO Q."}]}, {"icao": "VVNS", "name": "Na San — Son La", "metar": "METAR VVNS 240000Z /////KT 6000 BKN040 22/20 Q1006 NOSIG", "speci": null, "taf": null, "raw": "METAR VVNS 240000Z /////KT 6000 BKN040 22/20 Q1006 NOSIG", "fltcat": "MVFR", "wind": "—", "vis": "6.0 km", "clouds": "BKN040", "temp": 22, "dewp": 20, "qnh": "1006 hPa"}, {"icao": "VVPB", "name": "Phu Bai — Hue", "metar": "METAR VVPB 240100Z 31001KT 9999 FEW017 31/23 Q1005 NOSIG", "speci": null, "taf": "TAF VVPB 232300Z 2400/2424 24006KT 9999 FEW017 SCT060 BECMG 2403/2404 07010KT TEMPO 2408/2412 24015G25KT 4000 TSRA BKN013 FEW017CB BKN060 BECMG 2413/2414 24007KT", "raw": "METAR VVPB 240100Z 31001KT 9999 FEW017 31/23 Q1005 NOSIG", "fltcat": "VFR", "wind": "310° @ 1 kt", "vis": ">10 km", "clouds": "FEW017", "temp": 31, "dewp": 23, "qnh": "1005 hPa"}, {"icao": "VVPC", "name": "Phu Cat — Quy Nhon", "metar": "METAR VVPC 240100Z 22004KT 160V270 CAVOK 32/23 Q1005 NOSIG", "speci": null, "taf": "TAF VVPC 232300Z 2400/2424 25009KT 9999 FEW020 SCT060 TEMPO 2408/2412 VRB15G25KT 3000 TSRA BKN010 FEW015CB BKN050", "raw": "METAR VVPC 240100Z 22004KT 160V270 CAVOK 32/23 Q1005 NOSIG", "fltcat": "VFR", "wind": "220° @ 4 kt", "vis": "CAVOK", "clouds": "NSC", "temp": 32, "dewp": 23, "qnh": "1005 hPa"}, {"icao": "VVPK", "name": "Pleiku", "metar": "METAR VVPK 240100Z 27006KT 240V300 9999 FEW006 SCT011 BKN020 23/22 Q1011 NOSIG", "speci": null, "taf": "TAF VVPK 232300Z 2400/2424 24008KT 9999 BKN010 TEMPO 2400/2403 3500 RA BR BKN004 BECMG 2403/2404 SCT017 SCT060 TEMPO 2408/2413 26015G25KT 4000 TSRA BKN010 FEW017CB BKN050 TEMPO 2422/2424 3500 RA BR BKN003 BKN006", "raw": "METAR VVPK 240100Z 27006KT 240V300 9999 FEW006 SCT011 BKN020 23/22 Q1011 NOSIG", "fltcat": "MVFR", "wind": "270° @ 6 kt", "vis": ">10 km", "clouds": "FEW006 SCT011 BKN020", "temp": 23, "dewp": 22, "qnh": "1011 hPa"}, {"icao": "VVPQ", "name": "Phu Quoc Intl", "metar": "METAR VVPQ 240100Z 28012KT 9999 SCT015 30/28 Q1007 NOSIG", "speci": null, "taf": "TAF COR VVPQ 232350Z 2400/2424 28014KT 9999 SCT017 SCT040 TEMPO 2402/2406 28015G28KT 4000 TSRA BKN015 FEW017CB TEMPO 2422/2424 28015G28KT 4000 TSRA BKN015 FEW017CB", "raw": "METAR VVPQ 240100Z 28012KT 9999 SCT015 30/28 Q1007 NOSIG", "fltcat": "VFR", "wind": "280° @ 12 kt", "vis": ">10 km", "clouds": "SCT015", "temp": 30, "dewp": 28, "qnh": "1007 hPa"}, {"icao": "VVRG", "name": "Rach Gia", "metar": "METAR VVRG 240100Z 23004KT 200V290 9999 SCT015 FEW017CB SCT040 28/26 Q1007 NOSIG", "speci": null, "taf": "TAF AMD VVRG 232326Z 2400/2409 24008KT 9999 SCT017 SCT040 TEMPO 2400/2404 4000 TSRA BKN015 FEW017CB", "raw": "METAR VVRG 240100Z 23004KT 200V290 9999 SCT015 FEW017CB SCT040 28/26 Q1007 NOSIG", "fltcat": "VFR", "wind": "230° @ 4 kt", "vis": ">10 km", "clouds": "SCT015 FEW017 SCT040", "temp": 28, "dewp": 26, "qnh": "1007 hPa"}, {"icao": "VVTH", "name": "Dong Tac — Tuy Hoa", "metar": "METAR VVTH 240100Z 24015KT 210V280 CAVOK 31/22 Q1005 NOSIG", "speci": null, "taf": "TAF VVTH 232300Z 2400/2409 26010KT 9999 FEW020 TEMPO 2407/2409 TS SCT013 FEW015CB SCT060", "raw": "METAR VVTH 240100Z 24015KT 210V280 CAVOK 31/22 Q1005 NOSIG", "fltcat": "VFR", "wind": "240° @ 15 kt", "vis": "CAVOK", "clouds": "NSC", "temp": 31, "dewp": 22, "qnh": "1005 hPa"}, {"icao": "VVTS", "name": "Tan Son Nhat — Ho Chi Minh City", "metar": "METAR VVTS 240100Z VRB03KT 9999 FEW022 BKN068 29/25 Q1007 NOSIG", "speci": null, "taf": "TAF VVTS 232300Z 2400/2506 VRB03KT 9999 SCT017 BECMG 2400/2402 26010KT TEMPO 2406/2408 5000 TSRA BKN015 FEW017CB TEMPO 2408/2412 26015G28KT 2000 +TSRA BKN013 SCT015CB", "raw": "METAR VVTS 240100Z VRB03KT 9999 FEW022 BKN068 29/25 Q1007 NOSIG", "fltcat": "VFR", "wind": "VRB @ 3 kt", "vis": ">10 km", "clouds": "FEW022 BKN068", "temp": 29, "dewp": 25, "qnh": "1007 hPa", "atis": [{"kind": "ARR", "time": "2026-07-23 23:15 UTC", "text": "VVTS ARR ATIS L 0300Z VVTS INFO L 0300Z. ILSW APCH IN RWY 25R.. LDG RWY 25R AND DEP RWY 25L.. 0300Z. WIND RWY 25L TDZ 280/14KT MAX20 MNM9 MID 270/10KT MAX17 MNM6 END 280/14KT MAX21 MNM7 VRB BTN 230/ AND 310/ RWY 25R TDZ 280/14KT MAX20 MNM9 END 250/12KT VRB BTN 230/ AND 300/ VIS 10KM CLD SCT 2700FT SCT 9200FT T33 DP26 QNH 1009HPA TREND TEMPO FM0430 240/16KT MAX28 VIS 3000M MOD TSRA CLD BKN 1500FT FEW CB 1700FT. ADZ ON INITIAL CTC YOU HAVE INFO L."}, {"kind": "DEP", "time": "2026-07-23 04:13 UTC", "text": "VVTS DEP ATIS Y 2030Z VVTS INFO Y 2030Z. ILSW APCH IN RWY 25R.. LDG RWY 25R AND DEP RWY 25L.. 2030Z. WIND RWY 25R TDZ 240/8KT MAX15 MNM6 END 240/8KT VIS 10KM CLD FEW 1600FT T29 DP27 QNH 1007HPA TREND NOSIG. ADZ ON INITIAL CTC YOU HAVE INFO Y."}]}, {"icao": "VVTX", "name": "Tho Xuan — Thanh Hoa", "metar": "METAR VVTX 240100Z 35002KT CAVOK 27/23 Q1005 NOSIG", "speci": null, "taf": "TAF VVTX 232300Z 2400/2409 25005KT 9999 FEW020 TEMPO 2406/2409 3500 TSRA SCT010 FEW027CB", "raw": "METAR VVTX 240100Z 35002KT CAVOK 27/23 Q1005 NOSIG", "fltcat": "VFR", "wind": "350° @ 2 kt", "vis": "CAVOK", "clouds": "NSC", "temp": 27, "dewp": 23, "qnh": "1005 hPa"}, {"icao": "VVVD", "name": "Van Don — Quang Ninh", "metar": "METAR VVVD 240100Z 12003KT 080V170 2500 +TSRA BKN010 FEW027CB 25/25 Q1006 TEMPO TL0130 1400 +TSRA", "speci": null, "taf": "TAF VVVD 232300Z 2400/2424 VRB02KT 9999 SCT020 TEMPO 2400/2403 3000 TSRA SCT010 FEW027CB TEMPO 2405/2410 3500 TSRA SCT010 FEW027CB TEMPO 2416/2422 3000 TSRA SCT010 FEW027CB", "raw": "METAR VVVD 240100Z 12003KT 080V170 2500 +TSRA BKN010 FEW027CB 25/25 Q1006 TEMPO TL0130 1400 +TSRA", "fltcat": "IFR", "wind": "120° @ 3 kt", "vis": "2.5 km", "clouds": "BKN010 FEW027", "temp": 25, "dewp": 25, "qnh": "1006 hPa"}, {"icao": "VVVH", "name": "Vinh", "metar": "METAR VVVH 240100Z 28003KT 240V320 9999 FEW020 28/24 Q1005 NOSIG", "speci": null, "taf": "TAF VVVH 232300Z 2400/2424 VRB02KT 9999 FEW030 TEMPO 2408/2412 3500 TSRA SCT010 FEW027CB", "raw": "METAR VVVH 240100Z 28003KT 240V320 9999 FEW020 28/24 Q1005 NOSIG", "fltcat": "VFR", "wind": "280° @ 3 kt", "vis": ">10 km", "clouds": "FEW020", "temp": 28, "dewp": 24, "qnh": "1005 hPa"}]}