{"updated": "2026-07-20T05:31:35+00:00", "source": "VN MET", "stations": [{"icao": "VVBM", "name": "Buon Ma Thuot", "metar": "METAR VVBM 200530Z 29010KT 260V320 9999 FEW015 FEW017 31/22 Q1011 NOSIG RMK TCU/NW", "speci": null, "taf": "TAF VVBM 192300Z 2000/2024 VRB02KT 9999 SCT015 BECMG 2001/2002 27010KT TEMPO 2009/2012 TS SCT015 FEW017CB", "raw": "METAR VVBM 200530Z 29010KT 260V320 9999 FEW015 FEW017 31/22 Q1011 NOSIG RMK TCU/NW", "fltcat": "VFR", "wind": "290° @ 10 kt", "vis": ">10 km", "clouds": "FEW015 FEW017", "temp": 31, "dewp": 22, "qnh": "1011 hPa"}, {"icao": "VVCA", "name": "Chu Lai", "metar": "METAR VVCA 200530Z 07012KT CAVOK 35/24 Q1004 NOSIG", "speci": null, "taf": "TAF VVCA 200200Z 2003/2012 06010KT 9999 FEW017", "raw": "METAR VVCA 200530Z 07012KT CAVOK 35/24 Q1004 NOSIG", "fltcat": "VFR", "wind": "070° @ 12 kt", "vis": "CAVOK", "clouds": "NSC", "temp": 35, "dewp": 24, "qnh": "1004 hPa"}, {"icao": "VVCI", "name": "Cat Bi — Hai Phong", "metar": "METAR VVCI 200500Z 23005KT 190V270 9999 FEW037 33/26 Q1003 NOSIG", "speci": null, "taf": "TAF VVCI 192300Z 2000/2024 23005KT 9999 FEW030 TEMPO 2008/2012 3500 TSRA SCT010 FEW027CB TEMPO 2021/2024 4000 SHRA SCT015 FEW025TCU", "raw": "METAR VVCI 200500Z 23005KT 190V270 9999 FEW037 33/26 Q1003 NOSIG", "fltcat": "VFR", "wind": "230° @ 5 kt", "vis": ">10 km", "clouds": "FEW037", "temp": 33, "dewp": 26, "qnh": "1003 hPa"}, {"icao": "VVCR", "name": "Cam Ranh — Nha Trang", "metar": "METAR VVCR 200500Z 10010KT CAVOK 36/21 Q1007 NOSIG", "speci": null, "taf": "TAF VVCR 192300Z 2000/2024 33006KT 9999 FEW020 BECMG 2002/2003 11012KT BECMG 2011/2012 20009KT", "raw": "METAR VVCR 200500Z 10010KT CAVOK 36/21 Q1007 NOSIG", "fltcat": "VFR", "wind": "100° @ 10 kt", "vis": "CAVOK", "clouds": "NSC", "temp": 36, "dewp": 21, "qnh": "1007 hPa", "atis": [{"kind": "ARR", "time": "2026-07-17 14:03 UTC", "text": "VVCR ARR ATIS F 1401Z VVCR INFO F 1401Z. ILS Z APCH IN USE.. LDG RWY 02R AND DPTG RWY 02L.. 1400Z. WIND RWY 02R TDZ 040/3KT MID 340/3KT END 010/6KT RWY 02L TDZ 020/3KT VIS RWY 02R TDZ 10KM END"}, {"kind": "DEP", "time": "2026-05-29 05:57 UTC", "text": "VVCR DEP ATIS S 0533Z VVCR INFO S 0533Z. ILS Z APCH IN USE.. LDG RWY 02R AND DPTG RWY 02L.. 0532Z. WIND RWY 02R TDZ 080/9KT MID 090/8KT END 100/8KT RWY 02L TDZ 080/8KT CAVOK T31 DP26 QNH 1009HPA TREND TEMPO FM0630 VIS 4000M MOD TSRA. ADZ ON INITIAL CTC YOU HAVE INFO S."}]}, {"icao": "VVCS", "name": "Con Dao", "metar": "METAR VVCS 200530Z 27006KT 200V320 9999 FEW017 32/25 Q1010 NOSIG", "speci": null, "taf": "TAF VVCS 200200Z 2003/2012 25010KT 9999 SCT017", "raw": "METAR VVCS 200530Z 27006KT 200V320 9999 FEW017 32/25 Q1010 NOSIG", "fltcat": "VFR", "wind": "270° @ 6 kt", "vis": ">10 km", "clouds": "FEW017", "temp": 32, "dewp": 25, "qnh": "1010 hPa"}, {"icao": "VVCT", "name": "Can Tho Intl", "metar": "METAR VVCT 200530Z 26011KT 9999 SCT015 33/27 Q1010 NOSIG", "speci": null, "taf": "TAF VVCT 192300Z 2000/2024 24007KT 9999 SCT015 TEMPO 2006/2008 TS SCT015 FEW017CB", "raw": "METAR VVCT 200530Z 26011KT 9999 SCT015 33/27 Q1010 NOSIG", "fltcat": "VFR", "wind": "260° @ 11 kt", "vis": ">10 km", "clouds": "SCT015", "temp": 33, "dewp": 27, "qnh": "1010 hPa"}, {"icao": "VVDB", "name": "Dien Bien Phu", "metar": "METAR VVDB 200530Z 19007KT 160V220 9999 SCT022 OVC035 27/23 Q1008 NOSIG", "speci": null, "taf": "TAF VVDB 200200Z 2003/2012 VRB03KT 6000 SCT015 BKN030 TEMPO 2008/2012 4000 SHRA SCT010 FEW025TCU", "raw": "METAR VVDB 200530Z 19007KT 160V220 9999 SCT022 OVC035 27/23 Q1008 NOSIG", "fltcat": "VFR", "wind": "190° @ 7 kt", "vis": ">10 km", "clouds": "SCT022 OVC035", "temp": 27, "dewp": 23, "qnh": "1008 hPa"}, {"icao": "VVDH", "name": "Dong Hoi", "metar": "METAR VVDH 200530Z 27012KT 240V300 CAVOK 36/21 Q1004 NOSIG", "speci": null, "taf": "TAF VVDH 200200Z 2003/2012 22010KT 9999 FEW030", "raw": "METAR VVDH 200530Z 27012KT 240V300 CAVOK 36/21 Q1004 NOSIG", "fltcat": "VFR", "wind": "270° @ 12 kt", "vis": "CAVOK", "clouds": "NSC", "temp": 36, "dewp": 21, "qnh": "1004 hPa"}, {"icao": "VVDN", "name": "Da Nang Intl", "metar": "METAR VVDN 200500Z 26006KT 220V300 9999 FEW020 37/21 Q1005 NOSIG", "speci": null, "taf": "TAF VVDN 192300Z 2000/2024 24004KT 9999 FEW017 BECMG 2005/2006 01010KT BECMG 2012/2013 22007KT", "raw": "METAR VVDN 200500Z 26006KT 220V300 9999 FEW020 37/21 Q1005 NOSIG", "fltcat": "VFR", "wind": "260° @ 6 kt", "vis": ">10 km", "clouds": "FEW020", "temp": 37, "dewp": 21, "qnh": "1005 hPa", "atis": [{"kind": "ARR", "time": "2026-07-20 05:01 UTC", "text": "VVDN ARR ATIS D 0432Z VVDN INFO D 0432Z. ILS VICTOR APPROACH 35L.. DPTG RWY 35R.. 0432Z. WIND 270/04KT CAVOK T37 DP20 QNH 1005HPA TREND NOSIG. ADZ ON INITIAL CTC YOU HAVE INFO. D."}, {"kind": "DEP", "time": "2026-07-19 18:34 UTC", "text": "VVDN DEP ATIS J 1833Z VVDN INFO J 1833Z. ILS VICTOR APPROACH 35L.. DPTG RWY 35R.. 1833Z. WIND 300/02KT CAVOK T30 DP22 QNH 1006HPA TREND NOSIG. ADZ ON INITIAL CTC YOU HAVE INFO. J."}]}, {"icao": "VVNB", "name": "Noi Bai — Ha Noi", "metar": "METAR VVNB 200530Z 30006KT 9999 FEW020 31/26 Q1003 NOSIG", "speci": null, "taf": "TAF VVNB 192300Z 2000/2024 32005KT 9999 FEW020 TEMPO 2005/2009 3200 TSRA SCT010 FEW027CB", "raw": "METAR VVNB 200530Z 30006KT 9999 FEW020 31/26 Q1003 NOSIG", "fltcat": "VFR", "wind": "300° @ 6 kt", "vis": ">10 km", "clouds": "FEW020", "temp": 31, "dewp": 26, "qnh": "1003 hPa", "atis": [{"kind": "ARR", "time": "2026-07-20 05:12 UTC", "text": "VVNB ARR ATIS E 2030Z VVNB INFO E 2030Z. ILS X RWY 11L. DEP RWY 11L AND ARR RWY 11L. 2030Z. WIND CALM CAVOK T30 DP24 QNH 0999HPA TREND NOSIG. ADZ ON INITIAL CTC YOU HAVE INFO E."}, {"kind": "DEP", "time": "2026-07-19 08:39 UTC", "text": "VVNB DEP ATIS P 1300Z VVNB INFO P 1300Z. ILS X RWY 11L. DPTG RWY 11R AND ARR RWY 11L .. 1300Z. WIND 220/6KT VIS 10KM CLD FEW 1200FT T35 DP24 QNH 0999HPA TREND NOSIG. ADZ ON INITIAL CTC YOU HAVE INFO P."}]}, {"icao": "VVPB", "name": "Phu Bai — Hue", "metar": "METAR VVPB 200500Z 28009KT 9999 FEW020 38/18 Q1004 NOSIG", "speci": null, "taf": "TAF VVPB 192300Z 2000/2024 23006KT 9999 FEW020 BECMG 2006/2007 06010KT BECMG 2013/2014 20007KT", "raw": "METAR VVPB 200500Z 28009KT 9999 FEW020 38/18 Q1004 NOSIG", "fltcat": "VFR", "wind": "280° @ 9 kt", "vis": ">10 km", "clouds": "FEW020", "temp": 38, "dewp": 18, "qnh": "1004 hPa"}, {"icao": "VVPC", "name": "Phu Cat — Quy Nhon", "metar": "METAR VVPC 200500Z 24011KT 200V270 9999 FEW040 37/20 Q1006 TEMPO 24015G25KT", "speci": null, "taf": "TAF VVPC 192300Z 2000/2024 25007KT 9999 FEW020 TEMPO 2003/2008 25015G25KT", "raw": "METAR VVPC 200500Z 24011KT 200V270 9999 FEW040 37/20 Q1006 TEMPO 24015G25KT", "fltcat": "VFR", "wind": "240° @ 11 kt", "vis": ">10 km", "clouds": "FEW040", "temp": 37, "dewp": 20, "qnh": "1006 hPa"}, {"icao": "VVPK", "name": "Pleiku", "metar": "METAR VVPK 200530Z 27011KT 230V300 9999 SCT020 29/20 Q1013 NOSIG", "speci": null, "taf": "TAF VVPK 192300Z 2000/2024 26010KT 9999 BKN005 BKN010 TEMPO 2000/2002 4000 RA BR BECMG 2002/2003 SCT017 TEMPO 2008/2012 TS SCT013 FEW015CB SCT060 TEMPO 2022/2024 4000 RA BR BKN004", "raw": "METAR VVPK 200530Z 27011KT 230V300 9999 SCT020 29/20 Q1013 NOSIG", "fltcat": "VFR", "wind": "270° @ 11 kt", "vis": ">10 km", "clouds": "SCT020", "temp": 29, "dewp": 20, "qnh": "1013 hPa"}, {"icao": "VVPQ", "name": "Phu Quoc Intl", "metar": "METAR VVPQ 200500Z 25011KT 9999 SCT015 32/29 Q1011 NOSIG", "speci": null, "taf": "TAF VVPQ 192300Z 2000/2024 27007KT 9999 SCT015", "raw": "METAR VVPQ 200500Z 25011KT 9999 SCT015 32/29 Q1011 NOSIG", "fltcat": "VFR", "wind": "250° @ 11 kt", "vis": ">10 km", "clouds": "SCT015", "temp": 32, "dewp": 29, "qnh": "1011 hPa"}, {"icao": "VVRG", "name": "Rach Gia", "metar": "METAR VVRG 200530Z 25009KT 210V290 9999 SCT020 33/25 Q1010 NOSIG", "speci": null, "taf": "TAF VVRG 200200Z 2003/2012 25010KT 9999 SCT017", "raw": "METAR VVRG 200530Z 25009KT 210V290 9999 SCT020 33/25 Q1010 NOSIG", "fltcat": "VFR", "wind": "250° @ 9 kt", "vis": ">10 km", "clouds": "SCT020", "temp": 33, "dewp": 25, "qnh": "1010 hPa"}, {"icao": "VVTH", "name": "Dong Tac — Tuy Hoa", "metar": "METAR VVTH 200500Z 25010KT 210V300 9999 FEW016 37/20 Q1007 NOSIG", "speci": null, "taf": "TAF VVTH 200200Z 2003/2012 24013KT 9999 FEW017 TEMPO 2004/2007 24015G25KT BECMG 2007/2008 15010KT", "raw": "METAR VVTH 200500Z 25010KT 210V300 9999 FEW016 37/20 Q1007 NOSIG", "fltcat": "VFR", "wind": "250° @ 10 kt", "vis": ">10 km", "clouds": "FEW016", "temp": 37, "dewp": 20, "qnh": "1007 hPa"}, {"icao": "VVTS", "name": "Tan Son Nhat — Ho Chi Minh City", "metar": "METAR VVTS 200530Z 25012KT 210V280 9999 SCT028 33/23 Q1009 NOSIG", "speci": null, "taf": "TAF VVTS 192300Z 2000/2106 24008KT 9999 SCT017", "raw": "METAR VVTS 200530Z 25012KT 210V280 9999 SCT028 33/23 Q1009 NOSIG", "fltcat": "VFR", "wind": "250° @ 12 kt", "vis": ">10 km", "clouds": "SCT028", "temp": 33, "dewp": 23, "qnh": "1009 hPa", "atis": [{"kind": "ARR", "time": "2026-07-19 17:26 UTC", "text": "VVTS ARR ATIS R 1600Z VVTS INFO R 1600Z. ILSW APCH IN RWY 25R.. LDG RWY 25R AND DEP RWY 25L.. 1600Z. WIND RWY 25R TDZ 280/6KT CAVOK T28 DP24 QNH 1008HPA TREND NOSIG. ADZ ON INITIAL CTC YOU HAVE INFO R."}, {"kind": "DEP", "time": "2026-07-19 13:16 UTC", "text": "VVTS DEP ATIS O 1430Z VVTS INFO O 1430Z. ILSW APCH IN RWY 25R.. LDG RWY 25R AND DEP RWY 25L.. 1430Z. WIND RWY 25R TDZ 290/5KT END 250/4KT CAVOK T28 DP25 QNH 1009HPA TREND NOSIG. ADZ ON INITIAL CTC YOU HAVE INFO O."}]}, {"icao": "VVTX", "name": "Tho Xuan — Thanh Hoa", "metar": "METAR VVTX 200530Z 13004KT CAVOK 34/21 Q1002 NOSIG", "speci": null, "taf": "TAF VVTX 200200Z 2003/2012 23005KT 9999 FEW030 TEMPO 2009/2012 3500 TSRA SCT010 FEW027CB", "raw": "METAR VVTX 200530Z 13004KT CAVOK 34/21 Q1002 NOSIG", "fltcat": "VFR", "wind": "130° @ 4 kt", "vis": "CAVOK", "clouds": "NSC", "temp": 34, "dewp": 21, "qnh": "1002 hPa"}, {"icao": "VVVD", "name": "Van Don — Quang Ninh", "metar": "METAR VVVD 200530Z 19004KT CAVOK 31/27 Q1003 NOSIG", "speci": null, "taf": "TAF VVVD 192300Z 2000/2024 VRB02KT 9999 FEW030 TEMPO 2007/2011 3200 TSRA SCT010 FEW027CB TEMPO 2021/2024 4000 SHRA SCT012 FEW022TCU", "raw": "METAR VVVD 200530Z 19004KT CAVOK 31/27 Q1003 NOSIG", "fltcat": "VFR", "wind": "190° @ 4 kt", "vis": "CAVOK", "clouds": "NSC", "temp": 31, "dewp": 27, "qnh": "1003 hPa"}, {"icao": "VVVH", "name": "Vinh", "metar": "METAR VVVH 200530Z 25011G22KT 190V330 CAVOK 35/20 Q1003 NOSIG", "speci": null, "taf": "TAF VVVH 192300Z 2000/2024 24008KT 9999 FEW030", "raw": "METAR VVVH 200530Z 25011G22KT 190V330 CAVOK 35/20 Q1003 NOSIG", "fltcat": "VFR", "wind": "250° @ 11 kt G22", "vis": "CAVOK", "clouds": "NSC", "temp": 35, "dewp": 20, "qnh": "1003 hPa"}]}