{"updated": "2026-07-17T22:05:09+00:00", "source": "VN MET", "stations": [{"icao": "VVBM", "name": "Buon Ma Thuot", "metar": "METAR VVBM 172100Z VRB02KT 8000 SCT013 SCT040 22/20 Q1012 NOSIG", "speci": null, "taf": "TAF VVBM 162300Z 1700/1724 25008KT 9999 SCT015 TEMPO 1709/1711 5000 TSRA BKN013 FEW015CB", "raw": "METAR VVBM 172100Z VRB02KT 8000 SCT013 SCT040 22/20 Q1012 NOSIG", "fltcat": "MVFR", "wind": "VRB @ 2 kt", "vis": "8.0 km", "clouds": "SCT013 SCT040", "temp": 22, "dewp": 20, "qnh": "1012 hPa"}, {"icao": "VVCA", "name": "Chu Lai", "metar": "METAR VVCA 172200Z VRB02KT CAVOK 27/25 Q1004 NOSIG", "speci": null, "taf": "TAF VVCA 172000Z 1721/1806 19007KT 9999 FEW020 BECMG 1802/1803 08010KT", "raw": "METAR VVCA 172200Z VRB02KT CAVOK 27/25 Q1004 NOSIG", "fltcat": "VFR", "wind": "VRB @ 2 kt", "vis": "CAVOK", "clouds": "NSC", "temp": 27, "dewp": 25, "qnh": "1004 hPa"}, {"icao": "VVCI", "name": "Cat Bi — Hai Phong", "metar": "METAR VVCI 172130Z 21005KT CAVOK 29/24 Q1000 NOSIG", "speci": null, "taf": "TAF VVCI 162300Z 1700/1724 21008KT 9999 FEW020 TEMPO 1702/1706 4000 TSRA SCT010 FEW027CB", "raw": "METAR VVCI 172130Z 21005KT CAVOK 29/24 Q1000 NOSIG", "fltcat": "VFR", "wind": "210° @ 5 kt", "vis": "CAVOK", "clouds": "NSC", "temp": 29, "dewp": 24, "qnh": "1000 hPa"}, {"icao": "VVCR", "name": "Cam Ranh — Nha Trang", "metar": "METAR VVCR 172200Z VRB02KT CAVOK 27/23 Q1008 NOSIG", "speci": null, "taf": "TAF VVCR 162300Z 1700/1724 20008KT 9999 FEW020 BECMG 1703/1704 12010KT TEMPO 1709/1712 TS SCT013 FEW017CB BECMG 1712/1713 22007KT", "raw": "METAR VVCR 172200Z VRB02KT CAVOK 27/23 Q1008 NOSIG", "fltcat": "VFR", "wind": "VRB @ 2 kt", "vis": "CAVOK", "clouds": "NSC", "temp": 27, "dewp": 23, "qnh": "1008 hPa", "atis": [{"kind": "ARR", "time": "2026-07-17 14:03 UTC", "text": "VVCR ARR ATIS F 1401Z VVCR INFO F 1401Z. ILS Z APCH IN USE.. LDG RWY 02R AND DPTG RWY 02L.. 1400Z. WIND RWY 02R TDZ 040/3KT MID 340/3KT END 010/6KT RWY 02L TDZ 020/3KT VIS RWY 02R TDZ 10KM END"}, {"kind": "DEP", "time": "2026-05-29 05:57 UTC", "text": "VVCR DEP ATIS S 0533Z VVCR INFO S 0533Z. ILS Z APCH IN USE.. LDG RWY 02R AND DPTG RWY 02L.. 0532Z. WIND RWY 02R TDZ 080/9KT MID 090/8KT END 100/8KT RWY 02L TDZ 080/8KT CAVOK T31 DP26 QNH 1009HPA TREND TEMPO FM0630 VIS 4000M MOD TSRA. ADZ ON INITIAL CTC YOU HAVE INFO S."}]}, {"icao": "VVCS", "name": "Con Dao", "metar": "METAR VVCS 172200Z VRB02KT 9999 FEW017 27/24 Q1010 NOSIG", "speci": null, "taf": null, "raw": "METAR VVCS 172200Z VRB02KT 9999 FEW017 27/24 Q1010 NOSIG", "fltcat": "VFR", "wind": "VRB @ 2 kt", "vis": ">10 km", "clouds": "FEW017", "temp": 27, "dewp": 24, "qnh": "1010 hPa"}, {"icao": "VVCT", "name": "Can Tho Intl", "metar": "METAR VVCT 172200Z VRB01KT 6000 SCT040 26/25 Q1010 NOSIG", "speci": null, "taf": "TAF VVCT 162300Z 1700/1724 26010KT 9999 SCT015 SCT040", "raw": "METAR VVCT 172200Z VRB01KT 6000 SCT040 26/25 Q1010 NOSIG", "fltcat": "MVFR", "wind": "VRB @ 1 kt", "vis": "6.0 km", "clouds": "SCT040", "temp": 26, "dewp": 25, "qnh": "1010 hPa"}, {"icao": "VVDB", "name": "Dien Bien Phu", "metar": "METAR VVDB 172200Z VRB02KT 9999 FEW004 SCT015 OVC020 23/22 Q1006 NOSIG", "speci": null, "taf": "TAF VVDB 172000Z 1721/1806 21005KT 6000 SCT025 TEMPO 1721/1724 3500 SHRA SCT010 FEW025TCU TEMPO 1802/1806 3000 SHRA SCT010 FEW025TCU", "raw": "METAR VVDB 172200Z VRB02KT 9999 FEW004 SCT015 OVC020 23/22 Q1006 NOSIG", "fltcat": "MVFR", "wind": "VRB @ 2 kt", "vis": ">10 km", "clouds": "FEW004 SCT015 OVC020", "temp": 23, "dewp": 22, "qnh": "1006 hPa"}, {"icao": "VVDH", "name": "Dong Hoi", "metar": "METAR VVDH 172200Z 22003KT 180V260 9999 FEW047 30/24 Q1003 NOSIG", "speci": null, "taf": "TAF VVDH 172000Z 1721/1806 26006KT 9999 FEW030", "raw": "METAR VVDH 172200Z 22003KT 180V260 9999 FEW047 30/24 Q1003 NOSIG", "fltcat": "VFR", "wind": "220° @ 3 kt", "vis": ">10 km", "clouds": "FEW047", "temp": 30, "dewp": 24, "qnh": "1003 hPa"}, {"icao": "VVDN", "name": "Da Nang Intl", "metar": "METAR VVDN 172200Z 20004KT 9999 FEW020 28/22 Q1005 NOSIG", "speci": null, "taf": "TAF VVDN 162300Z 1700/1724 23013KT 9999 FEW017 SCT060 TEMPO 1709/1712 TS SCT013 FEW015CB SCT060", "raw": "METAR VVDN 172200Z 20004KT 9999 FEW020 28/22 Q1005 NOSIG", "fltcat": "VFR", "wind": "200° @ 4 kt", "vis": ">10 km", "clouds": "FEW020", "temp": 28, "dewp": 22, "qnh": "1005 hPa", "atis": [{"kind": "ARR", "time": "2026-07-17 21:24 UTC", "text": "VVDN ARR ATIS E 0202Z VVDN INFO E 0202Z. ILS VICTOR APPROACH 35L.. DPTG RWY 35R.. 0202Z. WIND VRB/01KT CAVOK T35 DP23 QNH 1005HPA TREND NOSIG. ADZ ON INITIAL CTC YOU HAVE INFO. E."}, {"kind": "DEP", "time": "2026-07-12 02:50 UTC", "text": "VVDN DEP ATIS N 0423Z VVDN INFO N 0423Z. ILS VICTOR APPROACH 35L.. DPTG RWY 35R.. 0423Z. WIND 010/02KT CAVOK T36 DP24 QNH 1008HPA TREND NOSIG. WS ALL RWY. ADZ ON INITIAL CTC YOU HAVE INFO. N."}]}, {"icao": "VVNB", "name": "Noi Bai — Ha Noi", "metar": "METAR VVNB 172200Z VRB02KT CAVOK 28/25 Q1000 NOSIG", "speci": null, "taf": "TAF VVNB 162300Z 1700/1724 21005KT 9999 FEW030 TEMPO 1700/1702 3000 SHRA SCT010 FEW025TCU TEMPO 1703/1707 3000 TSRA SCT010 FEW027CB", "raw": "METAR VVNB 172200Z VRB02KT CAVOK 28/25 Q1000 NOSIG", "fltcat": "VFR", "wind": "VRB @ 2 kt", "vis": "CAVOK", "clouds": "NSC", "temp": 28, "dewp": 25, "qnh": "1000 hPa", "atis": [{"kind": "ARR", "time": "2026-07-17 20:26 UTC", "text": "VVNB ARR ATIS Q 0200Z VVNB INFO Q 0200Z. ILS X RWY 11L. DPTG RWY 11R AND ARR RWY 11L .. 0200Z. WIND 140/3KT VRB BTN 100/ AND 210/ CAVOK T34 DP25 QNH 1001HPA TREND NOSIG. ADZ ON INITIAL CTC YOU HAVE INFO Q."}, {"kind": "DEP", "time": "2026-07-16 02:01 UTC", "text": "VVNB DEP ATIS K 1100Z VVNB INFO K 1100Z. ILS X RWY 11L. DPTG RWY 11R AND ARR RWY 11L .. 1100Z. WIND 200/6KT CAVOK T34 DP25 QNH 1001HPA TREND NOSIG. ADZ ON INITIAL CTC YOU HAVE INFO K."}]}, {"icao": "VVPB", "name": "Phu Bai — Hue", "metar": "METAR VVPB 172200Z 18003KT 9999 FEW020 28/21 Q1004 NOSIG", "speci": null, "taf": "TAF VVPB 162300Z 1700/1724 24010KT 9999 FEW020 SCT060 TEMPO 1708/1712 TS SCT013 FEW017CB SCT060", "raw": "METAR VVPB 172200Z 18003KT 9999 FEW020 28/21 Q1004 NOSIG", "fltcat": "VFR", "wind": "180° @ 3 kt", "vis": ">10 km", "clouds": "FEW020", "temp": 28, "dewp": 21, "qnh": "1004 hPa"}, {"icao": "VVPC", "name": "Phu Cat — Quy Nhon", "metar": "METAR VVPC 172200Z 26005KT 9999 FEW025 BKN080 29/23 Q1006 NOSIG", "speci": null, "taf": "TAF VVPC 162300Z 1700/1724 24013KT 9999 FEW020 SCT060 TEMPO 1703/1708 24015G25KT", "raw": "METAR VVPC 172200Z 26005KT 9999 FEW025 BKN080 29/23 Q1006 NOSIG", "fltcat": "VFR", "wind": "260° @ 5 kt", "vis": ">10 km", "clouds": "FEW025 BKN080", "temp": 29, "dewp": 23, "qnh": "1006 hPa"}, {"icao": "VVPK", "name": "Pleiku", "metar": "METAR VVPK 172130Z AUTO 26006KT 230V290 9999 OVC005/// 22/21 Q1013 REDZ", "speci": null, "taf": "TAF VVPK 162300Z 1700/1724 26012KT 8000 BKN015 TEMPO 1700/1703 4000 RA BR BKN004 BKN006 TEMPO 1708/1713 4000 SHRA BKN010 FEW015CB BKN040 TEMPO 1722/1724 2500 RA BR BKN003 BKN005", "raw": "METAR VVPK 172130Z AUTO 26006KT 230V290 9999 OVC005/// 22/21 Q1013 REDZ", "fltcat": "IFR", "wind": "260° @ 6 kt", "vis": ">10 km", "clouds": "OVC005", "temp": 22, "dewp": 21, "qnh": "1013 hPa"}, {"icao": "VVPQ", "name": "Phu Quoc Intl", "metar": "METAR VVPQ 172200Z 24009KT 9999 FEW015 28/28 Q1010 NOSIG", "speci": null, "taf": "TAF VVPQ 162300Z 1700/1724 27008KT 9999 SCT015 PROB30 TEMPO 1706/1708 27015G26KT 3000 TSRA BKN015 SCT017CB BKN040", "raw": "METAR VVPQ 172200Z 24009KT 9999 FEW015 28/28 Q1010 NOSIG", "fltcat": "VFR", "wind": "240° @ 9 kt", "vis": ">10 km", "clouds": "FEW015", "temp": 28, "dewp": 28, "qnh": "1010 hPa"}, {"icao": "VVRG", "name": "Rach Gia", "metar": "METAR VVRG 172200Z 23003KT 8000 FEW015 27/25 Q1009 NOSIG", "speci": null, "taf": null, "raw": "METAR VVRG 172200Z 23003KT 8000 FEW015 27/25 Q1009 NOSIG", "fltcat": "MVFR", "wind": "230° @ 3 kt", "vis": "8.0 km", "clouds": "FEW015", "temp": 27, "dewp": 25, "qnh": "1009 hPa"}, {"icao": "VVTH", "name": "Dong Tac — Tuy Hoa", "metar": "METAR VVTH 172200Z 19004KT CAVOK 27/24 Q1007 NOSIG", "speci": null, "taf": "TAF VVTH 172000Z 1721/1806 23010KT 9999 FEW020", "raw": "METAR VVTH 172200Z 19004KT CAVOK 27/24 Q1007 NOSIG", "fltcat": "VFR", "wind": "190° @ 4 kt", "vis": "CAVOK", "clouds": "NSC", "temp": 27, "dewp": 24, "qnh": "1007 hPa"}, {"icao": "VVTS", "name": "Tan Son Nhat — Ho Chi Minh City", "metar": "METAR VVTS 172200Z 24007KT CAVOK 27/26 Q1009 NOSIG", "speci": null, "taf": "TAF VVTS 162300Z 1700/1806 25008KT 9999 SCT017 TEMPO 1708/1713 5000 TSRA SCT015 FEW017CB", "raw": "METAR VVTS 172200Z 24007KT CAVOK 27/26 Q1009 NOSIG", "fltcat": "VFR", "wind": "240° @ 7 kt", "vis": "CAVOK", "clouds": "NSC", "temp": 27, "dewp": 26, "qnh": "1009 hPa", "atis": [{"kind": "ARR", "time": "2026-07-17 21:36 UTC", "text": "VVTS ARR ATIS O 0200Z VVTS INFO O 0200Z. ILSW APCH IN RWY 25R.. LDG RWY 25R AND DEP RWY 25L.. 0200Z. WIND RWY 25R TDZ 260/12KT VRB BTN 210/ AND 270/ VIS 10KM CLD BKN 1700FT BKN 2400FT BKN 5800FT T31 DP28 QNH 1009HPA TREND NOSIG. ADZ ON INITIAL CTC YOU HAVE INFO O."}, {"kind": "DEP", "time": "2026-07-17 01:54 UTC", "text": "VVTS DEP ATIS Z 1830Z VVTS INFO Z 1830Z. ILSW APCH IN RWY 25R.. LDG RWY 25R AND DEP RWY 25L.. 1830Z. WIND RWY 25L TDZ 240/10KT MAX15 MNM7 MID 230/11KT MAX17 MNM8 END 240/11KT MAX16 MNM5 VRB BTN 210/ AND 270/ RWY 25R TDZ 240/10KT MAX15 MNM7 END 230/11KT VIS 10KM CLD NSC T29 DP27 QNH 1007HPA TREND NOSIG. ADZ ON INITIAL CTC YOU HAVE INFO Z."}]}, {"icao": "VVTX", "name": "Tho Xuan — Thanh Hoa", "metar": "METAR VVTX 172200Z VRB02KT CAVOK 26/23 Q1000 NOSIG", "speci": null, "taf": "TAF VVTX 172000Z 1721/1806 23005KT 9999 FEW030", "raw": "METAR VVTX 172200Z VRB02KT CAVOK 26/23 Q1000 NOSIG", "fltcat": "VFR", "wind": "VRB @ 2 kt", "vis": "CAVOK", "clouds": "NSC", "temp": 26, "dewp": 23, "qnh": "1000 hPa"}, {"icao": "VVVD", "name": "Van Don — Quang Ninh", "metar": "METAR VVVD 172200Z AUTO VRB01KT 9999 NCD 29/27 Q1001", "speci": null, "taf": "TAF VVVD 162300Z 1700/1724 21005KT 9999 SCT020 TEMPO 1702/1707 4000 TSRA SCT010 FEW027CB TEMPO 1713/1718 4000 TSRA SCT010 FEW027CB", "raw": "METAR VVVD 172200Z AUTO VRB01KT 9999 NCD 29/27 Q1001", "fltcat": "VFR", "wind": "VRB @ 1 kt", "vis": ">10 km", "clouds": "—", "temp": 29, "dewp": 27, "qnh": "1001 hPa"}, {"icao": "VVVH", "name": "Vinh", "metar": "METAR VVVH 172200Z 26007KT 200V300 CAVOK 30/20 Q1002 NOSIG", "speci": null, "taf": "TAF VVVH 162300Z 1700/1724 24010KT 9999 FEW030", "raw": "METAR VVVH 172200Z 26007KT 200V300 CAVOK 30/20 Q1002 NOSIG", "fltcat": "VFR", "wind": "260° @ 7 kt", "vis": "CAVOK", "clouds": "NSC", "temp": 30, "dewp": 20, "qnh": "1002 hPa"}]}