{"updated": "2026-07-21T11:01:10+00:00", "source": "VN MET", "stations": [{"icao": "VVBM", "name": "Buon Ma Thuot", "metar": "METAR VVBM 211100Z 30008KT 9999 FEW015 30/20 Q1011 NOSIG", "speci": null, "taf": "TAF VVBM 202300Z 2100/2124 VRB03KT 9999 SCT013 BECMG 2102/2103 27010KT", "raw": "METAR VVBM 211100Z 30008KT 9999 FEW015 30/20 Q1011 NOSIG", "fltcat": "VFR", "wind": "300° @ 8 kt", "vis": ">10 km", "clouds": "FEW015", "temp": 30, "dewp": 20, "qnh": "1011 hPa"}, {"icao": "VVCA", "name": "Chu Lai", "metar": "METAR VVCA 211100Z 17008KT 9999 FEW030 33/22 Q1005 NOSIG", "speci": null, "taf": "TAF VVCA 210800Z 2109/2118 09012KT 9999 FEW020 BECMG 2110/2111 18008KT", "raw": "METAR VVCA 211100Z 17008KT 9999 FEW030 33/22 Q1005 NOSIG", "fltcat": "VFR", "wind": "170° @ 8 kt", "vis": ">10 km", "clouds": "FEW030", "temp": 33, "dewp": 22, "qnh": "1005 hPa"}, {"icao": "VVCI", "name": "Cat Bi — Hai Phong", "metar": "METAR VVCI 211100Z 00000KT CAVOK 27/25 Q1003 NOSIG", "speci": null, "taf": "TAF VVCI 202300Z 2100/2124 07005KT 8000 FEW030 TEMPO 2100/2102 4000 SHRA SCT010 FEW025TCU TEMPO 2103/2106 4000 TSRA SCT012 FEW027CB", "raw": "METAR VVCI 211100Z 00000KT CAVOK 27/25 Q1003 NOSIG", "fltcat": "VFR", "wind": "000° @ 0 kt", "vis": "CAVOK", "clouds": "NSC", "temp": 27, "dewp": 25, "qnh": "1003 hPa"}, {"icao": "VVCR", "name": "Cam Ranh — Nha Trang", "metar": "METAR VVCR 211030Z 16004KT 130V190 CAVOK 34/23 Q1007 NOSIG", "speci": null, "taf": "TAF VVCR 202300Z 2100/2124 31006KT 9999 FEW020 BECMG 2102/2103 12010KT BECMG 2111/2112 31006KT", "raw": "METAR VVCR 211030Z 16004KT 130V190 CAVOK 34/23 Q1007 NOSIG", "fltcat": "VFR", "wind": "160° @ 4 kt", "vis": "CAVOK", "clouds": "NSC", "temp": 34, "dewp": 23, "qnh": "1007 hPa", "atis": [{"kind": "ARR", "time": "2026-07-17 14:03 UTC", "text": "VVCR ARR ATIS F 1401Z VVCR INFO F 1401Z. ILS Z APCH IN USE.. LDG RWY 02R AND DPTG RWY 02L.. 1400Z. WIND RWY 02R TDZ 040/3KT MID 340/3KT END 010/6KT RWY 02L TDZ 020/3KT VIS RWY 02R TDZ 10KM END"}, {"kind": "DEP", "time": "2026-05-29 05:57 UTC", "text": "VVCR DEP ATIS S 0533Z VVCR INFO S 0533Z. ILS Z APCH IN USE.. LDG RWY 02R AND DPTG RWY 02L.. 0532Z. WIND RWY 02R TDZ 080/9KT MID 090/8KT END 100/8KT RWY 02L TDZ 080/8KT CAVOK T31 DP26 QNH 1009HPA TREND TEMPO FM0630 VIS 4000M MOD TSRA. ADZ ON INITIAL CTC YOU HAVE INFO S."}]}, {"icao": "VVCS", "name": "Con Dao", "metar": "METAR VVCS 211100Z 23006KT 160V300 9999 FEW017 30/24 Q1009 NOSIG", "speci": null, "taf": "TAF VVCS 202300Z 2100/2109 VRB03KT 9999 SCT017 BECMG 2101/2102 27010KT", "raw": "METAR VVCS 211100Z 23006KT 160V300 9999 FEW017 30/24 Q1009 NOSIG", "fltcat": "VFR", "wind": "230° @ 6 kt", "vis": ">10 km", "clouds": "FEW017", "temp": 30, "dewp": 24, "qnh": "1009 hPa"}, {"icao": "VVCT", "name": "Can Tho Intl", "metar": "METAR VVCT 211030Z 26007KT 220V290 9999 FEW017 30/25 Q1009 NOSIG", "speci": null, "taf": "TAF VVCT 202300Z 2100/2124 22008KT 9999 SCT015", "raw": "METAR VVCT 211030Z 26007KT 220V290 9999 FEW017 30/25 Q1009 NOSIG", "fltcat": "VFR", "wind": "260° @ 7 kt", "vis": ">10 km", "clouds": "FEW017", "temp": 30, "dewp": 25, "qnh": "1009 hPa"}, {"icao": "VVDB", "name": "Dien Bien Phu", "metar": "METAR VVDB 211100Z AUTO 24006KT 210V270 9999 // FEW044/// 28/23 Q1007 RE//", "speci": null, "taf": "TAF VVDB 202300Z 2100/2109 21005KT 9999 SCT020 BKN030", "raw": "METAR VVDB 211100Z AUTO 24006KT 210V270 9999 // FEW044/// 28/23 Q1007 RE//", "fltcat": "VFR", "wind": "240° @ 6 kt", "vis": ">10 km", "clouds": "FEW044", "temp": 28, "dewp": 23, "qnh": "1007 hPa"}, {"icao": "VVDH", "name": "Dong Hoi", "metar": "METAR VVDH 211100Z 22007KT 160V310 CAVOK 34/22 Q1005 NOSIG", "speci": null, "taf": "TAF VVDH 202300Z 2100/2109 24012KT 9999 FEW030", "raw": "METAR VVDH 211100Z 22007KT 160V310 CAVOK 34/22 Q1005 NOSIG", "fltcat": "VFR", "wind": "220° @ 7 kt", "vis": "CAVOK", "clouds": "NSC", "temp": 34, "dewp": 22, "qnh": "1005 hPa"}, {"icao": "VVDN", "name": "Da Nang Intl", "metar": "METAR VVDN 211100Z 12006KT 9999 FEW020 32/24 Q1006 NOSIG", "speci": null, "taf": "TAF VVDN 202300Z 2100/2124 21010KT 9999 FEW020 BECMG 2105/2106 10010KT BECMG 2112/2113 22006KT", "raw": "METAR VVDN 211100Z 12006KT 9999 FEW020 32/24 Q1006 NOSIG", "fltcat": "VFR", "wind": "120° @ 6 kt", "vis": ">10 km", "clouds": "FEW020", "temp": 32, "dewp": 24, "qnh": "1006 hPa", "atis": [{"kind": "ARR", "time": "2026-07-21 09:57 UTC", "text": "VVDN ARR ATIS Q 0632Z VVDN INFO Q 0632Z. ILS VICTOR APPROACH 35L.. DPTG RWY 35R.. 0632Z. WIND 160/04KT VRB BTN 110/ AND 230/ CAVOK T39 DP23 QNH 1002HPA TREND NOSIG. ADZ ON INITIAL CTC YOU HAVE INFO. Q."}, {"kind": "DEP", "time": "2026-07-21 03:51 UTC", "text": "VVDN DEP ATIS M 0432Z VVDN INFO M 0432Z. ILS VICTOR APPROACH 35L.. DPTG RWY 35R.. 0432Z. WIND 220/04KT CAVOK T37 DP22 QNH 1004HPA TREND NOSIG. ADZ ON INITIAL CTC YOU HAVE INFO. M."}]}, {"icao": "VVNB", "name": "Noi Bai — Ha Noi", "metar": "METAR VVNB 211100Z 13008KT CAVOK 31/26 Q1002 NOSIG", "speci": null, "taf": "TAF VVNB 202300Z 2100/2124 05005KT 6000 FEW030 PROB40 TEMPO 2103/2106 4000 TSRA SCT015 FEW027CB", "raw": "METAR VVNB 211100Z 13008KT CAVOK 31/26 Q1002 NOSIG", "fltcat": "VFR", "wind": "130° @ 8 kt", "vis": "CAVOK", "clouds": "NSC", "temp": 31, "dewp": 26, "qnh": "1002 hPa", "atis": [{"kind": "ARR", "time": "2026-07-21 10:19 UTC", "text": "VVNB ARR ATIS Y 0630Z VVNB INFO Y 0630Z. ILS X RWY 11L. DPTG RWY 11R AND ARR RWY 11L .. 0630Z. WIND 210/3KT CAVOK T39 DP25 QNH 0999HPA TREND NOSIG. ADZ ON INITIAL CTC YOU HAVE INFO Y."}, {"kind": "DEP", "time": "2026-07-21 05:13 UTC", "text": "VVNB DEP ATIS V 0500Z VVNB INFO V 0500Z. ILS X RWY 11L. DPTG RWY 11R AND ARR RWY 11L .. 0500Z. WIND VRB5KT CAVOK T38 DP25 QNH 1000HPA TREND NOSIG. ADZ ON INITIAL CTC YOU HAVE INFO V."}]}, {"icao": "VVNS", "name": "Na San — Son La", "metar": "METAR VVNS 211100Z /////KT 9999 SCT020 27/24 Q1007 NOSIG", "speci": null, "taf": null, "raw": "METAR VVNS 211100Z /////KT 9999 SCT020 27/24 Q1007 NOSIG", "fltcat": "VFR", "wind": "—", "vis": ">10 km", "clouds": "SCT020", "temp": 27, "dewp": 24, "qnh": "1007 hPa"}, {"icao": "VVPB", "name": "Phu Bai — Hue", "metar": "METAR VVPB 211030Z 07006KT 9999 FEW020 34/20 Q1005 NOSIG", "speci": null, "taf": "TAF VVPB 202300Z 2100/2124 24010KT 9999 FEW020 BECMG 2107/2108 09010KT BECMG 2113/2114 23007KT", "raw": "METAR VVPB 211030Z 07006KT 9999 FEW020 34/20 Q1005 NOSIG", "fltcat": "VFR", "wind": "070° @ 6 kt", "vis": ">10 km", "clouds": "FEW020", "temp": 34, "dewp": 20, "qnh": "1005 hPa"}, {"icao": "VVPC", "name": "Phu Cat — Quy Nhon", "metar": "METAR VVPC 211100Z 22007KT 200V260 CAVOK 35/21 Q1006 NOSIG", "speci": null, "taf": "TAF VVPC 202300Z 2100/2124 26012KT 9999 FEW020 TEMPO 2102/2108 26015G25KT", "raw": "METAR VVPC 211100Z 22007KT 200V260 CAVOK 35/21 Q1006 NOSIG", "fltcat": "VFR", "wind": "220° @ 7 kt", "vis": "CAVOK", "clouds": "NSC", "temp": 35, "dewp": 21, "qnh": "1006 hPa"}, {"icao": "VVPK", "name": "Pleiku", "metar": "METAR VVPK 211100Z 27006KT 240V300 9999 FEW020 26/20 Q1013 NOSIG", "speci": null, "taf": "TAF VVPK 202300Z 2100/2124 24010KT 8000 SCT004 BKN008 TEMPO 2100/2101 4000 RA BR BECMG 2102/2103 SCT015 BECMG 2121/2122 4000 BR SCT004 BKN007", "raw": "METAR VVPK 211100Z 27006KT 240V300 9999 FEW020 26/20 Q1013 NOSIG", "fltcat": "VFR", "wind": "270° @ 6 kt", "vis": ">10 km", "clouds": "FEW020", "temp": 26, "dewp": 20, "qnh": "1013 hPa"}, {"icao": "VVPQ", "name": "Phu Quoc Intl", "metar": "METAR VVPQ 211100Z 27011KT 9999 FEW015 30/28 Q1009 NOSIG", "speci": null, "taf": "TAF VVPQ 202300Z 2100/2124 27012KT 9999 SCT015", "raw": "METAR VVPQ 211100Z 27011KT 9999 FEW015 30/28 Q1009 NOSIG", "fltcat": "VFR", "wind": "270° @ 11 kt", "vis": ">10 km", "clouds": "FEW015", "temp": 30, "dewp": 28, "qnh": "1009 hPa"}, {"icao": "VVRG", "name": "Rach Gia", "metar": "METAR VVRG 211100Z 25009KT 220V280 9999 FEW015 30/25 Q1009 NOSIG", "speci": null, "taf": "TAF VVRG 202300Z 2100/2109 22009KT 9999 SCT015", "raw": "METAR VVRG 211100Z 25009KT 220V280 9999 FEW015 30/25 Q1009 NOSIG", "fltcat": "VFR", "wind": "250° @ 9 kt", "vis": ">10 km", "clouds": "FEW015", "temp": 30, "dewp": 25, "qnh": "1009 hPa"}, {"icao": "VVTH", "name": "Dong Tac — Tuy Hoa", "metar": "METAR VVTH 211030Z 14011KT 9999 FEW017 33/21 Q1006 NOSIG", "speci": null, "taf": "TAF VVTH 210800Z 2109/2118 25010KT 9999 FEW017", "raw": "METAR VVTH 211030Z 14011KT 9999 FEW017 33/21 Q1006 NOSIG", "fltcat": "VFR", "wind": "140° @ 11 kt", "vis": ">10 km", "clouds": "FEW017", "temp": 33, "dewp": 21, "qnh": "1006 hPa"}, {"icao": "VVTS", "name": "Tan Son Nhat — Ho Chi Minh City", "metar": "METAR VVTS 211100Z 25010KT CAVOK 32/22 Q1008 NOSIG", "speci": null, "taf": "TAF VVTS 202300Z 2100/2206 26010KT 9999 SCT017", "raw": "METAR VVTS 211100Z 25010KT CAVOK 32/22 Q1008 NOSIG", "fltcat": "VFR", "wind": "250° @ 10 kt", "vis": "CAVOK", "clouds": "NSC", "temp": 32, "dewp": 22, "qnh": "1008 hPa", "atis": [{"kind": "ARR", "time": "2026-07-21 10:51 UTC", "text": "VVTS ARR ATIS V 0630Z VVTS INFO V 0630Z. ILSW APCH IN RWY 25R.. LDG RWY 25R AND DEP RWY 25L.. 0630Z. WIND RWY 25L TDZ 260/13KT MID 240/11KT MAX16 MNM7 END 260/12KT MAX17 MNM8 RWY 25R TDZ 260/13KT VIS RWY 25R TDZ 10KM CLD RWY 25R BKN 4300FT T34 DP25 QNH 1006HPA TREND NOSIG. ADZ ON INITIAL CTC YOU HAVE INFO V."}, {"kind": "DEP", "time": "2026-07-21 04:51 UTC", "text": "VVTS DEP ATIS S 0500Z VVTS INFO S 0500Z. ILSW APCH IN RWY 25R.. LDG RWY 25R AND DEP RWY 25L.. 0500Z. WIND RWY 25R TDZ 290/8KT MAX15 MNM5 VIS 10KM CLD SCT 4100FT T34 DP25 QNH 1007HPA TREND NOSIG. ADZ ON INITIAL CTC YOU HAVE INFO S."}]}, {"icao": "VVTX", "name": "Tho Xuan — Thanh Hoa", "metar": "METAR VVTX 211100Z 19002KT 9999 FEW030 BKN050 31/24 Q1003 NOSIG", "speci": null, "taf": "TAF VVTX 202300Z 2100/2109 21008KT 9999 FEW030", "raw": "METAR VVTX 211100Z 19002KT 9999 FEW030 BKN050 31/24 Q1003 NOSIG", "fltcat": "VFR", "wind": "190° @ 2 kt", "vis": ">10 km", "clouds": "FEW030 BKN050", "temp": 31, "dewp": 24, "qnh": "1003 hPa"}, {"icao": "VVVD", "name": "Van Don — Quang Ninh", "metar": "METAR VVVD 211100Z AUTO 11003KT 080V150 9999 SCT020/// 29/27 Q1004", "speci": null, "taf": "TAF VVVD 202300Z 2100/2124 09005KT 6000 SCT015 BKN030 TEMPO 2100/2106 3000 TSRA SCT010 FEW027CB BKN030", "raw": "METAR VVVD 211100Z AUTO 11003KT 080V150 9999 SCT020/// 29/27 Q1004", "fltcat": "VFR", "wind": "110° @ 3 kt", "vis": ">10 km", "clouds": "SCT020", "temp": 29, "dewp": 27, "qnh": "1004 hPa"}, {"icao": "VVVH", "name": "Vinh", "metar": "METAR VVVH 211100Z 24007KT 190V290 CAVOK 32/20 Q1004 NOSIG", "speci": null, "taf": "TAF VVVH 202300Z 2100/2124 24008KT 9999 FEW030", "raw": "METAR VVVH 211100Z 24007KT 190V290 CAVOK 32/20 Q1004 NOSIG", "fltcat": "VFR", "wind": "240° @ 7 kt", "vis": "CAVOK", "clouds": "NSC", "temp": 32, "dewp": 20, "qnh": "1004 hPa"}]}