{"updated": "2026-07-15T17:23:57+00:00", "source": "VN MET", "stations": [{"icao": "VVBM", "name": "Buon Ma Thuot", "metar": "METAR VVBM 151700Z VRB02KT 9999 SCT013 BKN040 22/21 Q1015 NOSIG", "speci": null, "taf": "TAF VVBM 142300Z 1500/1524 24008KT 9999 BKN015 BKN040 TEMPO 1506/1510 26015G26KT 3000 TSRA BKN010 FEW013CB BKN030", "raw": "METAR VVBM 151700Z VRB02KT 9999 SCT013 BKN040 22/21 Q1015 NOSIG", "fltcat": "VFR", "wind": "VRB @ 2 kt", "vis": ">10 km", "clouds": "SCT013 BKN040", "temp": 22, "dewp": 21, "qnh": "1015 hPa"}, {"icao": "VVCA", "name": "Chu Lai", "metar": "METAR VVCA 151700Z AUTO 23002KT 9999 SCT160/// SCT190/// 29/27 Q1006", "speci": null, "taf": "TAF VVCA 142300Z 1500/1509 16008KT 9999 FEW020 BKN060", "raw": "METAR VVCA 151700Z AUTO 23002KT 9999 SCT160/// SCT190/// 29/27 Q1006", "fltcat": "VFR", "wind": "230° @ 2 kt", "vis": ">10 km", "clouds": "SCT160 SCT190", "temp": 29, "dewp": 27, "qnh": "1006 hPa"}, {"icao": "VVCI", "name": "Cat Bi — Hai Phong", "metar": "METAR VVCI 151700Z 17004KT CAVOK 30/27 Q1002 NOSIG", "speci": null, "taf": "TAF VVCI 142300Z 1500/1524 13006KT 9999 FEW020 TEMPO 1500/1504 4000 SHRA SCT015 FEW027CB", "raw": "METAR VVCI 151700Z 17004KT CAVOK 30/27 Q1002 NOSIG", "fltcat": "VFR", "wind": "170° @ 4 kt", "vis": "CAVOK", "clouds": "NSC", "temp": 30, "dewp": 27, "qnh": "1002 hPa"}, {"icao": "VVCR", "name": "Cam Ranh — Nha Trang", "metar": "METAR VVCR 151700Z 25003KT CAVOK 29/25 Q1011 NOSIG", "speci": null, "taf": "TAF VVCR 142300Z 1500/1524 20013KT 9999 FEW020", "raw": "METAR VVCR 151700Z 25003KT CAVOK 29/25 Q1011 NOSIG", "fltcat": "VFR", "wind": "250° @ 3 kt", "vis": "CAVOK", "clouds": "NSC", "temp": 29, "dewp": 25, "qnh": "1011 hPa", "atis": [{"kind": "ARR", "time": "2026-07-13 09:29 UTC", "text": "VVCR ARR ATIS W 1330Z VVCR INFO W 1330Z. ILS YANKEE APPROACH IN USE. LDG RWY 20L AND DPTG RWY 20R.. 1330Z. WIND RWY 20L TDZ 330/3KT VRB BTN 260/ AND 360/ MID 310/3KT VRB BTN 280/ AND 340/ END 320/3KT RWY 20R TDZ 320/1KT CAVOK T29 DP25 QNH 1010HPA TREND NOSIG. ADZ ON INITIAL CTC YOU HAVE INFO W."}, {"kind": "DEP", "time": "2026-05-29 05:57 UTC", "text": "VVCR DEP ATIS S 0533Z VVCR INFO S 0533Z. ILS Z APCH IN USE.. LDG RWY 02R AND DPTG RWY 02L.. 0532Z. WIND RWY 02R TDZ 080/9KT MID 090/8KT END 100/8KT RWY 02L TDZ 080/8KT CAVOK T31 DP26 QNH 1009HPA TREND TEMPO FM0630 VIS 4000M MOD TSRA. ADZ ON INITIAL CTC YOU HAVE INFO S."}]}, {"icao": "VVCT", "name": "Can Tho Intl", "metar": "METAR VVCT 151700Z VRB01KT 9999 SCT013 BKN040 24/24 Q1013 NOSIG", "speci": null, "taf": "TAF VVCT 142300Z 1500/1524 24008KT 9999 SCT015 BKN050 TEMPO 1502/1504 5000 SHRA SCT015 FEW017CB TEMPO 1506/1510 25015G26KT 3000 TSRA SCT013 SCT015CB", "raw": "METAR VVCT 151700Z VRB01KT 9999 SCT013 BKN040 24/24 Q1013 NOSIG", "fltcat": "VFR", "wind": "VRB @ 1 kt", "vis": ">10 km", "clouds": "SCT013 BKN040", "temp": 24, "dewp": 24, "qnh": "1013 hPa"}, {"icao": "VVDB", "name": "Dien Bien Phu", "metar": "METAR VVDB 151700Z AUTO VRB01KT 9999 // FEW049/// SCT066/// OVC086/// 26/25 Q1007 RE//", "speci": null, "taf": "TAF VVDB 142300Z 1500/1509 VRB02KT 9999 FEW025 TEMPO 1500/1503 3500 SHRA SCT010 FEW020TCU", "raw": "METAR VVDB 151700Z AUTO VRB01KT 9999 // FEW049/// SCT066/// OVC086/// 26/25 Q1007 RE//", "fltcat": "VFR", "wind": "VRB @ 1 kt", "vis": ">10 km", "clouds": "FEW049 SCT066 OVC086", "temp": 26, "dewp": 25, "qnh": "1007 hPa"}, {"icao": "VVDH", "name": "Dong Hoi", "metar": "METAR VVDH 151700Z AUTO 01003KT 330V060 9999 BKN098/// OVC180/// 31/24 Q1006", "speci": null, "taf": "TAF VVDH 142300Z 1500/1509 24005KT 9999 FEW030", "raw": "METAR VVDH 151700Z AUTO 01003KT 330V060 9999 BKN098/// OVC180/// 31/24 Q1006", "fltcat": "VFR", "wind": "010° @ 3 kt", "vis": ">10 km", "clouds": "BKN098 OVC180", "temp": 31, "dewp": 24, "qnh": "1006 hPa"}, {"icao": "VVDN", "name": "Da Nang Intl", "metar": "METAR VVDN 151700Z 26005KT 230V300 9999 FEW020 SCT070 31/22 Q1007 NOSIG", "speci": null, "taf": "TAF VVDN 142300Z 1500/1524 21008KT 9999 FEW020 BKN060 BECMG 1505/1506 02010KT BECMG 1510/1511 21008KT", "raw": "METAR VVDN 151700Z 26005KT 230V300 9999 FEW020 SCT070 31/22 Q1007 NOSIG", "fltcat": "VFR", "wind": "260° @ 5 kt", "vis": ">10 km", "clouds": "FEW020 SCT070", "temp": 31, "dewp": 22, "qnh": "1007 hPa", "atis": [{"kind": "ARR", "time": "2026-07-15 16:16 UTC", "text": "VVDN ARR ATIS R 0732Z VVDN INFO R 0732Z. ILS VICTOR APPROACH 35L.. DPTG RWY 35R.. 0732Z. WIND 070/07KT CAVOK T35 DP25 QNH 1004HPA TREND NOSIG. ADZ ON INITIAL CTC YOU HAVE INFO. R."}, {"kind": "DEP", "time": "2026-07-12 02:50 UTC", "text": "VVDN DEP ATIS N 0423Z VVDN INFO N 0423Z. ILS VICTOR APPROACH 35L.. DPTG RWY 35R.. 0423Z. WIND 010/02KT CAVOK T36 DP24 QNH 1008HPA TREND NOSIG. WS ALL RWY. ADZ ON INITIAL CTC YOU HAVE INFO. N."}]}, {"icao": "VVNB", "name": "Noi Bai — Ha Noi", "metar": "METAR VVNB 151700Z 09005KT CAVOK 30/28 Q1002 NOSIG", "speci": null, "taf": "TAF VVNB 142300Z 1500/1524 12006KT 9999 FEW025 TEMPO 1503/1507 4000 SHRA SCT012 FEW025TCU", "raw": "METAR VVNB 151700Z 09005KT CAVOK 30/28 Q1002 NOSIG", "fltcat": "VFR", "wind": "090° @ 5 kt", "vis": "CAVOK", "clouds": "NSC", "temp": 30, "dewp": 28, "qnh": "1002 hPa", "atis": [{"kind": "ARR", "time": "2026-07-15 16:15 UTC", "text": "VVNB ARR ATIS D 0730Z VVNB INFO D 0730Z. ILS X RWY 11L. DPTG RWY 11R AND ARR RWY 11L .. 0730Z. WIND 190/5KT CAVOK T33 DP25 QNH 1002HPA TREND NOSIG. ADZ ON INITIAL CTC YOU HAVE INFO D."}, {"kind": "DEP", "time": "2026-07-15 12:13 UTC", "text": "VVNB DEP ATIS B 0630Z VVNB INFO B 0630Z. ILS X RWY 11L. DPTG RWY 11R AND ARR RWY 11L .. 0630Z. WIND 180/7KT CAVOK T33 DP26 QNH 1003HPA TREND NOSIG. ADZ ON INITIAL CTC YOU HAVE INFO B."}]}, {"icao": "VVPB", "name": "Phu Bai — Hue", "metar": "METAR VVPB 151700Z 22003KT 9999 FEW020 31/21 Q1006 NOSIG", "speci": null, "taf": "TAF VVPB 142300Z 1500/1524 24007KT 9999 FEW020 SCT060", "raw": "METAR VVPB 151700Z 22003KT 9999 FEW020 31/21 Q1006 NOSIG", "fltcat": "VFR", "wind": "220° @ 3 kt", "vis": ">10 km", "clouds": "FEW020", "temp": 31, "dewp": 21, "qnh": "1006 hPa"}, {"icao": "VVPC", "name": "Phu Cat — Quy Nhon", "metar": "METAR VVPC 151700Z AUTO 24012KT 9999 BKN190/// 28/22 Q1009", "speci": null, "taf": "TAF VVPC 142300Z 1500/1524 26010KT 9999 FEW020 SCT060", "raw": "METAR VVPC 151700Z AUTO 24012KT 9999 BKN190/// 28/22 Q1009", "fltcat": "VFR", "wind": "240° @ 12 kt", "vis": ">10 km", "clouds": "BKN190", "temp": 28, "dewp": 22, "qnh": "1009 hPa"}, {"icao": "VVPK", "name": "Pleiku", "metar": "METAR VVPK 151700Z AUTO 25008KT 220V290 6000 RA OVC003/// 21/20 Q1016 REDZ", "speci": null, "taf": "TAF VVPK 142300Z 1500/1524 25012KT 8000 BKN015 TEMPO 1500/1502 3000 RA BR SCT002 BKN004 TEMPO 1503/1507 25015G25KT TEMPO 1507/1512 25015G25KT 4000 TSRA BKN008 FEW015CB BKN050 TEMPO 1522/1524 3000 RA BR BKN002 BKN006", "raw": "METAR VVPK 151700Z AUTO 25008KT 220V290 6000 RA OVC003/// 21/20 Q1016 REDZ", "fltcat": "LIFR", "wind": "250° @ 8 kt", "vis": "6.0 km", "clouds": "OVC003", "temp": 21, "dewp": 20, "qnh": "1016 hPa"}, {"icao": "VVPQ", "name": "Phu Quoc Intl", "metar": "METAR VVPQ 151700Z 35001KT 9999 SCT015 SCT040 25/25 Q1013 NOSIG", "speci": null, "taf": "TAF VVPQ 142300Z 1500/1524 25007KT 9999 SCT015 SCT040 TEMPO 1502/1505 28015G26KT 3000 TSRA SCT013 SCT015CB TEMPO 1505/1507 5000 SHRA SCT015 FEW017CB BKN040", "raw": "METAR VVPQ 151700Z 35001KT 9999 SCT015 SCT040 25/25 Q1013 NOSIG", "fltcat": "VFR", "wind": "350° @ 1 kt", "vis": ">10 km", "clouds": "SCT015 SCT040", "temp": 25, "dewp": 25, "qnh": "1013 hPa"}, {"icao": "VVTH", "name": "Dong Tac — Tuy Hoa", "metar": "METAR VVTH 151700Z AUTO 26018G30KT 220V290 CAVOK 28/23 Q1010", "speci": "SPECI VVTH 151722Z AUTO 24018KT 210V270 CAVOK 28/21 Q1009", "taf": "TAF VVTH 142300Z 1500/1509 24012KT 9999 FEW020", "raw": "SPECI VVTH 151722Z AUTO 24018KT 210V270 CAVOK 28/21 Q1009", "fltcat": "VFR", "wind": "240° @ 18 kt", "vis": "CAVOK", "clouds": "NSC", "temp": 28, "dewp": 21, "qnh": "1009 hPa"}, {"icao": "VVTS", "name": "Tan Son Nhat — Ho Chi Minh City", "metar": "METAR VVTS 151700Z 26004KT CAVOK 25/24 Q1012 NOSIG", "speci": null, "taf": "TAF VVTS 142300Z 1500/1606 25008KT 9999 SCT017 SCT040 TEMPO 1506/1511 24015G28KT 2500 +TSRA SCT015 SCT017CB BKN040", "raw": "METAR VVTS 151700Z 26004KT CAVOK 25/24 Q1012 NOSIG", "fltcat": "VFR", "wind": "260° @ 4 kt", "vis": "CAVOK", "clouds": "NSC", "temp": 25, "dewp": 24, "qnh": "1012 hPa", "atis": [{"kind": "ARR", "time": "2026-07-15 15:02 UTC", "text": "VVTS ARR ATIS D 0730Z VVTS INFO D 0730Z. ILSW APCH IN RWY 25R.. LDG RWY 25R AND DEP RWY 25L.. 0730Z. WIND RWY 25R TDZ 260/10KT VRB BTN 240/ AND 310/ VIS 10KM CLD FEW 4800FT T35 DP24 QNH 1006HPA TREND NOSIG. ADZ ON INITIAL CTC YOU HAVE INFO D."}, {"kind": "DEP", "time": "2026-07-15 17:12 UTC", "text": "VVTS DEP ATIS E 0800Z VVTS INFO E 0800Z. ILSW APCH IN RWY 25R.. LDG RWY 25R AND DEP RWY 25L.. 0800Z. WIND RWY 25R TDZ 290/9KT VRB BTN 240/ AND 330/ VIS 10KM CLD FEW 4800FT T35 DP25 QNH 1006HPA TREND TEMPO FM0945 280/16KT MAX28 VIS 3000M MOD TSRA CLD BKN 1500FT FEW CB 1700FT. ADZ ON INITIAL CTC YOU HAVE INFO E."}]}, {"icao": "VVTX", "name": "Tho Xuan — Thanh Hoa", "metar": "METAR VVTX 151700Z AUTO VRB01KT CAVOK 28/25 Q1002 NOSIG", "speci": null, "taf": "TAF VVTX 142300Z 1500/1509 20005KT 9999 FEW030 TEMPO 1505/1509 3500 SHRA SCT010 FEW020TCU", "raw": "METAR VVTX 151700Z AUTO VRB01KT CAVOK 28/25 Q1002 NOSIG", "fltcat": "VFR", "wind": "VRB @ 1 kt", "vis": "CAVOK", "clouds": "NSC", "temp": 28, "dewp": 25, "qnh": "1002 hPa"}, {"icao": "VVVD", "name": "Van Don — Quang Ninh", "metar": "METAR VVVD 151700Z AUTO 18005KT 9999 FEW021/// 29/28 Q1003", "speci": null, "taf": "TAF VVVD 142300Z 1500/1524 14005KT 9999 FEW025 TEMPO 1500/1503 4000 SHRA SCT015 FEW027CB", "raw": "METAR VVVD 151700Z AUTO 18005KT 9999 FEW021/// 29/28 Q1003", "fltcat": "VFR", "wind": "180° @ 5 kt", "vis": ">10 km", "clouds": "FEW021", "temp": 29, "dewp": 28, "qnh": "1003 hPa"}, {"icao": "VVVH", "name": "Vinh", "metar": "METAR VVVH 151700Z VRB02KT CAVOK 31/22 Q1004 NOSIG", "speci": null, "taf": "TAF VVVH 142300Z 1500/1524 26005KT 9999 FEW025", "raw": "METAR VVVH 151700Z VRB02KT CAVOK 31/22 Q1004 NOSIG", "fltcat": "VFR", "wind": "VRB @ 2 kt", "vis": "CAVOK", "clouds": "NSC", "temp": 31, "dewp": 22, "qnh": "1004 hPa"}]}