{"updated": "2026-07-10T19:02:27+00:00", "source": "VN MET", "stations": [{"icao": "VVBM", "name": "Buon Ma Thuot", "metar": "METAR VVBM 101900Z 25004KT 220V290 8000 BKN013 SCT040 23/22 Q1009 NOSIG", "speci": null, "taf": null, "raw": "METAR VVBM 101900Z 25004KT 220V290 8000 BKN013 SCT040 23/22 Q1009 NOSIG", "fltcat": "MVFR", "wind": "250° @ 4 kt", "vis": "8.0 km", "clouds": "BKN013 SCT040", "temp": 23, "dewp": 22, "qnh": "1009 hPa"}, {"icao": "VVCA", "name": "Chu Lai", "metar": "METAR VVCA 101900Z AUTO VRB02KT 9000 BKN190/// 27/27 Q1000 RERA", "speci": null, "taf": "TAF VVCA 092300Z 1000/1009 20008KT 9999 FEW020 BKN070 BECMG 1003/1004 08011KT", "raw": "METAR VVCA 101900Z AUTO VRB02KT 9000 BKN190/// 27/27 Q1000 RERA", "fltcat": "VFR", "wind": "VRB @ 2 kt", "vis": "9.0 km", "clouds": "BKN190", "temp": 27, "dewp": 27, "qnh": "1000 hPa"}, {"icao": "VVCI", "name": "Cat Bi — Hai Phong", "metar": "METAR VVCI 101900Z 07003KT 9999 FEW017 28/27 Q0999 NOSIG", "speci": null, "taf": "TAF VVCI 101700Z 1018/1118 16005KT 9000 FEW025 TEMPO 1020/1101 4000 SHRA SCT012 FEW025TCU TEMPO 1108/1112 2500 +TSRA BKN010 FEW027CB", "raw": "METAR VVCI 101900Z 07003KT 9999 FEW017 28/27 Q0999 NOSIG", "fltcat": "VFR", "wind": "070° @ 3 kt", "vis": ">10 km", "clouds": "FEW017", "temp": 28, "dewp": 27, "qnh": "999 hPa"}, {"icao": "VVCR", "name": "Cam Ranh — Nha Trang", "metar": "METAR VVCR 101900Z 18009KT CAVOK 30/24 Q1004 NOSIG", "speci": null, "taf": "TAF VVCR 101700Z 1018/1118 20008KT 9999 FEW017 BECMG 1105/1106 10010KT BECMG 1112/1113 20007KT", "raw": "METAR VVCR 101900Z 18009KT CAVOK 30/24 Q1004 NOSIG", "fltcat": "VFR", "wind": "180° @ 9 kt", "vis": "CAVOK", "clouds": "NSC", "temp": 30, "dewp": 24, "qnh": "1004 hPa", "atis": [{"kind": "ARR", "time": "2026-07-10 05:14 UTC", "text": "VVCR ARR ATIS P 0501Z VVCR INFO P 0501Z. ILS-DME YANKEE APPROACH IN USE. LDG RWY 20L AND DPTG RWY 20R.. 0501Z. WIND RWY 20L TDZ 110/10KT MID 090/9KT END 090/9KT RWY 20R TDZ 100/8KT CAVOK T35 DP23 QNH 1"}, {"kind": "DEP", "time": "2026-05-29 05:57 UTC", "text": "VVCR DEP ATIS S 0533Z VVCR INFO S 0533Z. ILS Z APCH IN USE.. LDG RWY 02R AND DPTG RWY 02L.. 0532Z. WIND RWY 02R TDZ 080/9KT MID 090/8KT END 100/8KT RWY 02L TDZ 080/8KT CAVOK T31 DP26 QNH 1009HPA TREND TEMPO FM0630 VIS 4000M MOD TSRA. ADZ ON INITIAL CTC YOU HAVE INFO S."}]}, {"icao": "VVCT", "name": "Can Tho Intl", "metar": "METAR VVCT 101900Z 23006KT 9999 FEW015 26/26 Q1008 NOSIG", "speci": null, "taf": "TAF VVCT 101700Z 1018/1118 24007KT 9999 SCT015 TEMPO 1107/1112 5000 TSRA BKN013 FEW015CB", "raw": "METAR VVCT 101900Z 23006KT 9999 FEW015 26/26 Q1008 NOSIG", "fltcat": "VFR", "wind": "230° @ 6 kt", "vis": ">10 km", "clouds": "FEW015", "temp": 26, "dewp": 26, "qnh": "1008 hPa"}, {"icao": "VVDB", "name": "Dien Bien Phu", "metar": "METAR VVDB 101900Z AUTO VRB01KT 9999 // SCT031/// BKN040/// OVC049/// 25/24 Q1002 RE//", "speci": null, "taf": "TAF VVDB 092300Z 1000/1009 VRB02KT 9000 SCT020 TEMPO 1006/1009 3500 TSRA SCT010 FEW027CB", "raw": "METAR VVDB 101900Z AUTO VRB01KT 9999 // SCT031/// BKN040/// OVC049/// 25/24 Q1002 RE//", "fltcat": "VFR", "wind": "VRB @ 1 kt", "vis": ">10 km", "clouds": "SCT031 BKN040 OVC049", "temp": 25, "dewp": 24, "qnh": "1002 hPa"}, {"icao": "VVDH", "name": "Dong Hoi", "metar": "METAR VVDH 101900Z AUTO 26009KT 220V290 9999 OVC090/// 30/23 Q1000", "speci": null, "taf": "TAF VVDH 092300Z 1000/1009 24012KT 9999 FEW030 TEMPO 1000/1007 24015G25KT", "raw": "METAR VVDH 101900Z AUTO 26009KT 220V290 9999 OVC090/// 30/23 Q1000", "fltcat": "VFR", "wind": "260° @ 9 kt", "vis": ">10 km", "clouds": "OVC090", "temp": 30, "dewp": 23, "qnh": "1000 hPa"}, {"icao": "VVDN", "name": "Da Nang Intl", "metar": "METAR VVDN 101900Z VRB02KT 9999 FEW020 SCT070 29/23 Q1001 NOSIG", "speci": null, "taf": "TAF VVDN 101700Z 1018/1118 21006KT 9999 FEW020 SCT060", "raw": "METAR VVDN 101900Z VRB02KT 9999 FEW020 SCT070 29/23 Q1001 NOSIG", "fltcat": "VFR", "wind": "VRB @ 2 kt", "vis": ">10 km", "clouds": "FEW020 SCT070", "temp": 29, "dewp": 23, "qnh": "1001 hPa", "atis": [{"kind": "ARR", "time": "2026-07-10 17:26 UTC", "text": "VVDN ARR ATIS O 1632Z VVDN INFO O 1632Z. ILS VICTOR APPROACH 35L.. DPTG RWY 35R.. 1632Z. WIND 240/02KT CAVOK T29 DP25 QNH 1009HPA TREND NOSIG. ADZ ON INITIAL CTC YOU HAVE INFO. O."}, {"kind": "DEP", "time": "2026-07-09 06:26 UTC", "text": "VVDN DEP ATIS R 0503Z VVDN INFO R 0503Z. ILS VICTOR APPROACH 35L.. DPTG RWY 35R.. 0502Z. WIND 090/05KT VRB BTN 070/ AND 140/ CAVOK T37 DP23 QNH 1007HPA TREND NOSIG. ADZ ON INITIAL CTC YOU HAVE INFO. R."}]}, {"icao": "VVNB", "name": "Noi Bai — Ha Noi", "metar": "METAR VVNB 101900Z 07005KT 6000 SCT005 BKN010 OVC017 27/26 Q0999 NOSIG", "speci": null, "taf": "TAF VVNB 101700Z 1018/1118 17005KT 9000 SCT025 TEMPO 1020/1102 3500 SHRA BKN012 FEW025TCU TEMPO 1107/1112 2500 +TSRA BKN010 FEW027CB", "raw": "METAR VVNB 101900Z 07005KT 6000 SCT005 BKN010 OVC017 27/26 Q0999 NOSIG", "fltcat": "MVFR", "wind": "070° @ 5 kt", "vis": "6.0 km", "clouds": "SCT005 BKN010 OVC017", "temp": 27, "dewp": 26, "qnh": "999 hPa", "atis": [{"kind": "ARR", "time": "2026-07-10 15:52 UTC", "text": "VVNB ARR ATIS S 1601Z VVNB INFO S 1601Z. ILS X RWY 11L. DPTG RWY 11R AND ARR RWY 11L .. 1601Z. WIND 070/6KT VIS 10KM FBL RA CLD NSC T25 DP25 QNH 1007HPA TREND NOSIG. RWY CONDITION REPORT 5 5 5.. ADZ ON INITIAL CTC YOU HAVE INFO S."}, {"kind": "DEP", "time": "2026-07-10 17:12 UTC", "text": "VVNB DEP ATIS T 1630Z VVNB INFO T 1630Z. ILS X RWY 11L. DPTG RWY 11R AND ARR RWY 11L .. 1630Z. WIND 080/5KT VIS 10KM FBL RA CLD FEW 1400FT T26 DP25 QNH 1007HPA TREND NOSIG. RWY CONDITION REPORT 5 5 5.. ADZ ON INITIAL CTC YOU HAVE INFO T."}]}, {"icao": "VVPB", "name": "Phu Bai — Hue", "metar": "METAR VVPB 101900Z 27005KT 9999 FEW020 SCT070 31/20 Q1001 NOSIG", "speci": null, "taf": "TAF VVPB 101700Z 1018/1118 25008KT 9999 FEW020 SCT060", "raw": "METAR VVPB 101900Z 27005KT 9999 FEW020 SCT070 31/20 Q1001 NOSIG", "fltcat": "VFR", "wind": "270° @ 5 kt", "vis": ">10 km", "clouds": "FEW020 SCT070", "temp": 31, "dewp": 20, "qnh": "1001 hPa"}, {"icao": "VVPC", "name": "Phu Cat — Quy Nhon", "metar": "METAR VVPC 101900Z AUTO 26007KT 230V290 9999 SCT160/// 30/22 Q1002", "speci": null, "taf": "TAF VVPC 101700Z 1018/1118 24009KT 9999 FEW020 SCT050 TEMPO 1022/1109 24017G27KT", "raw": "METAR VVPC 101900Z AUTO 26007KT 230V290 9999 SCT160/// 30/22 Q1002", "fltcat": "VFR", "wind": "260° @ 7 kt", "vis": ">10 km", "clouds": "SCT160", "temp": 30, "dewp": 22, "qnh": "1002 hPa"}, {"icao": "VVPK", "name": "Pleiku", "metar": "METAR VVPK 101900Z AUTO 27008KT 240V300 8000 RA FEW004/// SCT010/// BKN015/// 22/21 Q1010 REDZ", "speci": null, "taf": "TAF VVPK 101700Z 1018/1118 25010KT 9999 FEW020 TEMPO 1022/1024 26015G25KT 2000 RA BR BKN003 BKN006 TEMPO 1100/1102 26017G27KT 3500 RA BR BKN004 BKN008 TEMPO 1102/1110 26017G27KT", "raw": "METAR VVPK 101900Z AUTO 27008KT 240V300 8000 RA FEW004/// SCT010/// BKN015/// 22/21 Q1010 REDZ", "fltcat": "MVFR", "wind": "270° @ 8 kt", "vis": "8.0 km", "clouds": "FEW004 SCT010 BKN015", "temp": 22, "dewp": 21, "qnh": "1010 hPa"}, {"icao": "VVPQ", "name": "Phu Quoc Intl", "metar": "METAR VVPQ 101900Z 25011KT 9999 SCT015 29/28 Q1008 NOSIG", "speci": null, "taf": "TAF VVPQ 101700Z 1018/1118 26010KT 9999 SCT015 TEMPO 1022/1102 5000 TSRA BKN015 FEW017CB", "raw": "METAR VVPQ 101900Z 25011KT 9999 SCT015 29/28 Q1008 NOSIG", "fltcat": "VFR", "wind": "250° @ 11 kt", "vis": ">10 km", "clouds": "SCT015", "temp": 29, "dewp": 28, "qnh": "1008 hPa"}, {"icao": "VVTH", "name": "Dong Tac — Tuy Hoa", "metar": "METAR VVTH 101900Z AUTO 25007KT 230V290 CAVOK 29/22 Q1004", "speci": null, "taf": "TAF VVTH 092300Z 1000/1009 26014KT 9999 FEW015 TEMPO 1000/1009 26018G28KT", "raw": "METAR VVTH 101900Z AUTO 25007KT 230V290 CAVOK 29/22 Q1004", "fltcat": "VFR", "wind": "250° @ 7 kt", "vis": "CAVOK", "clouds": "NSC", "temp": 29, "dewp": 22, "qnh": "1004 hPa"}, {"icao": "VVTS", "name": "Tan Son Nhat — Ho Chi Minh City", "metar": "METAR VVTS 101900Z 25009KT CAVOK 28/26 Q1007 NOSIG", "speci": null, "taf": "TAF VVTS 101700Z 1018/1124 24012KT 9999 SCT017 TEMPO 1103/1107 24015G25KT TEMPO 1107/1111 24016G28KT 5000 TSRA BKN015 FEW017CB", "raw": "METAR VVTS 101900Z 25009KT CAVOK 28/26 Q1007 NOSIG", "fltcat": "VFR", "wind": "250° @ 9 kt", "vis": "CAVOK", "clouds": "NSC", "temp": 28, "dewp": 26, "qnh": "1007 hPa", "atis": [{"kind": "ARR", "time": "2026-07-10 17:30 UTC", "text": "VVTS ARR ATIS V 1630Z VVTS INFO V 1630Z. ILSW APCH IN RWY 25R.. LDG RWY 25R AND DEP RWY 25L.. 1630Z. WIND RWY 25R TDZ 220/6KT VIS 10KM CLD FEW 1800FT T29 DP25 QNH 1011HPA TREND NOSIG. ADZ ON INITIAL CTC YOU HAVE INFO V."}, {"kind": "DEP", "time": "2026-07-10 08:04 UTC", "text": "VVTS DEP ATIS P 1330Z VVTS INFO P 1330Z. ILSW APCH IN RWY 25R.. LDG RWY 25R AND DEP RWY 25L.. 1330Z. WIND RWY 25R TDZ 260/3KT VRB BTN 210/ AND 290/ VIS 10KM CLD FEW 3100FT T30 DP24 QNH 1010HPA TREND NOSIG. ADZ ON INITIAL CTC YOU HAVE INFO P."}]}, {"icao": "VVTX", "name": "Tho Xuan — Thanh Hoa", "metar": "METAR VVTX 101900Z AUTO VRB01KT CAVOK 27/25 Q0999 NOSIG", "speci": null, "taf": "TAF VVTX 092300Z 1000/1009 VRB02KT 9000 FEW025 TEMPO 1007/1009 3500 TSRA SCT010 FEW027CB", "raw": "METAR VVTX 101900Z AUTO VRB01KT CAVOK 27/25 Q0999 NOSIG", "fltcat": "VFR", "wind": "VRB @ 1 kt", "vis": "CAVOK", "clouds": "NSC", "temp": 27, "dewp": 25, "qnh": "999 hPa"}, {"icao": "VVVD", "name": "Van Don — Quang Ninh", "metar": "METAR VVVD 101900Z AUTO VRB01KT 9999 FEW047/// BKN071/// BKN092/// 27/27 Q1000", "speci": null, "taf": "TAF VVVD 101700Z 1018/1118 12005KT 9000 FEW020 TEMPO 1022/1102 3500 SHRA SCT012 FEW025TCU TEMPO 1108/1112 2500 +TSRA BKN010 FEW027CB", "raw": "METAR VVVD 101900Z AUTO VRB01KT 9999 FEW047/// BKN071/// BKN092/// 27/27 Q1000", "fltcat": "VFR", "wind": "VRB @ 1 kt", "vis": ">10 km", "clouds": "FEW047 BKN071 BKN092", "temp": 27, "dewp": 27, "qnh": "1000 hPa"}, {"icao": "VVVH", "name": "Vinh", "metar": "METAR VVVH 101900Z 24004KT 190V270 CAVOK 29/21 Q0999 NOSIG", "speci": null, "taf": "TAF VVVH 101700Z 1018/1118 24005KT 9999 FEW025", "raw": "METAR VVVH 101900Z 24004KT 190V270 CAVOK 29/21 Q0999 NOSIG", "fltcat": "VFR", "wind": "240° @ 4 kt", "vis": "CAVOK", "clouds": "NSC", "temp": 29, "dewp": 21, "qnh": "999 hPa"}]}