{"updated": "2026-07-10T22:10:35+00:00", "source": "VN MET", "stations": [{"icao": "VVBM", "name": "Buon Ma Thuot", "metar": "METAR VVBM 102200Z 31004KT 8000 -RA SCT013 BKN040 23/22 Q1008 NOSIG", "speci": null, "taf": "TAF VVBM 092300Z 1000/1024 23009KT 9999 SCT015 TEMPO 1002/1006 5000 TSRA SCT013 FEW015CB", "raw": "METAR VVBM 102200Z 31004KT 8000 -RA SCT013 BKN040 23/22 Q1008 NOSIG", "fltcat": "MVFR", "wind": "310° @ 4 kt", "vis": "8.0 km", "clouds": "SCT013 BKN040", "temp": 23, "dewp": 22, "qnh": "1008 hPa"}, {"icao": "VVCA", "name": "Chu Lai", "metar": "METAR VVCA 102200Z 27003KT CAVOK 26/26 Q1000 NOSIG", "speci": null, "taf": "TAF VVCA 102000Z 1021/1106 18007KT 9999 FEW020", "raw": "METAR VVCA 102200Z 27003KT CAVOK 26/26 Q1000 NOSIG", "fltcat": "VFR", "wind": "270° @ 3 kt", "vis": "CAVOK", "clouds": "NSC", "temp": 26, "dewp": 26, "qnh": "1000 hPa"}, {"icao": "VVCI", "name": "Cat Bi — Hai Phong", "metar": "METAR VVCI 102200Z 09005KT 9999 FEW017 SCT020 27/26 Q0999 NOSIG", "speci": null, "taf": "TAF VVCI 092300Z 1000/1024 12005KT 9000 SCT030 TEMPO 1006/1012 3500 TSRA BKN010 FEW027CB TEMPO 1021/1024 3500 TSRA BKN010 FEW027CB", "raw": "METAR VVCI 102200Z 09005KT 9999 FEW017 SCT020 27/26 Q0999 NOSIG", "fltcat": "VFR", "wind": "090° @ 5 kt", "vis": ">10 km", "clouds": "FEW017 SCT020", "temp": 27, "dewp": 26, "qnh": "999 hPa"}, {"icao": "VVCR", "name": "Cam Ranh — Nha Trang", "metar": "METAR VVCR 102200Z 19010KT CAVOK 29/24 Q1004 NOSIG", "speci": null, "taf": "TAF VVCR 092300Z 1000/1024 21010KT 9999 FEW020 BECMG 1003/1004 13014KT BECMG 1013/1014 21009KT", "raw": "METAR VVCR 102200Z 19010KT CAVOK 29/24 Q1004 NOSIG", "fltcat": "VFR", "wind": "190° @ 10 kt", "vis": "CAVOK", "clouds": "NSC", "temp": 29, "dewp": 24, "qnh": "1004 hPa", "atis": [{"kind": "ARR", "time": "2026-07-10 21:26 UTC", "text": "VVCR ARR ATIS J 1800Z VVCR INFO J 1800Z. ILS YANKEE APPROACH IN USE. LDG RWY 20L AND DPTG RWY 20R.. 1800Z. WIND RWY 20L TDZ 230/3KT MID 230/4KT END 260/4KT RWY 20R TDZ 210/3KT CAVOK T29 DP25 QNH 1011HPA TREND NOSIG. ADZ ON INITIAL CTC YOU HAVE INFO J."}, {"kind": "DEP", "time": "2026-05-29 05:57 UTC", "text": "VVCR DEP ATIS S 0533Z VVCR INFO S 0533Z. ILS Z APCH IN USE.. LDG RWY 02R AND DPTG RWY 02L.. 0532Z. WIND RWY 02R TDZ 080/9KT MID 090/8KT END 100/8KT RWY 02L TDZ 080/8KT CAVOK T31 DP26 QNH 1009HPA TREND TEMPO FM0630 VIS 4000M MOD TSRA. ADZ ON INITIAL CTC YOU HAVE INFO S."}]}, {"icao": "VVCS", "name": "Con Dao", "metar": "METAR VVCS 102200Z 24008KT 9999 FEW017 28/25 Q1007 NOSIG", "speci": null, "taf": "TAF VVCS 102000Z 1021/1106 26012KT 9999 SCT017 TEMPO 1100/1106 26015G26KT 5000 TSRA BKN015 FEW017CB", "raw": "METAR VVCS 102200Z 24008KT 9999 FEW017 28/25 Q1007 NOSIG", "fltcat": "VFR", "wind": "240° @ 8 kt", "vis": ">10 km", "clouds": "FEW017", "temp": 28, "dewp": 25, "qnh": "1007 hPa"}, {"icao": "VVCT", "name": "Can Tho Intl", "metar": "METAR VVCT 102200Z 19002KT 9999 FEW015 26/26 Q1007 NOSIG", "speci": null, "taf": "TAF VVCT 092300Z 1000/1024 24008KT 9999 SCT017 TEMPO 1001/1005 5000 TSRA SCT015 FEW017CB", "raw": "METAR VVCT 102200Z 19002KT 9999 FEW015 26/26 Q1007 NOSIG", "fltcat": "VFR", "wind": "190° @ 2 kt", "vis": ">10 km", "clouds": "FEW015", "temp": 26, "dewp": 26, "qnh": "1007 hPa"}, {"icao": "VVDB", "name": "Dien Bien Phu", "metar": "METAR VVDB 102200Z 00000KT 9999 SCT047 BKN054 OVC069 25/24 Q1002 NOSIG", "speci": null, "taf": "TAF VVDB 102000Z 1021/1106 VRB02KT 9000 SCT020 TEMPO 1022/1101 4000 TSRA SCT010 FEW027CB", "raw": "METAR VVDB 102200Z 00000KT 9999 SCT047 BKN054 OVC069 25/24 Q1002 NOSIG", "fltcat": "VFR", "wind": "000° @ 0 kt", "vis": ">10 km", "clouds": "SCT047 BKN054 OVC069", "temp": 25, "dewp": 24, "qnh": "1002 hPa"}, {"icao": "VVDH", "name": "Dong Hoi", "metar": "METAR VVDH 102200Z 26008G18KT 220V300 9999 -RA FEW032 28/23 Q1000 NOSIG", "speci": null, "taf": "TAF VVDH 102000Z 1021/1106 24010KT 9999 FEW030 TEMPO 1102/1106 26015G25KT", "raw": "METAR VVDH 102200Z 26008G18KT 220V300 9999 -RA FEW032 28/23 Q1000 NOSIG", "fltcat": "VFR", "wind": "260° @ 8 kt G18", "vis": ">10 km", "clouds": "FEW032", "temp": 28, "dewp": 23, "qnh": "1000 hPa"}, {"icao": "VVDN", "name": "Da Nang Intl", "metar": "METAR VVDN 102200Z 24002KT 9999 FEW020 SCT070 28/23 Q1001 NOSIG", "speci": null, "taf": "TAF VVDN 092300Z 1000/1024 21008KT 9999 FEW020 BKN070", "raw": "METAR VVDN 102200Z 24002KT 9999 FEW020 SCT070 28/23 Q1001 NOSIG", "fltcat": "VFR", "wind": "240° @ 2 kt", "vis": ">10 km", "clouds": "FEW020 SCT070", "temp": 28, "dewp": 23, "qnh": "1001 hPa", "atis": [{"kind": "ARR", "time": "2026-07-10 17:26 UTC", "text": "VVDN ARR ATIS O 1632Z VVDN INFO O 1632Z. ILS VICTOR APPROACH 35L.. DPTG RWY 35R.. 1632Z. WIND 240/02KT CAVOK T29 DP25 QNH 1009HPA TREND NOSIG. ADZ ON INITIAL CTC YOU HAVE INFO. O."}, {"kind": "DEP", "time": "2026-07-09 06:26 UTC", "text": "VVDN DEP ATIS R 0503Z VVDN INFO R 0503Z. ILS VICTOR APPROACH 35L.. DPTG RWY 35R.. 0502Z. WIND 090/05KT VRB BTN 070/ AND 140/ CAVOK T37 DP23 QNH 1007HPA TREND NOSIG. ADZ ON INITIAL CTC YOU HAVE INFO. R."}]}, {"icao": "VVNB", "name": "Noi Bai — Ha Noi", "metar": "METAR VVNB 102200Z VRB02KT 8000 BKN020 OVC024 27/26 Q0999 NOSIG", "speci": null, "taf": "TAF VVNB 092300Z 1000/1024 16005KT 9000 SCT010 TEMPO 1000/1002 4000 SHRA BKN008 FEW023TCU TEMPO 1006/1012 3500 TSRA BKN010 FEW027CB TEMPO 1021/1024 3500 TSRA BKN010 FEW027CB", "raw": "METAR VVNB 102200Z VRB02KT 8000 BKN020 OVC024 27/26 Q0999 NOSIG", "fltcat": "MVFR", "wind": "VRB @ 2 kt", "vis": "8.0 km", "clouds": "BKN020 OVC024", "temp": 27, "dewp": 26, "qnh": "999 hPa", "atis": [{"kind": "ARR", "time": "2026-07-10 21:36 UTC", "text": "VVNB ARR ATIS X 1800Z VVNB INFO X 1800Z. ILS X RWY 11L. DPTG RWY 11R AND ARR RWY 11L .. 1800Z. WIND 100/3KT CAVOK T26 DP25 QNH 1006HPA TREND NOSIG. ADZ ON INITIAL CTC YOU HAVE INFO X."}, {"kind": "DEP", "time": "2026-07-10 17:12 UTC", "text": "VVNB DEP ATIS T 1630Z VVNB INFO T 1630Z. ILS X RWY 11L. DPTG RWY 11R AND ARR RWY 11L .. 1630Z. WIND 080/5KT VIS 10KM FBL RA CLD FEW 1400FT T26 DP25 QNH 1007HPA TREND NOSIG. RWY CONDITION REPORT 5 5 5.. ADZ ON INITIAL CTC YOU HAVE INFO T."}]}, {"icao": "VVPB", "name": "Phu Bai — Hue", "metar": "METAR COR VVPB 102200Z 27013KT 9999 FEW020 SCT070 30/19 Q1001 NOSIG", "speci": null, "taf": "TAF VVPB 092300Z 1000/1024 22007KT 9999 FEW020 SCT060", "raw": "METAR COR VVPB 102200Z 27013KT 9999 FEW020 SCT070 30/19 Q1001 NOSIG", "fltcat": "VFR", "wind": "270° @ 13 kt", "vis": ">10 km", "clouds": "FEW020 SCT070", "temp": 30, "dewp": 19, "qnh": "1001 hPa"}, {"icao": "VVPC", "name": "Phu Cat — Quy Nhon", "metar": "METAR VVPC 102200Z 23003KT 9999 SCT026 29/21 Q1002 NOSIG", "speci": null, "taf": "TAF VVPC 092300Z 1000/1024 25012KT 9999 FEW020 SCT070 TEMPO 1000/1009 25015G27KT", "raw": "METAR VVPC 102200Z 23003KT 9999 SCT026 29/21 Q1002 NOSIG", "fltcat": "VFR", "wind": "230° @ 3 kt", "vis": ">10 km", "clouds": "SCT026", "temp": 29, "dewp": 21, "qnh": "1002 hPa"}, {"icao": "VVPK", "name": "Pleiku", "metar": "METAR VVPK 102200Z 29016KT 7000 -RA SCT007 BKN012 22/21 Q1009 TEMPO 4000 RA BR", "speci": null, "taf": "TAF VVPK 092300Z 1000/1024 25013KT 7000 SCT005 BKN008 TEMPO 1000/1003 25015G25KT 3500 RA BR BKN003 BKN006 BECMG 1003/1004 SCT012 BKN040 TEMPO 1004/1009 25016G28KT 4000 RA TEMPO 1022/1024 3000 RA BR BKN003 BKN006", "raw": "METAR VVPK 102200Z 29016KT 7000 -RA SCT007 BKN012 22/21 Q1009 TEMPO 4000 RA BR", "fltcat": "MVFR", "wind": "290° @ 16 kt", "vis": "7.0 km", "clouds": "SCT007 BKN012", "temp": 22, "dewp": 21, "qnh": "1009 hPa"}, {"icao": "VVPQ", "name": "Phu Quoc Intl", "metar": "METAR VVPQ 102200Z 26016KT 9999 SCT015 29/28 Q1008 NOSIG", "speci": null, "taf": "TAF VVPQ 092300Z 1000/1024 25010KT 9999 SCT015 SCT040 TEMPO 1000/1004 25015G27KT 5000 TSRA SCT013 FEW015CB BKN040", "raw": "METAR VVPQ 102200Z 26016KT 9999 SCT015 29/28 Q1008 NOSIG", "fltcat": "VFR", "wind": "260° @ 16 kt", "vis": ">10 km", "clouds": "SCT015", "temp": 29, "dewp": 28, "qnh": "1008 hPa"}, {"icao": "VVRG", "name": "Rach Gia", "metar": "METAR VVRG 102200Z 25009KT 8000 FEW015 SCT040 29/25 Q1007 NOSIG", "speci": null, "taf": "TAF VVRG 102000Z 1021/1106 24007KT 9999 SCT015 TEMPO 1022/1102 5000 TSRA BKN015 FEW017CB", "raw": "METAR VVRG 102200Z 25009KT 8000 FEW015 SCT040 29/25 Q1007 NOSIG", "fltcat": "MVFR", "wind": "250° @ 9 kt", "vis": "8.0 km", "clouds": "FEW015 SCT040", "temp": 29, "dewp": 25, "qnh": "1007 hPa"}, {"icao": "VVTH", "name": "Dong Tac — Tuy Hoa", "metar": "METAR VVTH 102200Z 26007KT 220V310 CAVOK 28/23 Q1003 NOSIG", "speci": null, "taf": "TAF VVTH 102000Z 1021/1106 22010KT 9999 FEW017 TEMPO 1101/1106 24015G25KT", "raw": "METAR VVTH 102200Z 26007KT 220V310 CAVOK 28/23 Q1003 NOSIG", "fltcat": "VFR", "wind": "260° @ 7 kt", "vis": "CAVOK", "clouds": "NSC", "temp": 28, "dewp": 23, "qnh": "1003 hPa"}, {"icao": "VVTS", "name": "Tan Son Nhat — Ho Chi Minh City", "metar": "METAR VVTS 102200Z 25008KT 9999 FEW012 27/26 Q1006 NOSIG", "speci": null, "taf": "TAF VVTS 092300Z 1000/1106 26012KT 9999 SCT017 TEMPO 1005/1010 26018G28KT 4000 TSRA BKN015 FEW017CB TEMPO 1103/1106 26018G30KT 5000 SHRA BKN015 FEW017CB", "raw": "METAR VVTS 102200Z 25008KT 9999 FEW012 27/26 Q1006 NOSIG", "fltcat": "VFR", "wind": "250° @ 8 kt", "vis": ">10 km", "clouds": "FEW012", "temp": 27, "dewp": 26, "qnh": "1006 hPa", "atis": [{"kind": "ARR", "time": "2026-07-10 20:52 UTC", "text": "VVTS ARR ATIS X 1730Z VVTS INFO X 1730Z. ILSW APCH IN RWY 25R.. LDG RWY 25R AND DEP RWY 25L.. 1730Z. WIND RWY 25R TDZ 210/6KT VRB BTN 190/ AND 250/ CAVOK T29 DP26 QNH 1011HPA TREND NOSIG. ADZ ON INITIAL CTC YOU HAVE INFO X."}, {"kind": "DEP", "time": "2026-07-10 21:37 UTC", "text": "VVTS DEP ATIS Y 1800Z VVTS INFO Y 1800Z. ILSW APCH IN RWY 25R.. LDG RWY 25R AND DEP RWY 25L.. 1800Z. WIND RWY 25R TDZ 200/6KT VRB BTN 160/ AND 230/ VIS 10KM CLD FEW 3400FT T29 DP26 QNH 1010HPA TREND NOSIG. ADZ ON INITIAL CTC YOU HAVE INFO Y."}]}, {"icao": "VVTX", "name": "Tho Xuan — Thanh Hoa", "metar": "METAR VVTX 102200Z 29001KT 9999 SCT025 26/24 Q0998 NOSIG", "speci": null, "taf": "TAF VVTX 102000Z 1021/1106 VRB02KT 9000 FEW025", "raw": "METAR VVTX 102200Z 29001KT 9999 SCT025 26/24 Q0998 NOSIG", "fltcat": "VFR", "wind": "290° @ 1 kt", "vis": ">10 km", "clouds": "SCT025", "temp": 26, "dewp": 24, "qnh": "998 hPa"}, {"icao": "VVVD", "name": "Van Don — Quang Ninh", "metar": "METAR VVVD 102200Z AUTO 03003KT 9999 FEW006/// 27/27 Q1000", "speci": null, "taf": "TAF VVVD 092300Z 1000/1024 15005KT 9000 SCT010 TEMPO 1000/1002 4000 SHRA BKN008 FEW023TCU TEMPO 1006/1012 3500 TSRA BKN010 FEW027CB TEMPO 1020/1024 3500 TSRA BKN010 FEW027CB", "raw": "METAR VVVD 102200Z AUTO 03003KT 9999 FEW006/// 27/27 Q1000", "fltcat": "VFR", "wind": "030° @ 3 kt", "vis": ">10 km", "clouds": "FEW006", "temp": 27, "dewp": 27, "qnh": "1000 hPa"}, {"icao": "VVVH", "name": "Vinh", "metar": "METAR VVVH 102200Z VRB02KT CAVOK 28/23 Q0999 NOSIG", "speci": null, "taf": "TAF VVVH 092300Z 1000/1024 24008KT 9999 FEW025 TEMPO 1006/1012 24015G25KT", "raw": "METAR VVVH 102200Z VRB02KT CAVOK 28/23 Q0999 NOSIG", "fltcat": "VFR", "wind": "VRB @ 2 kt", "vis": "CAVOK", "clouds": "NSC", "temp": 28, "dewp": 23, "qnh": "999 hPa"}]}