{"updated": "2026-07-22T05:36:52+00:00", "source": "VN MET", "stations": [{"icao": "VVBM", "name": "Buon Ma Thuot", "metar": "METAR VVBM 220530Z 31011KT 280V340 9999 SCT015 FEW017CB SCT040 30/22 Q1012 TEMPO FM0550 TL0635 5000 SHRA", "speci": null, "taf": "TAF VVBM 212300Z 2200/2224 23008KT 9999 SCT015 SCT040 TEMPO 2206/2210 28015G25KT 4000 TSRA BKN013 FEW015CB", "raw": "METAR VVBM 220530Z 31011KT 280V340 9999 SCT015 FEW017CB SCT040 30/22 Q1012 TEMPO FM0550 TL0635 5000 SHRA", "fltcat": "VFR", "wind": "310° @ 11 kt", "vis": ">10 km", "clouds": "SCT015 FEW017 SCT040", "temp": 30, "dewp": 22, "qnh": "1012 hPa"}, {"icao": "VVCA", "name": "Chu Lai", "metar": "METAR VVCA 220530Z 07010KT 040V100 9999 FEW025 34/22 Q1006 NOSIG", "speci": null, "taf": "TAF VVCA 220200Z 2203/2212 18006KT 9999 FEW020 BECMG 2203/2204 10010KT TEMPO 2208/2212 TS SCT013 FEW017CB", "raw": "METAR VVCA 220530Z 07010KT 040V100 9999 FEW025 34/22 Q1006 NOSIG", "fltcat": "VFR", "wind": "070° @ 10 kt", "vis": ">10 km", "clouds": "FEW025", "temp": 34, "dewp": 22, "qnh": "1006 hPa"}, {"icao": "VVCI", "name": "Cat Bi — Hai Phong", "metar": "METAR VVCI 220530Z 12009KT 090V150 9999 FEW024 33/26 Q1004 NOSIG", "speci": null, "taf": "TAF VVCI 212300Z 2200/2224 09005KT 9999 FEW020 TEMPO 2203/2206 4000 SHRA SCT015 FEW027CB TEMPO 2220/2224 4000 TSRA SCT015 FEW027CB", "raw": "METAR VVCI 220530Z 12009KT 090V150 9999 FEW024 33/26 Q1004 NOSIG", "fltcat": "VFR", "wind": "120° @ 9 kt", "vis": ">10 km", "clouds": "FEW024", "temp": 33, "dewp": 26, "qnh": "1004 hPa"}, {"icao": "VVCR", "name": "Cam Ranh — Nha Trang", "metar": "METAR VVCR 220530Z 10013KT CAVOK 36/23 Q1008 NOSIG", "speci": null, "taf": "TAF VVCR 212300Z 2200/2224 32005KT 9999 FEW017 BECMG 2203/2204 10010KT BECMG 2212/2213 18006KT", "raw": "METAR VVCR 220530Z 10013KT CAVOK 36/23 Q1008 NOSIG", "fltcat": "VFR", "wind": "100° @ 13 kt", "vis": "CAVOK", "clouds": "NSC", "temp": 36, "dewp": 23, "qnh": "1008 hPa", "atis": [{"kind": "ARR", "time": "2026-07-22 05:32 UTC", "text": "VVCR ARR ATIS O 1300Z VVCR INFO O 1300Z. ILS YANKEE APPROACH IN USE. LDG RWY 20L AND DPTG RWY 20R.. 1300Z. WIND RWY 20L TDZ 190/7KT MID 190/8KT END 180/7KT RWY 20R TDZ 190/7KT VIS RWY 20L TDZ 10KM END 10KM CLD RWY 20L SCT 7200FT T31 DP24 QNH 1007HPA TREND NOSIG. ADZ ON INITIAL CTC YOU HAVE INFO O."}, {"kind": "DEP", "time": "2026-05-29 05:57 UTC", "text": "VVCR DEP ATIS S 0533Z VVCR INFO S 0533Z. ILS Z APCH IN USE.. LDG RWY 02R AND DPTG RWY 02L.. 0532Z. WIND RWY 02R TDZ 080/9KT MID 090/8KT END 100/8KT RWY 02L TDZ 080/8KT CAVOK T31 DP26 QNH 1009HPA TREND TEMPO FM0630 VIS 4000M MOD TSRA. ADZ ON INITIAL CTC YOU HAVE INFO S."}]}, {"icao": "VVCS", "name": "Con Dao", "metar": "METAR VVCS 220530Z 25012KT 220V350 9999 SCT017 32/25 Q1010 NOSIG", "speci": null, "taf": "TAF VVCS 220200Z 2203/2212 27010KT 9999 SCT017", "raw": "METAR VVCS 220530Z 25012KT 220V350 9999 SCT017 32/25 Q1010 NOSIG", "fltcat": "VFR", "wind": "250° @ 12 kt", "vis": ">10 km", "clouds": "SCT017", "temp": 32, "dewp": 25, "qnh": "1010 hPa"}, {"icao": "VVCT", "name": "Can Tho Intl", "metar": "METAR VVCT 220530Z 27007KT 9999 BKN015 34/26 Q1010 NOSIG", "speci": null, "taf": "TAF VVCT 212300Z 2200/2224 25010KT 9999 SCT015 TEMPO 2207/2210 TS SCT015 FEW017CB", "raw": "METAR VVCT 220530Z 27007KT 9999 BKN015 34/26 Q1010 NOSIG", "fltcat": "MVFR", "wind": "270° @ 7 kt", "vis": ">10 km", "clouds": "BKN015", "temp": 34, "dewp": 26, "qnh": "1010 hPa"}, {"icao": "VVDB", "name": "Dien Bien Phu", "metar": "METAR VVDB 220530Z 20004KT 140V260 9999 SCT033 31/25 Q1008 NOSIG", "speci": null, "taf": "TAF VVDB 220200Z 2203/2212 18005KT 9999 SCT030 TEMPO 2208/2212 4000 TSRA SCT010 FEW027CB", "raw": "METAR VVDB 220530Z 20004KT 140V260 9999 SCT033 31/25 Q1008 NOSIG", "fltcat": "VFR", "wind": "200° @ 4 kt", "vis": ">10 km", "clouds": "SCT033", "temp": 31, "dewp": 25, "qnh": "1008 hPa"}, {"icao": "VVDH", "name": "Dong Hoi", "metar": "METAR VVDH 220530Z 26011KT 230V290 CAVOK 35/23 Q1006 NOSIG", "speci": null, "taf": "TAF VVDH 220200Z 2203/2212 22008KT 9999 FEW030 TEMPO 2203/2207 22015G25KT", "raw": "METAR VVDH 220530Z 26011KT 230V290 CAVOK 35/23 Q1006 NOSIG", "fltcat": "VFR", "wind": "260° @ 11 kt", "vis": "CAVOK", "clouds": "NSC", "temp": 35, "dewp": 23, "qnh": "1006 hPa"}, {"icao": "VVDN", "name": "Da Nang Intl", "metar": "METAR VVDN 220530Z 06006KT 010V120 9999 FEW020 SCT060 36/21 Q1006 NOSIG", "speci": null, "taf": "TAF VVDN 212300Z 2200/2224 22008KT 9999 FEW020 BECMG 2206/2207 09010KT PROB40 TEMPO 2210/2214 24015G25KT 4000 TSRA BKN013 FEW015CB BKN050 BECMG 2214/2215 22006KT", "raw": "METAR VVDN 220530Z 06006KT 010V120 9999 FEW020 SCT060 36/21 Q1006 NOSIG", "fltcat": "VFR", "wind": "060° @ 6 kt", "vis": ">10 km", "clouds": "FEW020 SCT060", "temp": 36, "dewp": 21, "qnh": "1006 hPa", "atis": [{"kind": "ARR", "time": "2026-07-22 05:32 UTC", "text": "VVDN ARR ATIS D 1302Z VVDN INFO D 1302Z. ILS VICTOR APPROACH 35L.. DPTG RWY 35R.. 1302Z. WIND 160/02KT CAVOK T32 DP25 QNH 1004HPA TREND NOSIG. ADZ ON INITIAL CTC YOU HAVE INFO. D."}, {"kind": "DEP", "time": "2026-07-21 03:51 UTC", "text": "VVDN DEP ATIS M 0432Z VVDN INFO M 0432Z. ILS VICTOR APPROACH 35L.. DPTG RWY 35R.. 0432Z. WIND 220/04KT CAVOK T37 DP22 QNH 1004HPA TREND NOSIG. ADZ ON INITIAL CTC YOU HAVE INFO. M."}]}, {"icao": "VVNB", "name": "Noi Bai — Ha Noi", "metar": "METAR VVNB 220530Z VRB04KT 9999 FEW030CB BKN035 33/27 Q1004 NOSIG", "speci": null, "taf": "TAF VVNB 212300Z 2200/2224 07005KT 6000 FEW020 TEMPO 2211/2214 4000 TSRA SCT015 FEW027CB", "raw": "METAR VVNB 220530Z VRB04KT 9999 FEW030CB BKN035 33/27 Q1004 NOSIG", "fltcat": "VFR", "wind": "VRB @ 4 kt", "vis": ">10 km", "clouds": "FEW030 BKN035", "temp": 33, "dewp": 27, "qnh": "1004 hPa", "atis": [{"kind": "ARR", "time": "2026-07-22 04:56 UTC", "text": "VVNB ARR ATIS K 1230Z VVNB INFO K 1230Z. ILS X RWY 11L. DPTG RWY 11R AND ARR RWY 11L .. 1230Z. WIND 210/5KT CAVOK T36 DP25 QNH 0999HPA TREND NOSIG. ADZ ON INITIAL CTC YOU HAVE INFO K."}, {"kind": "DEP", "time": "2026-07-21 21:58 UTC", "text": "VVNB DEP ATIS F 1000Z VVNB INFO F 1000Z. ILS X RWY 11L. DPTG RWY 11R AND ARR RWY 11L .. 1000Z. WIND 250/7KT CAVOK T38 DP24 QNH 0997HPA TREND NOSIG. ADZ ON INITIAL CTC YOU HAVE INFO F."}]}, {"icao": "VVPB", "name": "Phu Bai — Hue", "metar": "METAR VVPB 220530Z 02008KT 9999 FEW020 SCT070 35/22 Q1006 NOSIG", "speci": null, "taf": "TAF VVPB 212300Z 2200/2224 24008KT 9999 FEW020 BECMG 2206/2207 06010KT TEMPO 2209/2213 TS SCT013 FEW015CB SCT050 BECMG 2213/2214 23006KT", "raw": "METAR VVPB 220530Z 02008KT 9999 FEW020 SCT070 35/22 Q1006 NOSIG", "fltcat": "VFR", "wind": "020° @ 8 kt", "vis": ">10 km", "clouds": "FEW020 SCT070", "temp": 35, "dewp": 22, "qnh": "1006 hPa"}, {"icao": "VVPC", "name": "Phu Cat — Quy Nhon", "metar": "METAR VVPC 220530Z 23009KT 190V260 9999 FEW030 37/21 Q1007 NOSIG", "speci": null, "taf": "TAF VVPC 212300Z 2200/2224 24008KT 9999 FEW017", "raw": "METAR VVPC 220530Z 23009KT 190V260 9999 FEW030 37/21 Q1007 NOSIG", "fltcat": "VFR", "wind": "230° @ 9 kt", "vis": ">10 km", "clouds": "FEW030", "temp": 37, "dewp": 21, "qnh": "1007 hPa"}, {"icao": "VVPK", "name": "Pleiku", "metar": "METAR VVPK 220530Z 26010KT 210V290 9999 FEW020 29/21 Q1013 TEMPO FM0615 4000 SHRA BKN013 FEW015CB", "speci": null, "taf": "TAF VVPK 212300Z 2200/2224 26007KT 4000 BR FEW015 BECMG 2200/2201 8000 NSW TEMPO 2208/2211 26015G25KT 3500 TSRA BKN010 FEW015CB BKN040 TEMPO 2222/2224 3000 RA BR BKN004 BKN006", "raw": "METAR VVPK 220530Z 26010KT 210V290 9999 FEW020 29/21 Q1013 TEMPO FM0615 4000 SHRA BKN013 FEW015CB", "fltcat": "MVFR", "wind": "260° @ 10 kt", "vis": ">10 km", "clouds": "FEW020 BKN013 FEW015", "temp": 29, "dewp": 21, "qnh": "1013 hPa"}, {"icao": "VVPQ", "name": "Phu Quoc Intl", "metar": "METAR VVPQ 220530Z 25010KT 9999 SCT015 32/29 Q1011 NOSIG", "speci": null, "taf": "TAF VVPQ 212300Z 2200/2224 27010KT 9999 SCT015 PROB30 TEMPO 2205/2207 5000 SHRA SCT015 FEW017CB", "raw": "METAR VVPQ 220530Z 25010KT 9999 SCT015 32/29 Q1011 NOSIG", "fltcat": "VFR", "wind": "250° @ 10 kt", "vis": ">10 km", "clouds": "SCT015", "temp": 32, "dewp": 29, "qnh": "1011 hPa"}, {"icao": "VVRG", "name": "Rach Gia", "metar": "METAR VVRG 220530Z 26009KT 220V300 9999 SCT017 32/25 Q1010 NOSIG", "speci": null, "taf": "TAF VVRG 220200Z 2203/2212 25009KT 9999 SCT017 SCT040 TEMPO 2207/2211 TS SCT015 FEW017CB", "raw": "METAR VVRG 220530Z 26009KT 220V300 9999 SCT017 32/25 Q1010 NOSIG", "fltcat": "VFR", "wind": "260° @ 9 kt", "vis": ">10 km", "clouds": "SCT017", "temp": 32, "dewp": 25, "qnh": "1010 hPa"}, {"icao": "VVTH", "name": "Dong Tac — Tuy Hoa", "metar": "METAR VVTH 220530Z 25011KT 230V290 CAVOK 37/20 Q1007 NOSIG", "speci": null, "taf": "TAF VVTH 220200Z 2203/2212 25014KT 9999 FEW020 BECMG 2207/2209 14010KT TEMPO 2209/2212 TS SCT013 FEW015CB", "raw": "METAR VVTH 220530Z 25011KT 230V290 CAVOK 37/20 Q1007 NOSIG", "fltcat": "VFR", "wind": "250° @ 11 kt", "vis": "CAVOK", "clouds": "NSC", "temp": 37, "dewp": 20, "qnh": "1007 hPa"}, {"icao": "VVTS", "name": "Tan Son Nhat — Ho Chi Minh City", "metar": "METAR VVTS 220530Z 28010KT 240V310 9999 BKN029 35/24 Q1009 NOSIG", "speci": null, "taf": "TAF VVTS 212300Z 2200/2306 27010KT 9999 SCT017", "raw": "METAR VVTS 220530Z 28010KT 240V310 9999 BKN029 35/24 Q1009 NOSIG", "fltcat": "MVFR", "wind": "280° @ 10 kt", "vis": ">10 km", "clouds": "BKN029", "temp": 35, "dewp": 24, "qnh": "1009 hPa", "atis": [{"kind": "ARR", "time": "2026-07-22 04:49 UTC", "text": "VVTS ARR ATIS I 1230Z VVTS INFO I 1230Z. ILSW APCH IN RWY 25R.. LDG RWY 25R AND DEP RWY 25L.. 1230Z. WIND RWY 25L TDZ 270/12KT MID 250/11KT END 270/12KT MAX17 MNM6 RWY 25R TDZ 270/12KT VIS 10KM CLD FEW 3400FT T31 DP26 QNH 1007HPA TREND NOSIG. ADZ ON INITIAL CTC YOU HAVE INFO I."}, {"kind": "DEP", "time": "2026-07-22 01:37 UTC", "text": "VVTS DEP ATIS F 1130Z VVTS INFO F 1130Z. ILSW APCH IN RWY 25R.. LDG RWY 25R AND DEP RWY 25L.. 1130Z. WIND RWY 25R TDZ 270/8KT VIS 10KM CLD FEW 4100FT T32 DP25 QNH 1006HPA TREND NOSIG. ADZ ON INITIAL CTC YOU HAVE INFO F."}]}, {"icao": "VVTX", "name": "Tho Xuan — Thanh Hoa", "metar": "METAR VVTX 220530Z 13007KT 9999 FEW025 36/21 Q1004 NOSIG", "speci": null, "taf": "TAF VVTX 220200Z 2203/2212 22005KT 9999 FEW030", "raw": "METAR VVTX 220530Z 13007KT 9999 FEW025 36/21 Q1004 NOSIG", "fltcat": "VFR", "wind": "130° @ 7 kt", "vis": ">10 km", "clouds": "FEW025", "temp": 36, "dewp": 21, "qnh": "1004 hPa"}, {"icao": "VVVD", "name": "Van Don — Quang Ninh", "metar": "METAR VVVD 220530Z 22007KT 9999 FEW025 SCT035 33/28 Q1005 NOSIG", "speci": null, "taf": "TAF VVVD 212300Z 2200/2224 10005KT 9999 FEW025 TEMPO 2203/2206 4000 SHRA SCT015 FEW027CB TEMPO 2221/2224 4000 TSRA SCT015 FEW027CB", "raw": "METAR VVVD 220530Z 22007KT 9999 FEW025 SCT035 33/28 Q1005 NOSIG", "fltcat": "VFR", "wind": "220° @ 7 kt", "vis": ">10 km", "clouds": "FEW025 SCT035", "temp": 33, "dewp": 28, "qnh": "1005 hPa"}, {"icao": "VVVH", "name": "Vinh", "metar": "METAR VVVH 220530Z 23009KT 180V280 9999 FEW037 31/21 Q1005 NOSIG", "speci": null, "taf": "TAF VVVH 202300Z 2100/2124 24008KT 9999 FEW030", "raw": "METAR VVVH 220530Z 23009KT 180V280 9999 FEW037 31/21 Q1005 NOSIG", "fltcat": "VFR", "wind": "230° @ 9 kt", "vis": ">10 km", "clouds": "FEW037", "temp": 31, "dewp": 21, "qnh": "1005 hPa"}]}