{"updated": "2026-07-14T20:34:56+00:00", "source": "VN MET", "stations": [{"icao": "VVBM", "name": "Buon Ma Thuot", "metar": "METAR VVBM 142000Z 21006KT 180V240 8000 SCT013 23/21 Q1012 NOSIG", "speci": null, "taf": "TAF VVBM 141700Z 1418/1518 24008KT 9999 BKN015 BKN040 TEMPO 1503/1506 5000 SHRA SCT013 FEW015CB BKN030 TEMPO 1506/1510 26015G26KT 3000 TSRA BKN010 FEW013CB BKN030", "raw": "METAR VVBM 142000Z 21006KT 180V240 8000 SCT013 23/21 Q1012 NOSIG", "fltcat": "MVFR", "wind": "210° @ 6 kt", "vis": "8.0 km", "clouds": "SCT013", "temp": 23, "dewp": 21, "qnh": "1012 hPa"}, {"icao": "VVCA", "name": "Chu Lai", "metar": "METAR VVCA 142030Z AUTO 17005KT 4200 DZ FEW210/// 27/25 Q1003", "speci": null, "taf": "TAF VVCA 132300Z 1400/1409 19006KT 9999 FEW020 BECMG 1404/1405 07010KT", "raw": "METAR VVCA 142030Z AUTO 17005KT 4200 DZ FEW210/// 27/25 Q1003", "fltcat": "IFR", "wind": "170° @ 5 kt", "vis": "4.2 km", "clouds": "FEW210", "temp": 27, "dewp": 25, "qnh": "1003 hPa"}, {"icao": "VVCI", "name": "Cat Bi — Hai Phong", "metar": "METAR VVCI 142030Z 12002KT CAVOK 29/28 Q1001 NOSIG", "speci": null, "taf": "TAF VVCI 141700Z 1418/1518 13006KT 9999 FEW020 TEMPO 1420/1424 4000 SHRA SCT015 FEW027CB", "raw": "METAR VVCI 142030Z 12002KT CAVOK 29/28 Q1001 NOSIG", "fltcat": "VFR", "wind": "120° @ 2 kt", "vis": "CAVOK", "clouds": "NSC", "temp": 29, "dewp": 28, "qnh": "1001 hPa"}, {"icao": "VVCR", "name": "Cam Ranh — Nha Trang", "metar": "METAR VVCR 142030Z 19010KT CAVOK 28/24 Q1009 NOSIG", "speci": null, "taf": "TAF VVCR 141700Z 1418/1518 20010KT 9999 FEW020 TEMPO 1509/1512 TS SCT013 FEW015CB SCT050", "raw": "METAR VVCR 142030Z 19010KT CAVOK 28/24 Q1009 NOSIG", "fltcat": "VFR", "wind": "190° @ 10 kt", "vis": "CAVOK", "clouds": "NSC", "temp": 28, "dewp": 24, "qnh": "1009 hPa", "atis": [{"kind": "ARR", "time": "2026-07-13 09:29 UTC", "text": "VVCR ARR ATIS W 1330Z VVCR INFO W 1330Z. ILS YANKEE APPROACH IN USE. LDG RWY 20L AND DPTG RWY 20R.. 1330Z. WIND RWY 20L TDZ 330/3KT VRB BTN 260/ AND 360/ MID 310/3KT VRB BTN 280/ AND 340/ END 320/3KT RWY 20R TDZ 320/1KT CAVOK T29 DP25 QNH 1010HPA TREND NOSIG. ADZ ON INITIAL CTC YOU HAVE INFO W."}, {"kind": "DEP", "time": "2026-05-29 05:57 UTC", "text": "VVCR DEP ATIS S 0533Z VVCR INFO S 0533Z. ILS Z APCH IN USE.. LDG RWY 02R AND DPTG RWY 02L.. 0532Z. WIND RWY 02R TDZ 080/9KT MID 090/8KT END 100/8KT RWY 02L TDZ 080/8KT CAVOK T31 DP26 QNH 1009HPA TREND TEMPO FM0630 VIS 4000M MOD TSRA. ADZ ON INITIAL CTC YOU HAVE INFO S."}]}, {"icao": "VVCT", "name": "Can Tho Intl", "metar": "METAR VVCT 142030Z 18002KT 9999 FEW015 BKN050 26/26 Q1010 NOSIG", "speci": null, "taf": "TAF VVCT 141700Z 1418/1518 VRB01KT 9999 SCT015 BKN050 PROB30 TEMPO 1423/1501 5000 SHRA SCT013 FEW015CB BKN040 BECMG 1502/1503 25010KT TEMPO 1507/1511 25015G26KT 3000 TSRA SCT013 SCT015CB", "raw": "METAR VVCT 142030Z 18002KT 9999 FEW015 BKN050 26/26 Q1010 NOSIG", "fltcat": "VFR", "wind": "180° @ 2 kt", "vis": ">10 km", "clouds": "FEW015 BKN050", "temp": 26, "dewp": 26, "qnh": "1010 hPa"}, {"icao": "VVDB", "name": "Dien Bien Phu", "metar": "METAR VVDB 142030Z AUTO 15004KT 9999 // FEW031/// BKN039/// OVC057/// 26/24 Q1006 RE// NOSIG", "speci": null, "taf": "TAF VVDB 132300Z 1400/1409 VRB02KT 9999 SCT030 TEMPO 1407/1409 4500 TSRA SCT010 FEW027CB", "raw": "METAR VVDB 142030Z AUTO 15004KT 9999 // FEW031/// BKN039/// OVC057/// 26/24 Q1006 RE// NOSIG", "fltcat": "VFR", "wind": "150° @ 4 kt", "vis": ">10 km", "clouds": "FEW031 BKN039 OVC057", "temp": 26, "dewp": 24, "qnh": "1006 hPa"}, {"icao": "VVDH", "name": "Dong Hoi", "metar": "METAR VVDH 142030Z AUTO 20008KT 9999 FEW040/// BKN110/// 29/23 Q1003", "speci": null, "taf": "TAF VVDH 132300Z 1400/1409 21005KT 9999 FEW030", "raw": "METAR VVDH 142030Z AUTO 20008KT 9999 FEW040/// BKN110/// 29/23 Q1003", "fltcat": "VFR", "wind": "200° @ 8 kt", "vis": ">10 km", "clouds": "FEW040 BKN110", "temp": 29, "dewp": 23, "qnh": "1003 hPa"}, {"icao": "VVDN", "name": "Da Nang Intl", "metar": "METAR VVDN 142030Z VRB02KT 9999 FEW020 SCT080 30/22 Q1004 NOSIG", "speci": null, "taf": "TAF VVDN 141700Z 1418/1518 21008KT 9999 FEW020 SCT060 BECMG 1504/1505 02010KT TEMPO 1508/1512 TS SCT013 FEW015CB SCT060 BECMG 1513/1514 21008KT", "raw": "METAR VVDN 142030Z VRB02KT 9999 FEW020 SCT080 30/22 Q1004 NOSIG", "fltcat": "VFR", "wind": "VRB @ 2 kt", "vis": ">10 km", "clouds": "FEW020 SCT080", "temp": 30, "dewp": 22, "qnh": "1004 hPa", "atis": [{"kind": "ARR", "time": "2026-07-14 03:48 UTC", "text": "VVDN ARR ATIS T 1932Z VVDN INFO T 1932Z. ILS VICTOR APPROACH 35L.. DPTG RWY 35R.. 1932Z. WIND 220/05KT CAVOK T27 DP25 QNH 1008HPA TREND NOSIG. ADZ ON INITIAL CTC YOU HAVE INFO. T."}, {"kind": "DEP", "time": "2026-07-12 02:50 UTC", "text": "VVDN DEP ATIS N 0423Z VVDN INFO N 0423Z. ILS VICTOR APPROACH 35L.. DPTG RWY 35R.. 0423Z. WIND 010/02KT CAVOK T36 DP24 QNH 1008HPA TREND NOSIG. WS ALL RWY. ADZ ON INITIAL CTC YOU HAVE INFO. N."}]}, {"icao": "VVNB", "name": "Noi Bai — Ha Noi", "metar": "METAR VVNB 142030Z 09003KT 060V120 CAVOK 29/27 Q1001 NOSIG", "speci": null, "taf": "TAF VVNB 141700Z 1418/1518 12006KT 9999 FEW025 TEMPO 1501/1505 4000 SHRA SCT012 FEW025TCU", "raw": "METAR VVNB 142030Z 09003KT 060V120 CAVOK 29/27 Q1001 NOSIG", "fltcat": "VFR", "wind": "090° @ 3 kt", "vis": "CAVOK", "clouds": "NSC", "temp": 29, "dewp": 27, "qnh": "1001 hPa", "atis": [{"kind": "ARR", "time": "2026-07-14 13:46 UTC", "text": "VVNB ARR ATIS N 2330Z VVNB INFO N 2330Z. ILS X RWY 11L. DPTG RWY 11R AND ARR RWY 11L .. 2330Z. WIND 090/3KT VIS 6KM FBL RA CLD NSC T27 DP26 QNH 1005HPA TREND TEMPO VIS 4000M FBL RA BR. ADZ ON INITIAL CTC YOU HAVE INFO N."}, {"kind": "DEP", "time": "2026-07-14 15:56 UTC", "text": "VVNB DEP ATIS O 0000Z VVNB INFO O 0000Z. ILS X RWY 11L. DPTG RWY 11R AND ARR RWY 11L .. 0000Z. WIND 080/3KT VIS 7KM FBL RA CLD FEW 2700FT T27 DP27 QNH 1004HPA TREND TEMPO VIS 4000M FBL RA BR. ADZ ON INITIAL CTC YOU HAVE INFO O."}]}, {"icao": "VVPB", "name": "Phu Bai — Hue", "metar": "METAR VVPB 142030Z 25004KT 9999 FEW020 29/21 Q1004 NOSIG", "speci": null, "taf": "TAF VVPB 141700Z 1418/1518 20006KT 9999 FEW020 BECMG 1504/1505 08010KT TEMPO 1509/1512 TS SCT013 FEW015CB SCT050 BECMG 1512/1513 20006KT", "raw": "METAR VVPB 142030Z 25004KT 9999 FEW020 29/21 Q1004 NOSIG", "fltcat": "VFR", "wind": "250° @ 4 kt", "vis": ">10 km", "clouds": "FEW020", "temp": 29, "dewp": 21, "qnh": "1004 hPa"}, {"icao": "VVPC", "name": "Phu Cat — Quy Nhon", "metar": "METAR VVPC 142030Z AUTO 22006KT 180V240 9999 BKN120/// 28/23 Q1006", "speci": null, "taf": "TAF VVPC 141700Z 1418/1518 26006KT 9999 FEW020 TEMPO 1509/1512 TS SCT013 FEW015CB SCT050", "raw": "METAR VVPC 142030Z AUTO 22006KT 180V240 9999 BKN120/// 28/23 Q1006", "fltcat": "VFR", "wind": "220° @ 6 kt", "vis": ">10 km", "clouds": "BKN120", "temp": 28, "dewp": 23, "qnh": "1006 hPa"}, {"icao": "VVPK", "name": "Pleiku", "metar": "METAR VVPK 142030Z AUTO 25009KT 210V280 9999 OVC005/// 22/21 Q1013", "speci": null, "taf": "TAF VVPK 141700Z 1418/1518 25007KT 9999 BKN015 TEMPO 1422/1424 1100 RA BR BKN002 BKN005 TEMPO 1500/1502 3500 RA BR BKN004 BKN007 TEMPO 1503/1507 25015G25KT TEMPO 1507/1512 25015G25KT 4000 TSRA BKN008 FEW015CB BKN050", "raw": "METAR VVPK 142030Z AUTO 25009KT 210V280 9999 OVC005/// 22/21 Q1013", "fltcat": "IFR", "wind": "250° @ 9 kt", "vis": ">10 km", "clouds": "OVC005", "temp": 22, "dewp": 21, "qnh": "1013 hPa"}, {"icao": "VVPQ", "name": "Phu Quoc Intl", "metar": "METAR VVPQ 142030Z 36004KT 9999 SCT015 SCT040 25/25 Q1010 NOSIG", "speci": null, "taf": "TAF VVPQ 141700Z 1418/1518 VRB03KT 9999 SCT015 SCT040 BECMG 1422/1423 27010KT TEMPO 1501/1504 4000 SHRA SCT015 FEW017CB TEMPO 1506/1508 28015G26KT 3000 TSRA SCT013 SCT015CB BKN040", "raw": "METAR VVPQ 142030Z 36004KT 9999 SCT015 SCT040 25/25 Q1010 NOSIG", "fltcat": "VFR", "wind": "360° @ 4 kt", "vis": ">10 km", "clouds": "SCT015 SCT040", "temp": 25, "dewp": 25, "qnh": "1010 hPa"}, {"icao": "VVTH", "name": "Dong Tac — Tuy Hoa", "metar": "METAR VVTH 142030Z AUTO 23005KT 180V250 CAVOK 26/24 Q1008", "speci": null, "taf": "TAF VVTH 132300Z 1400/1409 23012KT 9999 FEW017 SCT060", "raw": "METAR VVTH 142030Z AUTO 23005KT 180V250 CAVOK 26/24 Q1008", "fltcat": "VFR", "wind": "230° @ 5 kt", "vis": "CAVOK", "clouds": "NSC", "temp": 26, "dewp": 24, "qnh": "1008 hPa"}, {"icao": "VVTS", "name": "Tan Son Nhat — Ho Chi Minh City", "metar": "METAR VVTS 142030Z 21006KT 9999 FEW013 27/26 Q1010 NOSIG", "speci": null, "taf": "TAF VVTS 141700Z 1418/1524 25008KT 9999 SCT017 SCT040 TEMPO 1505/1507 24015G28KT 3000 TSRA SCT015 SCT017CB BKN040 TEMPO 1509/1511 20015G28KT 2000 +TSRA SCT013 SCT015CB BKN040", "raw": "METAR VVTS 142030Z 21006KT 9999 FEW013 27/26 Q1010 NOSIG", "fltcat": "VFR", "wind": "210° @ 6 kt", "vis": ">10 km", "clouds": "FEW013", "temp": 27, "dewp": 26, "qnh": "1010 hPa", "atis": [{"kind": "ARR", "time": "2026-07-14 17:45 UTC", "text": "VVTS ARR ATIS Q 0100Z VVTS INFO Q 0100Z. ILSW APCH IN RWY 25R.. LDG RWY 25R AND DEP RWY 25L.. 0100Z. WIND RWY 25R TDZ 280/5KT VRB BTN 240/ AND 320/ CAVOK T30 DP27 QNH 1010HPA TREND NOSIG. ADZ ON INITIAL CTC YOU HAVE INFO Q."}, {"kind": "DEP", "time": "2026-07-14 15:01 UTC", "text": "VVTS DEP ATIS O 0000Z VVTS INFO O 0000Z. ILSW APCH IN RWY 25R.. LDG RWY 25R AND DEP RWY 25L.. 0000Z. WIND RWY 25R TDZ 280/3KT VRB BTN 250/ AND 310/ CAVOK T28 DP27 QNH 1010HPA TREND NOSIG. ADZ ON INITIAL CTC YOU HAVE INFO O."}]}, {"icao": "VVTX", "name": "Tho Xuan — Thanh Hoa", "metar": "METAR VVTX 142030Z AUTO 28002KT CAVOK 26/24 Q1001 NOSIG", "speci": null, "taf": "TAF VVTX 132300Z 1400/1409 24006KT 9999 FEW025 TEMPO 1407/1409 4000 TSRA SCT010 FEW027CB", "raw": "METAR VVTX 142030Z AUTO 28002KT CAVOK 26/24 Q1001 NOSIG", "fltcat": "VFR", "wind": "280° @ 2 kt", "vis": "CAVOK", "clouds": "NSC", "temp": 26, "dewp": 24, "qnh": "1001 hPa"}, {"icao": "VVVD", "name": "Van Don — Quang Ninh", "metar": "METAR VVVD 142030Z AUTO 33003KT 290V360 9999 FEW018/// BKN089/// 29/28 Q1002", "speci": null, "taf": "TAF VVVD 141700Z 1418/1518 14005KT 9999 FEW025 TEMPO 1420/1424 4000 SHRA SCT015 FEW027CB", "raw": "METAR VVVD 142030Z AUTO 33003KT 290V360 9999 FEW018/// BKN089/// 29/28 Q1002", "fltcat": "VFR", "wind": "330° @ 3 kt", "vis": ">10 km", "clouds": "FEW018 BKN089", "temp": 29, "dewp": 28, "qnh": "1002 hPa"}, {"icao": "VVVH", "name": "Vinh", "metar": "METAR VVVH 142030Z 22004KT 170V250 CAVOK 31/22 Q1002 NOSIG", "speci": null, "taf": "TAF VVVH 141700Z 1418/1518 26005KT 9999 FEW025", "raw": "METAR VVVH 142030Z 22004KT 170V250 CAVOK 31/22 Q1002 NOSIG", "fltcat": "VFR", "wind": "220° @ 4 kt", "vis": "CAVOK", "clouds": "NSC", "temp": 31, "dewp": 22, "qnh": "1002 hPa"}]}