{"updated": "2026-07-18T06:00:25+00:00", "source": "VN MET", "stations": [{"icao": "VVBM", "name": "Buon Ma Thuot", "metar": "METAR VVBM 180530Z 29010KT 250V320 9000 -RA SCT013 SCT030 28/23 Q1011 NOSIG", "speci": null, "taf": "TAF VVBM 180500Z 1806/1906 28008KT 9999 SCT013 TEMPO 1808/1812 5000 TSRA BKN010 FEW013CB", "raw": "METAR VVBM 180530Z 29010KT 250V320 9000 -RA SCT013 SCT030 28/23 Q1011 NOSIG", "fltcat": "VFR", "wind": "290° @ 10 kt", "vis": "9.0 km", "clouds": "SCT013 SCT030", "temp": 28, "dewp": 23, "qnh": "1011 hPa"}, {"icao": "VVCA", "name": "Chu Lai", "metar": "METAR VVCA 180530Z 08010KT 050V110 9999 FEW030 36/22 Q1004 NOSIG", "speci": null, "taf": "TAF VVCA 180500Z 1806/1815 06008KT 9999 FEW017", "raw": "METAR VVCA 180530Z 08010KT 050V110 9999 FEW030 36/22 Q1004 NOSIG", "fltcat": "VFR", "wind": "080° @ 10 kt", "vis": ">10 km", "clouds": "FEW030", "temp": 36, "dewp": 22, "qnh": "1004 hPa"}, {"icao": "VVCI", "name": "Cat Bi — Hai Phong", "metar": "METAR VVCI 180530Z VRB04KT CAVOK 34/23 Q1001 NOSIG", "speci": null, "taf": "TAF VVCI 180500Z 1806/1906 23006KT 9999 FEW030 TEMPO 1821/1902 3200 TSRA SCT012 FEW027CB", "raw": "METAR VVCI 180530Z VRB04KT CAVOK 34/23 Q1001 NOSIG", "fltcat": "VFR", "wind": "VRB @ 4 kt", "vis": "CAVOK", "clouds": "NSC", "temp": 34, "dewp": 23, "qnh": "1001 hPa"}, {"icao": "VVCR", "name": "Cam Ranh — Nha Trang", "metar": "METAR VVCR 180530Z 09008KT 9999 FEW021 SCT060 35/23 Q1007 NOSIG", "speci": null, "taf": "TAF VVCR 180500Z 1806/1906 08010KT 9999 FEW020 TEMPO 1808/1812 TS SCT013 FEW015CB BKN060 BECMG 1814/1815 20006KT BECMG 1902/1903 07010KT", "raw": "METAR VVCR 180530Z 09008KT 9999 FEW021 SCT060 35/23 Q1007 NOSIG", "fltcat": "VFR", "wind": "090° @ 8 kt", "vis": ">10 km", "clouds": "FEW021 SCT060", "temp": 35, "dewp": 23, "qnh": "1007 hPa", "atis": [{"kind": "ARR", "time": "2026-07-17 14:03 UTC", "text": "VVCR ARR ATIS F 1401Z VVCR INFO F 1401Z. ILS Z APCH IN USE.. LDG RWY 02R AND DPTG RWY 02L.. 1400Z. WIND RWY 02R TDZ 040/3KT MID 340/3KT END 010/6KT RWY 02L TDZ 020/3KT VIS RWY 02R TDZ 10KM END"}, {"kind": "DEP", "time": "2026-05-29 05:57 UTC", "text": "VVCR DEP ATIS S 0533Z VVCR INFO S 0533Z. ILS Z APCH IN USE.. LDG RWY 02R AND DPTG RWY 02L.. 0532Z. WIND RWY 02R TDZ 080/9KT MID 090/8KT END 100/8KT RWY 02L TDZ 080/8KT CAVOK T31 DP26 QNH 1009HPA TREND TEMPO FM0630 VIS 4000M MOD TSRA. ADZ ON INITIAL CTC YOU HAVE INFO S."}]}, {"icao": "VVCS", "name": "Con Dao", "metar": "METAR VVCS 180530Z 28007KT 9999 SCT017 33/25 Q1010 NOSIG", "speci": null, "taf": "TAF VVCS 180500Z 1806/1815 VRB03KT 9999 SCT017", "raw": "METAR VVCS 180530Z 28007KT 9999 SCT017 33/25 Q1010 NOSIG", "fltcat": "VFR", "wind": "280° @ 7 kt", "vis": ">10 km", "clouds": "SCT017", "temp": 33, "dewp": 25, "qnh": "1010 hPa"}, {"icao": "VVCT", "name": "Can Tho Intl", "metar": "METAR VVCT 180530Z 26008KT 9999 BKN013 FEW015TCU 33/25 Q1009 NOSIG", "speci": null, "taf": "TAF VVCT 180500Z 1806/1906 25008KT 9999 SCT015 TEMPO 1807/1812 5000 TSRA BKN013 FEW015CB", "raw": "METAR VVCT 180530Z 26008KT 9999 BKN013 FEW015TCU 33/25 Q1009 NOSIG", "fltcat": "MVFR", "wind": "260° @ 8 kt", "vis": ">10 km", "clouds": "BKN013 FEW015", "temp": 33, "dewp": 25, "qnh": "1009 hPa"}, {"icao": "VVDB", "name": "Dien Bien Phu", "metar": "METAR VVDB 180530Z VRB02KT 9999 FEW008 OVC024 24/23 Q1007 NOSIG", "speci": null, "taf": "TAF VVDB 180500Z 1806/1815 VRB02KT 6000 -RA SCT015 BKN025 TEMPO 1807/1811 4000 SHRA SCT012 FEW025TCU", "raw": "METAR VVDB 180530Z VRB02KT 9999 FEW008 OVC024 24/23 Q1007 NOSIG", "fltcat": "MVFR", "wind": "VRB @ 2 kt", "vis": ">10 km", "clouds": "FEW008 OVC024", "temp": 24, "dewp": 23, "qnh": "1007 hPa"}, {"icao": "VVDH", "name": "Dong Hoi", "metar": "METAR VVDH 180530Z 25012KT 220V280 CAVOK 36/22 Q1004 NOSIG", "speci": null, "taf": "TAF VVDH 180500Z 1806/1815 24010KT 9999 FEW020", "raw": "METAR VVDH 180530Z 25012KT 220V280 CAVOK 36/22 Q1004 NOSIG", "fltcat": "VFR", "wind": "250° @ 12 kt", "vis": "CAVOK", "clouds": "NSC", "temp": 36, "dewp": 22, "qnh": "1004 hPa"}, {"icao": "VVDN", "name": "Da Nang Intl", "metar": "METAR VVDN 180530Z 24007KT 170V300 9999 FEW020 SCT063 37/21 Q1004 BECMG TL0615 01010KT", "speci": null, "taf": "TAF VVDN 180500Z 1806/1906 23010KT 9999 FEW020 BECMG 1806/1807 01010KT BECMG 1808/1809 12010KT BECMG 1812/1813 22008KT", "raw": "METAR VVDN 180530Z 24007KT 170V300 9999 FEW020 SCT063 37/21 Q1004 BECMG TL0615 01010KT", "fltcat": "VFR", "wind": "240° @ 7 kt", "vis": ">10 km", "clouds": "FEW020 SCT063", "temp": 37, "dewp": 21, "qnh": "1004 hPa", "atis": [{"kind": "ARR", "time": "2026-07-18 03:06 UTC", "text": "VVDN ARR ATIS I 0402Z VVDN INFO I 0402Z. ILS VICTOR APPROACH 35L.. DPTG RWY 35R.. 0402Z. WIND VRB/02KT CAVOK T37 DP22 QNH 1004HPA TREND NOSIG. ADZ ON INITIAL CTC YOU HAVE INFO. I."}, {"kind": "DEP", "time": "2026-07-18 05:18 UTC", "text": "VVDN DEP ATIS J 0432Z VVDN INFO J 0432Z. ILS VICTOR APPROACH 35L.. DPTG RWY 35R.. 0432Z. WIND 260/04KT VRB BTN 200/ AND 300/ CAVOK T38 DP23 QNH 1004HPA TREND NOSIG. ADZ ON INITIAL CTC YOU HAVE INFO. J."}]}, {"icao": "VVNB", "name": "Noi Bai — Ha Noi", "metar": "METAR VVNB 180530Z 33005KT 260V020 9999 FEW047 35/25 Q1001 NOSIG", "speci": null, "taf": "TAF VVNB 180500Z 1806/1906 30006KT 9999 FEW030 TEMPO 1811/1814 3500 TSRA SCT012 FEW027CB TEMPO 1820/1901 3000 TSRA SCT010 FEW027CB", "raw": "METAR VVNB 180530Z 33005KT 260V020 9999 FEW047 35/25 Q1001 NOSIG", "fltcat": "VFR", "wind": "330° @ 5 kt", "vis": ">10 km", "clouds": "FEW047", "temp": 35, "dewp": 25, "qnh": "1001 hPa", "atis": [{"kind": "ARR", "time": "2026-07-18 02:59 UTC", "text": "VVNB ARR ATIS U 0401Z VVNB INFO U 0401Z. ILS X RWY 29R.. DPTG RWY 29L AND ARR RWY 29R.. 0401Z. WIND 250/6KT CAVOK T36 DP24 QNH 1000HPA TREND NOSIG. ADZ ON INITIAL CTC YOU HAVE INFO U."}, {"kind": "DEP", "time": "2026-07-18 04:42 UTC", "text": "VVNB DEP ATIS W 0430Z VVNB INFO W 0430Z. ILS X RWY 29R.. DPTG RWY 29L AND ARR RWY 29R.. 0430Z. WIND 300/8KT VIS 10KM CLD NSC T36 DP24 QNH 1000HPA TREND NOSIG. ADZ ON INITIAL CTC YOU HAVE INFO W."}]}, {"icao": "VVPB", "name": "Phu Bai — Hue", "metar": "METAR VVPB 180530Z 24011KT 9999 FEW020 38/19 Q1004 NOSIG", "speci": null, "taf": "TAF VVPB 180500Z 1806/1906 25012KT 9999 FEW020 BECMG 1806/1808 05010KT BECMG 1812/1813 21007KT", "raw": "METAR VVPB 180530Z 24011KT 9999 FEW020 38/19 Q1004 NOSIG", "fltcat": "VFR", "wind": "240° @ 11 kt", "vis": ">10 km", "clouds": "FEW020", "temp": 38, "dewp": 19, "qnh": "1004 hPa"}, {"icao": "VVPC", "name": "Phu Cat — Quy Nhon", "metar": "METAR VVPC 180530Z 27015KT CAVOK 37/21 Q1006 TEMPO 27015G25KT", "speci": null, "taf": "TAF VVPC 180500Z 1806/1906 26014KT 9999 FEW020 TEMPO 1806/1809 26015G25KT", "raw": "METAR VVPC 180530Z 27015KT CAVOK 37/21 Q1006 TEMPO 27015G25KT", "fltcat": "VFR", "wind": "270° @ 15 kt", "vis": "CAVOK", "clouds": "NSC", "temp": 37, "dewp": 21, "qnh": "1006 hPa"}, {"icao": "VVPK", "name": "Pleiku", "metar": "METAR VVPK 180530Z 26011KT 230V300 9999 FEW020 28/21 Q1013 NOSIG", "speci": null, "taf": "TAF VVPK 180500Z 1806/1906 26012KT 9999 SCT013 TEMPO 1806/1809 26015G25KT TEMPO 1809/1812 26015G25KT 4000 SHRA BKN010 FEW015CB BKN040 TEMPO 1822/1824 2500 RA BR BKN002 BKN004 TEMPO 1900/1902 4000 RA BR BKN004 BKN008", "raw": "METAR VVPK 180530Z 26011KT 230V300 9999 FEW020 28/21 Q1013 NOSIG", "fltcat": "VFR", "wind": "260° @ 11 kt", "vis": ">10 km", "clouds": "FEW020", "temp": 28, "dewp": 21, "qnh": "1013 hPa"}, {"icao": "VVPQ", "name": "Phu Quoc Intl", "metar": "METAR VVPQ 180530Z 27015KT 9999 SCT015 FEW017CB 30/27 Q1011 NOSIG", "speci": null, "taf": "TAF VVPQ 180500Z 1806/1906 26012KT 9999 SCT015 TEMPO 1822/1902 5000 TSRA BKN015 FEW017CB BKN040", "raw": "METAR VVPQ 180530Z 27015KT 9999 SCT015 FEW017CB 30/27 Q1011 NOSIG", "fltcat": "VFR", "wind": "270° @ 15 kt", "vis": ">10 km", "clouds": "SCT015 FEW017", "temp": 30, "dewp": 27, "qnh": "1011 hPa"}, {"icao": "VVRG", "name": "Rach Gia", "metar": "METAR VVRG 180530Z 24011KT 210V270 9999 FEW015 SCT020 32/25 Q1009 NOSIG", "speci": null, "taf": "TAF VVRG 180500Z 1806/1815 25010KT 9999 SCT015 TEMPO 1807/1812 TS SCT015 FEW017CB", "raw": "METAR VVRG 180530Z 24011KT 210V270 9999 FEW015 SCT020 32/25 Q1009 NOSIG", "fltcat": "VFR", "wind": "240° @ 11 kt", "vis": ">10 km", "clouds": "FEW015 SCT020", "temp": 32, "dewp": 25, "qnh": "1009 hPa"}, {"icao": "VVTH", "name": "Dong Tac — Tuy Hoa", "metar": "METAR VVTH 180530Z 25016KT 210V310 CAVOK 36/22 Q1006 TEMPO 25016G26KT", "speci": "SPECI VVTH 180541Z 26015G26KT 220V300 CAVOK 36/22 Q1006 NOSIG", "taf": "TAF VVTH 180500Z 1806/1815 27015KT 9999 FEW017 TEMPO 1806/1809 27015G25KT", "raw": "SPECI VVTH 180541Z 26015G26KT 220V300 CAVOK 36/22 Q1006 NOSIG", "fltcat": "VFR", "wind": "260° @ 15 kt G26", "vis": "CAVOK", "clouds": "NSC", "temp": 36, "dewp": 22, "qnh": "1006 hPa"}, {"icao": "VVTS", "name": "Tan Son Nhat — Ho Chi Minh City", "metar": "METAR VVTS 180530Z 28012KT 9999 SCT026 FEW028TCU 32/26 Q1009 NOSIG", "speci": null, "taf": "TAF VVTS 180500Z 1806/1912 26008KT 9999 SCT017 TEMPO 1808/1811 5000 TSRA SCT015 FEW017CB TEMPO 1907/1910 26015G25KT 3000 TSRA SCT015 SCT017CB", "raw": "METAR VVTS 180530Z 28012KT 9999 SCT026 FEW028TCU 32/26 Q1009 NOSIG", "fltcat": "VFR", "wind": "280° @ 12 kt", "vis": ">10 km", "clouds": "SCT026 FEW028", "temp": 32, "dewp": 26, "qnh": "1009 hPa", "atis": [{"kind": "ARR", "time": "2026-07-18 05:50 UTC", "text": "VVTS ARR ATIS U 0430Z VVTS INFO U 0430Z. ILSW APCH IN RWY 25R.. LDG RWY 25R AND DEP RWY 25L.. 0430Z. WIND RWY 25L TDZ 250/10KT MAX17 MNM7 MID 230/14KT END 250/9KT MAX15 MNM5 VRB BTN 220/ AND 280/ RWY 25R TDZ 250/10KT MAX17 MNM7 VIS RWY 25R TDZ 10KM FBL SHRA CLD RWY 25R BKN 2500FT FEW CB 2700FT T32 DP27 QNH 1008HPA CB RWY 25 TREND TEMPO TL0500 VIS 4000M MOD SHRA. ADZ ON INITIAL CTC YOU HAVE INFO U."}, {"kind": "DEP", "time": "2026-07-18 03:48 UTC", "text": "VVTS DEP ATIS T 0400Z VVTS INFO T 0400Z. ILSW APCH IN RWY 25R.. LDG RWY 25R AND DEP RWY 25L.. 0400Z. WIND RWY 25L TDZ 250/15KT VRB BTN 240/ AND 300/ MID 260/13KT MAX19 MNM7 VRB BTN 220/ AND 280/ END 280/11KT MAX16 MNM6 VRB BTN 230/ AND 300/ RWY 25R TDZ 250/15KT VRB BTN 240/ AND 300/ VIS RWY 25R TDZ 10KM CLD RWY 25R FEW 2900FT T32 DP27 QNH 1008HPA TREND NOSIG. ADZ ON INITIAL CTC YOU HAVE INFO T."}]}, {"icao": "VVTX", "name": "Tho Xuan — Thanh Hoa", "metar": "METAR VVTX 180530Z 23008KT 9999 FEW030 36/20 Q1001 NOSIG", "speci": null, "taf": "TAF VVTX 180500Z 1806/1815 25006KT 9999 FEW030 PROB40 TEMPO 1809/1812 4000 TSRA SCT015 FEW027CB", "raw": "METAR VVTX 180530Z 23008KT 9999 FEW030 36/20 Q1001 NOSIG", "fltcat": "VFR", "wind": "230° @ 8 kt", "vis": ">10 km", "clouds": "FEW030", "temp": 36, "dewp": 20, "qnh": "1001 hPa"}, {"icao": "VVVD", "name": "Van Don — Quang Ninh", "metar": "METAR VVVD 180530Z AUTO 18012KT 150V210 9999 FEW120/// SCT150/// 34/26 Q1002", "speci": null, "taf": "TAF VVVD 180500Z 1806/1906 20006KT 9999 FEW030 TEMPO 1820/1901 3000 TSRA SCT010 FEW027CB", "raw": "METAR VVVD 180530Z AUTO 18012KT 150V210 9999 FEW120/// SCT150/// 34/26 Q1002", "fltcat": "VFR", "wind": "180° @ 12 kt", "vis": ">10 km", "clouds": "FEW120 SCT150", "temp": 34, "dewp": 26, "qnh": "1002 hPa"}, {"icao": "VVVH", "name": "Vinh", "metar": "METAR VVVH 180530Z 23010KT 180V270 CAVOK 34/21 Q1003 NOSIG", "speci": null, "taf": "TAF VVVH 180500Z 1806/1906 24010KT 9999 FEW030 TEMPO 1806/1809 24015G25KT", "raw": "METAR VVVH 180530Z 23010KT 180V270 CAVOK 34/21 Q1003 NOSIG", "fltcat": "VFR", "wind": "230° @ 10 kt", "vis": "CAVOK", "clouds": "NSC", "temp": 34, "dewp": 21, "qnh": "1003 hPa"}]}