{"updated": "2026-07-24T09:28:00+00:00", "source": "VN MET", "stations": [{"icao": "VVBM", "name": "Buon Ma Thuot", "metar": "METAR VVBM 240900Z 22005KT 160V250 9999 SCT015 FEW017CB 29/24 Q1006 NOSIG", "speci": null, "taf": "TAF VVBM 232300Z 2400/2424 29007KT 9999 SCT015 SCT040 TEMPO 2407/2412 5000 TSRA BKN010 FEW015CB BKN040", "raw": "METAR VVBM 240900Z 22005KT 160V250 9999 SCT015 FEW017CB 29/24 Q1006 NOSIG", "fltcat": "VFR", "wind": "220° @ 5 kt", "vis": ">10 km", "clouds": "SCT015 FEW017", "temp": 29, "dewp": 24, "qnh": "1006 hPa"}, {"icao": "VVCA", "name": "Chu Lai", "metar": "METAR VVCA 240900Z 07007KT 030V130 9999 FEW020 33/26 Q1002 NOSIG", "speci": null, "taf": "TAF VVCA 240800Z 2409/2418 08010KT 9999 FEW020 TEMPO 2409/2414 TS SCT013 FEW015CB", "raw": "METAR VVCA 240900Z 07007KT 030V130 9999 FEW020 33/26 Q1002 NOSIG", "fltcat": "VFR", "wind": "070° @ 7 kt", "vis": ">10 km", "clouds": "FEW020", "temp": 33, "dewp": 26, "qnh": "1002 hPa"}, {"icao": "VVCI", "name": "Cat Bi — Hai Phong", "metar": "METAR VVCI 240900Z 10009KT 9999 FEW023 30/25 Q1003 NOSIG", "speci": null, "taf": "TAF VVCI 232300Z 2400/2424 14005KT 9999 SCT020 TEMPO 2400/2403 3500 TSRA SCT012 FEW027CB TEMPO 2406/2412 3000 TSRA SCT010 FEW027CB TEMPO 2416/2422 3000 TSRA SCT010 FEW027CB", "raw": "METAR VVCI 240900Z 10009KT 9999 FEW023 30/25 Q1003 NOSIG", "fltcat": "VFR", "wind": "100° @ 9 kt", "vis": ">10 km", "clouds": "FEW023", "temp": 30, "dewp": 25, "qnh": "1003 hPa"}, {"icao": "VVCR", "name": "Cam Ranh — Nha Trang", "metar": "METAR VVCR 240900Z 14009KT 110V170 9999 FEW021 SCT050 33/22 Q1004 NOSIG", "speci": null, "taf": "TAF VVCR 232300Z 2400/2424 32005KT 9999 FEW020 BECMG 2402/2403 11011KT TEMPO 2407/2411 4000 TSRA BKN013 FEW017CB BKN050 BECMG 2413/2414 30007KT", "raw": "METAR VVCR 240900Z 14009KT 110V170 9999 FEW021 SCT050 33/22 Q1004 NOSIG", "fltcat": "VFR", "wind": "140° @ 9 kt", "vis": ">10 km", "clouds": "FEW021 SCT050", "temp": 33, "dewp": 22, "qnh": "1004 hPa", "atis": [{"kind": "ARR", "time": "2026-07-22 05:32 UTC", "text": "VVCR ARR ATIS O 1300Z VVCR INFO O 1300Z. ILS YANKEE APPROACH IN USE. LDG RWY 20L AND DPTG RWY 20R.. 1300Z. WIND RWY 20L TDZ 190/7KT MID 190/8KT END 180/7KT RWY 20R TDZ 190/7KT VIS RWY 20L TDZ 10KM END 10KM CLD RWY 20L SCT 7200FT T31 DP24 QNH 1007HPA TREND NOSIG. ADZ ON INITIAL CTC YOU HAVE INFO O."}, {"kind": "DEP", "time": "2026-05-29 05:57 UTC", "text": "VVCR DEP ATIS S 0533Z VVCR INFO S 0533Z. ILS Z APCH IN USE.. LDG RWY 02R AND DPTG RWY 02L.. 0532Z. WIND RWY 02R TDZ 080/9KT MID 090/8KT END 100/8KT RWY 02L TDZ 080/8KT CAVOK T31 DP26 QNH 1009HPA TREND TEMPO FM0630 VIS 4000M MOD TSRA. ADZ ON INITIAL CTC YOU HAVE INFO S."}]}, {"icao": "VVCS", "name": "Con Dao", "metar": "METAR VVCS 240900Z 26010KT 200V310 9999 FEW017 SCT040 30/24 Q1005 NOSIG", "speci": null, "taf": "TAF VVCS 232300Z 2400/2409 25010KT 9999 SCT017 TEMPO 2402/2405 5000 TSRA BKN015 FEW017CB TEMPO 2405/2409 25015G26KT 3000 TSRA BKN015 SCT017CB", "raw": "METAR VVCS 240900Z 26010KT 200V310 9999 FEW017 SCT040 30/24 Q1005 NOSIG", "fltcat": "VFR", "wind": "260° @ 10 kt", "vis": ">10 km", "clouds": "FEW017 SCT040", "temp": 30, "dewp": 24, "qnh": "1005 hPa"}, {"icao": "VVCT", "name": "Can Tho Intl", "metar": "METAR VVCT 240900Z 24008KT 9999 BKN015 FEW017CB 30/25 Q1004 NOSIG", "speci": null, "taf": "TAF AMD VVCT 232325Z 2400/2424 26007KT 9999 SCT015 SCT040 TEMPO 2400/2405 5000 TSRA SCT015 FEW017CB", "raw": "METAR VVCT 240900Z 24008KT 9999 BKN015 FEW017CB 30/25 Q1004 NOSIG", "fltcat": "MVFR", "wind": "240° @ 8 kt", "vis": ">10 km", "clouds": "BKN015 FEW017", "temp": 30, "dewp": 25, "qnh": "1004 hPa"}, {"icao": "VVDB", "name": "Dien Bien Phu", "metar": "METAR VVDB 240900Z 20004KT 160V240 9999 FEW027CB FEW054 32/24 Q1003 TEMPO TL0930 4000 TSRA", "speci": null, "taf": "TAF VVDB 232300Z 2400/2409 VRB02KT 9999 SCT020 TEMPO 2400/2403 4000 SHRA SCT010 FEW025TCU TEMPO 2408/2409 3500 TSRA SCT010 FEW027CB", "raw": "METAR VVDB 240900Z 20004KT 160V240 9999 FEW027CB FEW054 32/24 Q1003 TEMPO TL0930 4000 TSRA", "fltcat": "VFR", "wind": "200° @ 4 kt", "vis": ">10 km", "clouds": "FEW027 FEW054", "temp": 32, "dewp": 24, "qnh": "1003 hPa"}, {"icao": "VVDH", "name": "Dong Hoi", "metar": "METAR VVDH 240900Z 07005KT 030V110 CAVOK 32/24 Q1002 NOSIG", "speci": null, "taf": "TAF VVDH 232300Z 2400/2409 20006KT 9999 FEW030", "raw": "METAR VVDH 240900Z 07005KT 030V110 CAVOK 32/24 Q1002 NOSIG", "fltcat": "VFR", "wind": "070° @ 5 kt", "vis": "CAVOK", "clouds": "NSC", "temp": 32, "dewp": 24, "qnh": "1002 hPa"}, {"icao": "VVDL", "name": "Lien Khuong — Da Lat", "metar": "METAR VVDL 240900Z 26007KT 9999 SCT013 FEW015CB 29/20 Q1010 NOSIG", "speci": null, "taf": "TAF VVDL 232300Z 2400/2424 28010KT 9999 SCT015 TEMPO 2407/2412 28015G26KT 3000 TSRA BKN010 SCT015CB", "raw": "METAR VVDL 240900Z 26007KT 9999 SCT013 FEW015CB 29/20 Q1010 NOSIG", "fltcat": "VFR", "wind": "260° @ 7 kt", "vis": ">10 km", "clouds": "SCT013 FEW015", "temp": 29, "dewp": 20, "qnh": "1010 hPa"}, {"icao": "VVDN", "name": "Da Nang Intl", "metar": "METAR VVDN 240900Z 10009KT 9999 FEW020 32/25 Q1003 NOSIG", "speci": null, "taf": "TAF AMD VVDN 240900Z 2409/2506 13012KT 9999 FEW020 TEMPO 2409/2413 TS SCT015 FEW017CB BECMG 2414/2415 22006KT", "raw": "METAR VVDN 240900Z 10009KT 9999 FEW020 32/25 Q1003 NOSIG", "fltcat": "VFR", "wind": "100° @ 9 kt", "vis": ">10 km", "clouds": "FEW020", "temp": 32, "dewp": 25, "qnh": "1003 hPa", "atis": [{"kind": "ARR", "time": "2026-07-24 05:12 UTC", "text": "VVDN ARR ATIS H 0502Z VVDN INFO H 0502Z. ILS VICTOR APPROACH 35L.. DPTG RWY 35R.. 0502Z. WIND 020/13KT VIS 10KM CLD FEW 2700FT T32 DP26 QNH 1004HPA TREND NOSIG. ADZ ON INITIAL CTC YOU HAVE INFO. H."}, {"kind": "DEP", "time": "2026-07-22 10:38 UTC", "text": "VVDN DEP ATIS G 1432Z VVDN INFO G 1432Z. ILS VICTOR APPROACH 35L.. DPTG RWY 35R.. 1432Z. WIND VRB/01KT CAVOK T32 DP24 QNH 1004HPA TREND NOSIG. ADZ ON INITIAL CTC YOU HAVE INFO. G."}]}, {"icao": "VVNB", "name": "Noi Bai — Ha Noi", "metar": "METAR VVNB 240900Z 19006KT 160V240 9999 -RA FEW030CB SCT039 OVC050 28/26 Q1003 NOSIG", "speci": null, "taf": "TAF AMD VVNB 240047Z 2401/2424 05005KT 9999 FEW020 TEMPO 2401/2403 3000 TSRA SCT010 FEW027CB TEMPO 2406/2410 3500 TSRA SCT010 FEW027CB TEMPO 2418/2422 3000 TSRA SCT010 FEW027CB", "raw": "METAR VVNB 240900Z 19006KT 160V240 9999 -RA FEW030CB SCT039 OVC050 28/26 Q1003 NOSIG", "fltcat": "VFR", "wind": "190° @ 6 kt", "vis": ">10 km", "clouds": "FEW030 SCT039 OVC050", "temp": 28, "dewp": 26, "qnh": "1003 hPa", "atis": [{"kind": "ARR", "time": "2026-07-24 09:20 UTC", "text": "VVNB ARR ATIS V 0600Z VVNB INFO V 0600Z. ILS X RWY 11L. DPTG RWY 11R AND ARR RWY 11L .. 0600Z. WIND 340/4KT CAVOK T36 DP28 QNH 1001HPA TREND NOSIG. ADZ ON INITIAL CTC YOU HAVE INFO V."}, {"kind": "DEP", "time": "2026-07-24 07:41 UTC", "text": "VVNB DEP ATIS U 0530Z VVNB INFO U 0530Z. ILS X RWY 11L. DPTG RWY 11R AND ARR RWY 11L .. 0530Z. WIND VRB5KT CAVOK T36 DP28 QNH 1001HPA TREND NOSIG. ADZ ON INITIAL CTC YOU HAVE INFO U."}]}, {"icao": "VVNS", "name": "Na San — Son La", "metar": "METAR VVNS 240800Z /////KT 9999 SCT025 BKN045 30/22 Q1005 NOSIG", "speci": null, "taf": null, "raw": "METAR VVNS 240800Z /////KT 9999 SCT025 BKN045 30/22 Q1005 NOSIG", "fltcat": "VFR", "wind": "—", "vis": ">10 km", "clouds": "SCT025 BKN045", "temp": 30, "dewp": 22, "qnh": "1005 hPa"}, {"icao": "VVPB", "name": "Phu Bai — Hue", "metar": "METAR VVPB 240900Z 10011KT 9999 FEW017 FEW020CB 33/24 Q1002 NOSIG", "speci": null, "taf": "TAF AMD VVPB 240900Z 2409/2506 12010KT 9999 FEW020 TEMPO 2409/2412 TS SCT013 FEW015CB BECMG 2414/2415 23005KT", "raw": "METAR VVPB 240900Z 10011KT 9999 FEW017 FEW020CB 33/24 Q1002 NOSIG", "fltcat": "VFR", "wind": "100° @ 11 kt", "vis": ">10 km", "clouds": "FEW017 FEW020", "temp": 33, "dewp": 24, "qnh": "1002 hPa"}, {"icao": "VVPC", "name": "Phu Cat — Quy Nhon", "metar": "METAR VVPC 240900Z 33011KT 9999 VCSH SCT025 FEW027CB 31/23 Q1003 TEMPO 4500 TSRA", "speci": null, "taf": "TAF VVPC 232300Z 2400/2424 25009KT 9999 FEW020 SCT060 TEMPO 2408/2412 VRB15G25KT 3000 TSRA BKN010 FEW015CB BKN050", "raw": "METAR VVPC 240900Z 33011KT 9999 VCSH SCT025 FEW027CB 31/23 Q1003 TEMPO 4500 TSRA", "fltcat": "VFR", "wind": "330° @ 11 kt", "vis": ">10 km", "clouds": "SCT025 FEW027", "temp": 31, "dewp": 23, "qnh": "1003 hPa"}, {"icao": "VVPK", "name": "Pleiku", "metar": "METAR VVPK 240900Z 25005KT 200V310 9999 FEW015 SCT060 26/21 Q1008 NOSIG", "speci": null, "taf": "TAF VVPK 232300Z 2400/2424 24008KT 9999 BKN010 TEMPO 2400/2403 3500 RA BR BKN004 BECMG 2403/2404 SCT017 SCT060 TEMPO 2408/2413 26015G25KT 4000 TSRA BKN010 FEW017CB BKN050 TEMPO 2422/2424 3500 RA BR BKN003 BKN006", "raw": "METAR VVPK 240900Z 25005KT 200V310 9999 FEW015 SCT060 26/21 Q1008 NOSIG", "fltcat": "VFR", "wind": "250° @ 5 kt", "vis": ">10 km", "clouds": "FEW015 SCT060", "temp": 26, "dewp": 21, "qnh": "1008 hPa"}, {"icao": "VVPQ", "name": "Phu Quoc Intl", "metar": "METAR VVPQ 240900Z 03005KT 1500 R10/0500U +TSRA SCT015 FEW017CB BKN040 25/25 Q1005 BECMG TL0920 3000 TSRA", "speci": "SPECI VVPQ 240920Z 02005KT 2500 +TSRA SCT015 FEW017CB BKN040 25/25 Q1005 BECMG TL0940 5000 TSRA", "taf": "TAF COR VVPQ 232350Z 2400/2424 28014KT 9999 SCT017 SCT040 TEMPO 2402/2406 28015G28KT 4000 TSRA BKN015 FEW017CB TEMPO 2422/2424 28015G28KT 4000 TSRA BKN015 FEW017CB", "raw": "SPECI VVPQ 240920Z 02005KT 2500 +TSRA SCT015 FEW017CB BKN040 25/25 Q1005 BECMG TL0940 5000 TSRA", "fltcat": "IFR", "wind": "020° @ 5 kt", "vis": "2.5 km", "clouds": "SCT015 FEW017 BKN040", "temp": 25, "dewp": 25, "qnh": "1005 hPa"}, {"icao": "VVRG", "name": "Rach Gia", "metar": "METAR VVRG 240900Z 26014G24KT 9999 SCT015 FEW017CB SCT050 29/25 Q1004 NOSIG", "speci": null, "taf": "TAF AMD VVRG 232326Z 2400/2409 24008KT 9999 SCT017 SCT040 TEMPO 2400/2404 4000 TSRA BKN015 FEW017CB", "raw": "METAR VVRG 240900Z 26014G24KT 9999 SCT015 FEW017CB SCT050 29/25 Q1004 NOSIG", "fltcat": "VFR", "wind": "260° @ 14 kt G24", "vis": ">10 km", "clouds": "SCT015 FEW017 SCT050", "temp": 29, "dewp": 25, "qnh": "1004 hPa"}, {"icao": "VVTH", "name": "Dong Tac — Tuy Hoa", "metar": "METAR VVTH 240900Z 14013KT 9999 FEW053 32/25 Q1002 NOSIG", "speci": null, "taf": "TAF VVTH 240800Z 2409/2418 11012KT 9999 FEW020 TEMPO 2409/2414 TS SCT013 FEW015CB BECMG 2414/2415 22008KT", "raw": "METAR VVTH 240900Z 14013KT 9999 FEW053 32/25 Q1002 NOSIG", "fltcat": "VFR", "wind": "140° @ 13 kt", "vis": ">10 km", "clouds": "FEW053", "temp": 32, "dewp": 25, "qnh": "1002 hPa"}, {"icao": "VVTS", "name": "Tan Son Nhat — Ho Chi Minh City", "metar": "METAR VVTS 240900Z 22012KT 180V240 9999 SCT025 FEW027CB 31/24 Q1003 NOSIG", "speci": null, "taf": "TAF AMD VVTS 240855Z 2409/2512 26010KT 9999 SCT017 TEMPO 2411/2415 5000 TSRA SCT015 FEW017CB TEMPO 2507/2510 30015G28KT 2000 +TSRA SCT013 SCT015CB", "raw": "METAR VVTS 240900Z 22012KT 180V240 9999 SCT025 FEW027CB 31/24 Q1003 NOSIG", "fltcat": "VFR", "wind": "220° @ 12 kt", "vis": ">10 km", "clouds": "SCT025 FEW027", "temp": 31, "dewp": 24, "qnh": "1003 hPa", "atis": [{"kind": "ARR", "time": "2026-07-24 06:51 UTC", "text": "VVTS ARR ATIS P 0500Z VVTS INFO P 0500Z. ILSW APCH IN RWY 25R.. LDG RWY 25R AND DEP RWY 25L.. 0500Z. WIND RWY 25R TDZ 290/10KT MAX18 MNM7 VIS 10KM CLD FEW 4000FT SCT 9100FT T35 DP26 QNH 1007HPA TREND TEMPO FM0630 200/16KT MAX28 VIS 4000M MOD TSRA CLD SCT 1500FT FEW CB 1700FT. ADZ ON INITIAL CTC YOU HAVE INFO P."}, {"kind": "DEP", "time": "2026-07-23 04:13 UTC", "text": "VVTS DEP ATIS Y 2030Z VVTS INFO Y 2030Z. ILSW APCH IN RWY 25R.. LDG RWY 25R AND DEP RWY 25L.. 2030Z. WIND RWY 25R TDZ 240/8KT MAX15 MNM6 END 240/8KT VIS 10KM CLD FEW 1600FT T29 DP27 QNH 1007HPA TREND NOSIG. ADZ ON INITIAL CTC YOU HAVE INFO Y."}]}, {"icao": "VVTX", "name": "Tho Xuan — Thanh Hoa", "metar": "METAR COR VVTX 240900Z 11011KT 9999 FEW025 FEW030TCU 32/23 Q1002 TEMPO FM0930 3000 TSRA FEW027CB", "speci": null, "taf": "TAF VVTX 240800Z 2409/2418 12006KT 9999 FEW030 TEMPO 2409/2414 4000 TSRA SCT015 FEW027CB", "raw": "METAR COR VVTX 240900Z 11011KT 9999 FEW025 FEW030TCU 32/23 Q1002 TEMPO FM0930 3000 TSRA FEW027CB", "fltcat": "VFR", "wind": "110° @ 11 kt", "vis": ">10 km", "clouds": "FEW025 FEW030 FEW027", "temp": 32, "dewp": 23, "qnh": "1002 hPa"}, {"icao": "VVVD", "name": "Van Don — Quang Ninh", "metar": "METAR VVVD 240900Z 05004KT 360V110 9999 SCT014 BKN033 29/28 Q1004 NOSIG", "speci": null, "taf": "TAF VVVD 232300Z 2400/2424 VRB02KT 9999 SCT020 TEMPO 2400/2403 3000 TSRA SCT010 FEW027CB TEMPO 2405/2410 3500 TSRA SCT010 FEW027CB TEMPO 2416/2422 3000 TSRA SCT010 FEW027CB", "raw": "METAR VVVD 240900Z 05004KT 360V110 9999 SCT014 BKN033 29/28 Q1004 NOSIG", "fltcat": "VFR", "wind": "050° @ 4 kt", "vis": ">10 km", "clouds": "SCT014 BKN033", "temp": 29, "dewp": 28, "qnh": "1004 hPa"}, {"icao": "VVVH", "name": "Vinh", "metar": "METAR VVVH 240900Z 09006KT 060V120 9999 FEW017 31/25 Q1002 NOSIG", "speci": null, "taf": "TAF VVVH 232300Z 2400/2424 VRB02KT 9999 FEW030 TEMPO 2408/2412 3500 TSRA SCT010 FEW027CB", "raw": "METAR VVVH 240900Z 09006KT 060V120 9999 FEW017 31/25 Q1002 NOSIG", "fltcat": "VFR", "wind": "090° @ 6 kt", "vis": ">10 km", "clouds": "FEW017", "temp": 31, "dewp": 25, "qnh": "1002 hPa"}]}