{"updated": "2026-07-13T18:31:37+00:00", "source": "VN MET", "stations": [{"icao": "VVCA", "name": "Chu Lai", "metar": "METAR VVCA 131830Z AUTO VRB01KT 9999 SCT130/// 27/27 Q1002", "speci": null, "taf": "TAF VVCA 122300Z 1300/1309 09010KT 9999 FEW020", "raw": "METAR VVCA 131830Z AUTO VRB01KT 9999 SCT130/// 27/27 Q1002", "fltcat": "VFR", "wind": "VRB @ 1 kt", "vis": ">10 km", "clouds": "SCT130", "temp": 27, "dewp": 27, "qnh": "1002 hPa"}, {"icao": "VVCI", "name": "Cat Bi — Hai Phong", "metar": "METAR VVCI 131830Z 12002KT 9999 FEW016 29/27 Q1002 NOSIG", "speci": null, "taf": "TAF VVCI 131700Z 1318/1418 14006KT 9999 FEW030", "raw": "METAR VVCI 131830Z 12002KT 9999 FEW016 29/27 Q1002 NOSIG", "fltcat": "VFR", "wind": "120° @ 2 kt", "vis": ">10 km", "clouds": "FEW016", "temp": 29, "dewp": 27, "qnh": "1002 hPa"}, {"icao": "VVCR", "name": "Cam Ranh — Nha Trang", "metar": "METAR VVCR 131800Z 19012KT CAVOK 28/24 Q1007 NOSIG", "speci": null, "taf": "TAF VVCR 131700Z 1318/1418 19012KT 9999 FEW020 TEMPO 1407/1412 TS SCT013 FEW017CB", "raw": "METAR VVCR 131800Z 19012KT CAVOK 28/24 Q1007 NOSIG", "fltcat": "VFR", "wind": "190° @ 12 kt", "vis": "CAVOK", "clouds": "NSC", "temp": 28, "dewp": 24, "qnh": "1007 hPa", "atis": [{"kind": "ARR", "time": "2026-07-13 09:29 UTC", "text": "VVCR ARR ATIS W 1330Z VVCR INFO W 1330Z. ILS YANKEE APPROACH IN USE. LDG RWY 20L AND DPTG RWY 20R.. 1330Z. WIND RWY 20L TDZ 330/3KT VRB BTN 260/ AND 360/ MID 310/3KT VRB BTN 280/ AND 340/ END 320/3KT RWY 20R TDZ 320/1KT CAVOK T29 DP25 QNH 1010HPA TREND NOSIG. ADZ ON INITIAL CTC YOU HAVE INFO W."}, {"kind": "DEP", "time": "2026-05-29 05:57 UTC", "text": "VVCR DEP ATIS S 0533Z VVCR INFO S 0533Z. ILS Z APCH IN USE.. LDG RWY 02R AND DPTG RWY 02L.. 0532Z. WIND RWY 02R TDZ 080/9KT MID 090/8KT END 100/8KT RWY 02L TDZ 080/8KT CAVOK T31 DP26 QNH 1009HPA TREND TEMPO FM0630 VIS 4000M MOD TSRA. ADZ ON INITIAL CTC YOU HAVE INFO S."}]}, {"icao": "VVCT", "name": "Can Tho Intl", "metar": "METAR VVCT 131800Z 18002KT 9999 SCT013 BKN040 25/25 Q1009 NOSIG", "speci": null, "taf": "TAF VVCT 131700Z 1318/1418 24008KT 9999 SCT015 SCT050 TEMPO 1323/1403 5000 SHRA SCT013 FEW015CB TEMPO 1403/1407 25015G27KT 3000 TSRA BKN013 FEW015CB BKN040", "raw": "METAR VVCT 131800Z 18002KT 9999 SCT013 BKN040 25/25 Q1009 NOSIG", "fltcat": "VFR", "wind": "180° @ 2 kt", "vis": ">10 km", "clouds": "SCT013 BKN040", "temp": 25, "dewp": 25, "qnh": "1009 hPa"}, {"icao": "VVDB", "name": "Dien Bien Phu", "metar": "METAR VVDB 131830Z AUTO 12005KT 9999 // BKN047/// BKN060/// 25/23 Q1005 RE//", "speci": null, "taf": "TAF VVDB 122300Z 1300/1309 VRB02KT 6000 SCT015 BKN030 TEMPO 1300/1304 4000 TSRA SCT010 FEW027CB BKN030 TEMPO 1307/1309 4000 TSRA SCT012 FEW027CB BKN030", "raw": "METAR VVDB 131830Z AUTO 12005KT 9999 // BKN047/// BKN060/// 25/23 Q1005 RE//", "fltcat": "VFR", "wind": "120° @ 5 kt", "vis": ">10 km", "clouds": "BKN047 BKN060", "temp": 25, "dewp": 23, "qnh": "1005 hPa"}, {"icao": "VVDH", "name": "Dong Hoi", "metar": "METAR VVDH 131830Z AUTO 21003KT 150V250 9999 SCT091/// 28/25 Q1002", "speci": null, "taf": "TAF VVDH 122300Z 1300/1309 21008KT 8000 FEW030 TEMPO 1300/1305 4000 SHRA SCT010 FEW025TCU TEMPO 1306/1309 4000 TSRA SCT015 FEW027CB", "raw": "METAR VVDH 131830Z AUTO 21003KT 150V250 9999 SCT091/// 28/25 Q1002", "fltcat": "VFR", "wind": "210° @ 3 kt", "vis": ">10 km", "clouds": "SCT091", "temp": 28, "dewp": 25, "qnh": "1002 hPa"}, {"icao": "VVDN", "name": "Da Nang Intl", "metar": "METAR VVDN 131830Z 24002KT 9999 FEW017 SCT080 27/25 Q1003 NOSIG", "speci": null, "taf": "TAF VVDN 131700Z 1318/1418 22006KT 9999 FEW015 SCT060 BECMG 1404/1405 01010KT PROB40 TEMPO 1409/1413 24015G25KT 4000 TSRA BKN013 FEW015CB BKN050 BECMG 1413/1414 22006KT", "raw": "METAR VVDN 131830Z 24002KT 9999 FEW017 SCT080 27/25 Q1003 NOSIG", "fltcat": "VFR", "wind": "240° @ 2 kt", "vis": ">10 km", "clouds": "FEW017 SCT080", "temp": 27, "dewp": 25, "qnh": "1003 hPa", "atis": [{"kind": "ARR", "time": "2026-07-13 08:47 UTC", "text": "VVDN ARR ATIS H 1332Z VVDN INFO H 1332Z. ILS VICTOR APPROACH 35L.. DPTG RWY 35R.. 1332Z. WIND 260/01KT CAVOK T31 DP25 QNH 1009HPA TREND NOSIG. ADZ ON INITIAL CTC YOU HAVE INFO. H."}, {"kind": "DEP", "time": "2026-07-12 02:50 UTC", "text": "VVDN DEP ATIS N 0423Z VVDN INFO N 0423Z. ILS VICTOR APPROACH 35L.. DPTG RWY 35R.. 0423Z. WIND 010/02KT CAVOK T36 DP24 QNH 1008HPA TREND NOSIG. WS ALL RWY. ADZ ON INITIAL CTC YOU HAVE INFO. N."}]}, {"icao": "VVNB", "name": "Noi Bai — Ha Noi", "metar": "METAR VVNB 131830Z 13004KT CAVOK 29/27 Q1002 NOSIG", "speci": null, "taf": "TAF VVNB 131700Z 1318/1418 12006KT 9999 FEW025 PROB40 TEMPO 1408/1412 3500 TSRA SCT010 FEW027CB", "raw": "METAR VVNB 131830Z 13004KT CAVOK 29/27 Q1002 NOSIG", "fltcat": "VFR", "wind": "130° @ 4 kt", "vis": "CAVOK", "clouds": "NSC", "temp": 29, "dewp": 27, "qnh": "1002 hPa", "atis": [{"kind": "ARR", "time": "2026-07-13 17:20 UTC", "text": "VVNB ARR ATIS X 1600Z VVNB INFO X 1600Z. ILS X RWY 11L. DPTG RWY 11R AND ARR RWY 11L .. 1600Z. WIND 080/6KT VIS 10KM FBL RA CLD NSC T26 DP25 QNH 1007HPA TREND NOSIG. RWY CONDITION REPORT 5 5 5.. ADZ ON INITIAL CTC YOU HAVE INFO X."}, {"kind": "DEP", "time": "2026-07-13 04:41 UTC", "text": "VVNB DEP ATIS N 1203Z VVNB INFO N 1203Z. ILS X RWY 11L. DPTG RWY 11R AND ARR RWY 11L .. 1201Z. WIND 260/18KT VIS 1100M HVY TSRA CLD OBSC VER VIS 700FT T26 DP25 QNH 1006HPA TREND BECMG TL1230 VIS 3000M MOD TSRA. RWY CONDITION REPORT 5 5 5.. ADZ ON INITIAL CTC YOU HAVE INFO N."}]}, {"icao": "VVPB", "name": "Phu Bai — Hue", "metar": "METAR VVPB 131800Z 19002KT 9999 FEW020 29/24 Q1003 NOSIG", "speci": null, "taf": "TAF VVPB 131700Z 1318/1418 20006KT 9999 FEW020 SCT060 BECMG 1406/1407 10010KT PROB40 TEMPO 1408/1412 22015G25KT 3500 TSRA BKN012 FEW015CB BKN050 BECMG 1412/1413 20006KT", "raw": "METAR VVPB 131800Z 19002KT 9999 FEW020 29/24 Q1003 NOSIG", "fltcat": "VFR", "wind": "190° @ 2 kt", "vis": ">10 km", "clouds": "FEW020", "temp": 29, "dewp": 24, "qnh": "1003 hPa"}, {"icao": "VVPC", "name": "Phu Cat — Quy Nhon", "metar": "METAR VVPC 131830Z AUTO 23013KT 9999 SCT041/// BKN120/// 30/22 Q1005", "speci": null, "taf": "TAF VVPC 131700Z 1318/1418 20006KT 9999 FEW017 TEMPO 1401/1408 24015G25KT TEMPO 1408/1412 TS SCT013 FEW015CB", "raw": "METAR VVPC 131830Z AUTO 23013KT 9999 SCT041/// BKN120/// 30/22 Q1005", "fltcat": "VFR", "wind": "230° @ 13 kt", "vis": ">10 km", "clouds": "SCT041 BKN120", "temp": 30, "dewp": 22, "qnh": "1005 hPa"}, {"icao": "VVPK", "name": "Pleiku", "metar": "METAR VVPK 131830Z AUTO 27012KT 9999 RA SCT007/// BKN015/// BKN030/// 21/20 Q1012", "speci": null, "taf": "TAF VVPK 131700Z 1318/1418 26006KT 9999 SCT015 TEMPO 1322/1401 2000 RA BR BKN002 BKN004 TEMPO 1401/1403 3500 RA BR BKN004 BKN008 TEMPO 1408/1412 27015G27KT 3500 TSRA BKN012 FEW015CB BKN050", "raw": "METAR VVPK 131830Z AUTO 27012KT 9999 RA SCT007/// BKN015/// BKN030/// 21/20 Q1012", "fltcat": "MVFR", "wind": "270° @ 12 kt", "vis": ">10 km", "clouds": "SCT007 BKN015 BKN030", "temp": 21, "dewp": 20, "qnh": "1012 hPa"}, {"icao": "VVPQ", "name": "Phu Quoc Intl", "metar": "METAR VVPQ 131830Z 03003KT 9000 SCT015 FEW017CB BKN040 25/25 Q1009 NOSIG", "speci": null, "taf": "TAF VVPQ 131700Z 1318/1418 26010KT 9999 SCT015 SCT040 TEMPO 1318/1320 5000 SHRA SCT015 FEW017CB TEMPO 1322/1402 30015G28KT 3000 TSRA SCT015 SCT017CB TEMPO 1402/1406 5000 SHRA BKN013 FEW015CB BKN040 TEMPO 1408/1412 28020G32KT 3000 TSRA SCT013 SCT015CB BKN040", "raw": "METAR VVPQ 131830Z 03003KT 9000 SCT015 FEW017CB BKN040 25/25 Q1009 NOSIG", "fltcat": "VFR", "wind": "030° @ 3 kt", "vis": "9.0 km", "clouds": "SCT015 FEW017 BKN040", "temp": 25, "dewp": 25, "qnh": "1009 hPa"}, {"icao": "VVTH", "name": "Dong Tac — Tuy Hoa", "metar": "METAR VVTH 131830Z AUTO 24008KT CAVOK 26/23 Q1006", "speci": null, "taf": "TAF VVTH 122300Z 1300/1309 22012KT 9999 FEW017 TEMPO 1300/1307 22015G25KT", "raw": "METAR VVTH 131830Z AUTO 24008KT CAVOK 26/23 Q1006", "fltcat": "VFR", "wind": "240° @ 8 kt", "vis": "CAVOK", "clouds": "NSC", "temp": 26, "dewp": 23, "qnh": "1006 hPa"}, {"icao": "VVTS", "name": "Tan Son Nhat — Ho Chi Minh City", "metar": "METAR VVTS 131800Z 22005KT 180V240 9999 FEW015 26/25 Q1008 NOSIG", "speci": null, "taf": "TAF VVTS 131700Z 1318/1424 24010KT 9999 SCT017 TEMPO 1321/1324 5000 SHRA BKN015 FEW017CB TEMPO 1405/1410 24018G28KT 2500 +TSRA BKN015 SCT017CB TEMPO 1410/1414 5000 SHRA BKN015 FEW017CB", "raw": "METAR VVTS 131800Z 22005KT 180V240 9999 FEW015 26/25 Q1008 NOSIG", "fltcat": "VFR", "wind": "220° @ 5 kt", "vis": ">10 km", "clouds": "FEW015", "temp": 26, "dewp": 25, "qnh": "1008 hPa", "atis": [{"kind": "ARR", "time": "2026-07-13 14:28 UTC", "text": "VVTS ARR ATIS W 1500Z VVTS INFO W 1500Z. ILSW APCH IN RWY 25R.. LDG RWY 25R AND DEP RWY 25L.. 1500Z. WIND RWY 25R TDZ 250/7KT VIS 10KM CLD SCT 4100FT T29 DP26 QNH 1011HPA TREND NOSIG. ADZ ON INITIAL CTC YOU HAVE INFO W."}, {"kind": "DEP", "time": "2026-07-13 17:43 UTC", "text": "VVTS DEP ATIS Y 1600Z VVTS INFO Y 1600Z. ILSW APCH IN RWY 25R.. LDG RWY 25R AND DEP RWY 25L.. 1600Z. WIND RWY 25R TDZ 250/6KT VIS 10KM CLD FEW 4200FT T29 DP26 QNH 1010HPA TREND NOSIG. ADZ ON INITIAL CTC YOU HAVE INFO Y."}]}, {"icao": "VVTX", "name": "Tho Xuan — Thanh Hoa", "metar": "METAR VVTX 131830Z AUTO 00000KT CAVOK 27/25 Q1002 NOSIG", "speci": null, "taf": "TAF VVTX 122300Z 1300/1309 VRB02KT 6000 FEW025 TEMPO 1301/1305 4000 SHRA SCT010 FEW025TCU TEMPO 1306/1309 3000 TSRA SCT015 FEW027CB", "raw": "METAR VVTX 131830Z AUTO 00000KT CAVOK 27/25 Q1002 NOSIG", "fltcat": "VFR", "wind": "000° @ 0 kt", "vis": "CAVOK", "clouds": "NSC", "temp": 27, "dewp": 25, "qnh": "1002 hPa"}, {"icao": "VVVD", "name": "Van Don — Quang Ninh", "metar": "METAR VVVD 131830Z AUTO 15002KT 9999 NCD 28/27 Q1002", "speci": null, "taf": "TAF VVVD 131700Z 1318/1418 21005KT 9999 FEW025", "raw": "METAR VVVD 131830Z AUTO 15002KT 9999 NCD 28/27 Q1002", "fltcat": "VFR", "wind": "150° @ 2 kt", "vis": ">10 km", "clouds": "—", "temp": 28, "dewp": 27, "qnh": "1002 hPa"}, {"icao": "VVVH", "name": "Vinh", "metar": "METAR VVVH 131830Z VRB01KT CAVOK 27/25 Q1002 NOSIG", "speci": null, "taf": "TAF VVVH 131700Z 1318/1418 23005KT 9999 FEW020", "raw": "METAR VVVH 131830Z VRB01KT CAVOK 27/25 Q1002 NOSIG", "fltcat": "VFR", "wind": "VRB @ 1 kt", "vis": "CAVOK", "clouds": "NSC", "temp": 27, "dewp": 25, "qnh": "1002 hPa"}]}