{"updated": "2026-07-24T12:06:15+00:00", "source": "VN MET", "stations": [{"icao": "VVBM", "name": "Buon Ma Thuot", "metar": "METAR VVBM 241200Z VRB01KT 9999 SCT015 25/23 Q1008 NOSIG", "speci": null, "taf": "TAF VVBM 241100Z 2412/2512 27007KT 9999 SCT015 BKN040 TEMPO 2413/2416 5000 TSRA BKN013 FEW015CB BKN040", "raw": "METAR VVBM 241200Z VRB01KT 9999 SCT015 25/23 Q1008 NOSIG", "fltcat": "VFR", "wind": "VRB @ 1 kt", "vis": ">10 km", "clouds": "SCT015", "temp": 25, "dewp": 23, "qnh": "1008 hPa"}, {"icao": "VVCA", "name": "Chu Lai", "metar": "METAR VVCA 241200Z AUTO 16006KT 9999 NCD 29/24 Q1003", "speci": null, "taf": "TAF VVCA 232300Z 2400/2409 19005KT 9999 FEW015 BECMG 2404/2405 08010KT TEMPO 2407/2409 TS SCT013 FEW015CB SCT060", "raw": "METAR VVCA 241200Z AUTO 16006KT 9999 NCD 29/24 Q1003", "fltcat": "VFR", "wind": "160° @ 6 kt", "vis": ">10 km", "clouds": "—", "temp": 29, "dewp": 24, "qnh": "1003 hPa"}, {"icao": "VVCI", "name": "Cat Bi — Hai Phong", "metar": "METAR VVCI 241200Z 05005KT 9999 FEW023 29/25 Q1003 NOSIG", "speci": null, "taf": "TAF VVCI 241100Z 2412/2512 09005KT 9999 FEW030 TEMPO 2415/2420 3000 TSRA BKN010 FEW027CB TEMPO 2422/2503 4000 TSRA BKN015 FEW027CB", "raw": "METAR VVCI 241200Z 05005KT 9999 FEW023 29/25 Q1003 NOSIG", "fltcat": "VFR", "wind": "050° @ 5 kt", "vis": ">10 km", "clouds": "FEW023", "temp": 29, "dewp": 25, "qnh": "1003 hPa"}, {"icao": "VVCR", "name": "Cam Ranh — Nha Trang", "metar": "METAR VVCR 241200Z 03004KT 9999 FEW050 29/25 Q1005 NOSIG", "speci": null, "taf": "TAF VVCR 241100Z 2412/2512 15010KT 9999 FEW020 BECMG 2412/2413 30007KT BECMG 2503/2504 12010KT TEMPO 2508/2512 TS SCT013 FEW015CB", "raw": "METAR VVCR 241200Z 03004KT 9999 FEW050 29/25 Q1005 NOSIG", "fltcat": "VFR", "wind": "030° @ 4 kt", "vis": ">10 km", "clouds": "FEW050", "temp": 29, "dewp": 25, "qnh": "1005 hPa", "atis": [{"kind": "ARR", "time": "2026-07-22 05:32 UTC", "text": "VVCR ARR ATIS O 1300Z VVCR INFO O 1300Z. ILS YANKEE APPROACH IN USE. LDG RWY 20L AND DPTG RWY 20R.. 1300Z. WIND RWY 20L TDZ 190/7KT MID 190/8KT END 180/7KT RWY 20R TDZ 190/7KT VIS RWY 20L TDZ 10KM END 10KM CLD RWY 20L SCT 7200FT T31 DP24 QNH 1007HPA TREND NOSIG. ADZ ON INITIAL CTC YOU HAVE INFO O."}, {"kind": "DEP", "time": "2026-05-29 05:57 UTC", "text": "VVCR DEP ATIS S 0533Z VVCR INFO S 0533Z. ILS Z APCH IN USE.. LDG RWY 02R AND DPTG RWY 02L.. 0532Z. WIND RWY 02R TDZ 080/9KT MID 090/8KT END 100/8KT RWY 02L TDZ 080/8KT CAVOK T31 DP26 QNH 1009HPA TREND TEMPO FM0630 VIS 4000M MOD TSRA. ADZ ON INITIAL CTC YOU HAVE INFO S."}]}, {"icao": "VVCS", "name": "Con Dao", "metar": "METAR VVCS 241100Z 24008KT 190V310 9999 FEW017 28/24 Q1005 NOSIG", "speci": null, "taf": "TAF VVCS 232300Z 2400/2409 25010KT 9999 SCT017 TEMPO 2402/2405 5000 TSRA BKN015 FEW017CB TEMPO 2405/2409 25015G26KT 3000 TSRA BKN015 SCT017CB", "raw": "METAR VVCS 241100Z 24008KT 190V310 9999 FEW017 28/24 Q1005 NOSIG", "fltcat": "VFR", "wind": "240° @ 8 kt", "vis": ">10 km", "clouds": "FEW017", "temp": 28, "dewp": 24, "qnh": "1005 hPa"}, {"icao": "VVCT", "name": "Can Tho Intl", "metar": "METAR VVCT 241200Z 27004KT 9999 SCT015 FEW017CB BKN050 28/25 Q1006 NOSIG", "speci": null, "taf": "TAF VVCT 241100Z 2412/2512 24010KT 9999 SCT015 SCT050 TEMPO 2505/2508 4000 TSRA SCT013 FEW015CB BKN050 TEMPO 2510/2512 27015G27KT 2000 +TSRA SCT013 SCT015CB", "raw": "METAR VVCT 241200Z 27004KT 9999 SCT015 FEW017CB BKN050 28/25 Q1006 NOSIG", "fltcat": "VFR", "wind": "270° @ 4 kt", "vis": ">10 km", "clouds": "SCT015 FEW017 BKN050", "temp": 28, "dewp": 25, "qnh": "1006 hPa"}, {"icao": "VVDB", "name": "Dien Bien Phu", "metar": "METAR VVDB 241200Z 03007KT 9999 FEW055 27/23 Q1004 NOSIG", "speci": null, "taf": "TAF VVDB 241100Z 2412/2421 16005KT 6000 SCT020 TEMPO 2412/2416 3500 TSRA SCT012 FEW027CB", "raw": "METAR VVDB 241200Z 03007KT 9999 FEW055 27/23 Q1004 NOSIG", "fltcat": "VFR", "wind": "030° @ 7 kt", "vis": ">10 km", "clouds": "FEW055", "temp": 27, "dewp": 23, "qnh": "1004 hPa"}, {"icao": "VVDH", "name": "Dong Hoi", "metar": "METAR VVDH 241200Z 13006KT 110V170 9999 SCT021 30/26 Q1004 NOSIG", "speci": null, "taf": "TAF VVDH 232300Z 2400/2409 20006KT 9999 FEW030", "raw": "METAR VVDH 241200Z 13006KT 110V170 9999 SCT021 30/26 Q1004 NOSIG", "fltcat": "VFR", "wind": "130° @ 6 kt", "vis": ">10 km", "clouds": "SCT021", "temp": 30, "dewp": 26, "qnh": "1004 hPa"}, {"icao": "VVDL", "name": "Lien Khuong — Da Lat", "metar": "METAR VVDL 241100Z VRB03KT 9999 -TSRA SCT013 FEW015CB SCT040 26/22 Q1011 NOSIG", "speci": null, "taf": "TAF VVDL 241100Z 2412/2512 30006KT 9999 SCT013 TEMPO 2509/2512 5000 TSRA SCT010 FEW013CB", "raw": "METAR VVDL 241100Z VRB03KT 9999 -TSRA SCT013 FEW015CB SCT040 26/22 Q1011 NOSIG", "fltcat": "VFR", "wind": "VRB @ 3 kt", "vis": ">10 km", "clouds": "SCT013 FEW015 SCT040", "temp": 26, "dewp": 22, "qnh": "1011 hPa"}, {"icao": "VVDN", "name": "Da Nang Intl", "metar": "METAR VVDN 241200Z 21005KT 9999 FEW015 FEW025TCU SCT050 28/25 Q1004 NOSIG", "speci": null, "taf": "TAF VVDN 241100Z 2412/2512 12010KT 9999 FEW020 SCT050 TEMPO 2412/2414 TS SCT013 FEW015CB SCT050 BECMG 2414/2415 22006KT BECMG 2503/2504 04010KT TEMPO 2508/2512 23015G25KT 4000 TSRA BKN013 FEW015CB BKN060", "raw": "METAR VVDN 241200Z 21005KT 9999 FEW015 FEW025TCU SCT050 28/25 Q1004 NOSIG", "fltcat": "VFR", "wind": "210° @ 5 kt", "vis": ">10 km", "clouds": "FEW015 FEW025 SCT050", "temp": 28, "dewp": 25, "qnh": "1004 hPa", "atis": [{"kind": "ARR", "time": "2026-07-24 10:21 UTC", "text": "VVDN ARR ATIS Q 0609Z VVDN INFO Q 0609Z. ILS VICTOR APPROACH 35L.. DPTG RWY 35R.. 0609Z. WIND 200/06KT CAVOK T38 DP24 QNH 1003HPA TREND NOSIG. WS ALL RWY. ADZ ON INITIAL CTC YOU HAVE INFO. Q."}, {"kind": "DEP", "time": "2026-07-22 10:38 UTC", "text": "VVDN DEP ATIS G 1432Z VVDN INFO G 1432Z. ILS VICTOR APPROACH 35L.. DPTG RWY 35R.. 1432Z. WIND VRB/01KT CAVOK T32 DP24 QNH 1004HPA TREND NOSIG. ADZ ON INITIAL CTC YOU HAVE INFO. G."}]}, {"icao": "VVNB", "name": "Noi Bai — Ha Noi", "metar": "METAR VVNB 241200Z VRB02KT 9999 FEW029 28/26 Q1004 NOSIG", "speci": null, "taf": "TAF VVNB 241100Z 2412/2512 12005KT 9999 SCT020 TEMPO 2414/2418 3500 TSRA BKN012 FEW027CB TEMPO 2420/2501 3200 TSRA BKN010 FEW027CB TEMPO 2506/2510 3500 TSRA SCT012 FEW027CB", "raw": "METAR VVNB 241200Z VRB02KT 9999 FEW029 28/26 Q1004 NOSIG", "fltcat": "VFR", "wind": "VRB @ 2 kt", "vis": ">10 km", "clouds": "FEW029", "temp": 28, "dewp": 26, "qnh": "1004 hPa", "atis": [{"kind": "ARR", "time": "2026-07-24 09:20 UTC", "text": "VVNB ARR ATIS V 0600Z VVNB INFO V 0600Z. ILS X RWY 11L. DPTG RWY 11R AND ARR RWY 11L .. 0600Z. WIND 340/4KT CAVOK T36 DP28 QNH 1001HPA TREND NOSIG. ADZ ON INITIAL CTC YOU HAVE INFO V."}, {"kind": "DEP", "time": "2026-07-24 09:27 UTC", "text": "VVNB DEP ATIS V 0600Z VVNB INFO V 0600Z. ILS X RWY 11L. DPTG RWY 11R AND ARR RWY 11L .. 0600Z. WIND 340/4KT CAVOK T36 DP28 QNH 1001HPA TREND NOSIG. ADZ ON INITIAL CTC YOU HAVE INFO V."}]}, {"icao": "VVNS", "name": "Na San — Son La", "metar": "METAR VVNS 241100Z /////KT 9999 SCT025 27/23 Q1006 NOSIG", "speci": null, "taf": null, "raw": "METAR VVNS 241100Z /////KT 9999 SCT025 27/23 Q1006 NOSIG", "fltcat": "VFR", "wind": "—", "vis": ">10 km", "clouds": "SCT025", "temp": 27, "dewp": 23, "qnh": "1006 hPa"}, {"icao": "VVPB", "name": "Phu Bai — Hue", "metar": "METAR VVPB 241200Z 27005KT 9999 FEW020 28/23 Q1004 NOSIG", "speci": null, "taf": "TAF VVPB 241100Z 2412/2512 11010KT 9999 FEW020 TEMPO 2412/2414 TS SCT013 FEW015CB SCT050 BECMG 2414/2415 23005KT BECMG 2504/2505 05010KT TEMPO 2508/2512 24015G25KT 4000 TSRA BKN013 FEW015CB BKN060", "raw": "METAR VVPB 241200Z 27005KT 9999 FEW020 28/23 Q1004 NOSIG", "fltcat": "VFR", "wind": "270° @ 5 kt", "vis": ">10 km", "clouds": "FEW020", "temp": 28, "dewp": 23, "qnh": "1004 hPa"}, {"icao": "VVPC", "name": "Phu Cat — Quy Nhon", "metar": "METAR VVPC 241200Z 23004KT 9999 FEW025 SCT070 27/24 Q1004 NOSIG", "speci": null, "taf": "TAF VVPC 241100Z 2412/2512 25007KT 9999 FEW020 SCT060 TEMPO 2502/2508 25015G25KT TEMPO 2508/2512 25015G25KT 4000 TSRA BKN013 FEW015CB BKN060", "raw": "METAR VVPC 241200Z 23004KT 9999 FEW025 SCT070 27/24 Q1004 NOSIG", "fltcat": "VFR", "wind": "230° @ 4 kt", "vis": ">10 km", "clouds": "FEW025 SCT070", "temp": 27, "dewp": 24, "qnh": "1004 hPa"}, {"icao": "VVPK", "name": "Pleiku", "metar": "METAR VVPK 241200Z VRB02KT 9999 FEW015 24/22 Q1009 NOSIG", "speci": null, "taf": "TAF VVPK 241100Z 2412/2512 24006KT 9999 FEW015 SCT050 TEMPO 2412/2415 4000 SHRA BKN008 BKN013 FEW015CB TEMPO 2422/2424 2000 RA BR BKN003 BKN006 TEMPO 2500/2502 4000 RA BR BKN004 BKN008 TEMPO 2502/2508 24015G25KT TEMPO 2508/2512 24015G25KT 4000 TSRA BKN013 FEW015CB BKN050", "raw": "METAR VVPK 241200Z VRB02KT 9999 FEW015 24/22 Q1009 NOSIG", "fltcat": "VFR", "wind": "VRB @ 2 kt", "vis": ">10 km", "clouds": "FEW015", "temp": 24, "dewp": 22, "qnh": "1009 hPa"}, {"icao": "VVPQ", "name": "Phu Quoc Intl", "metar": "METAR VVPQ 241200Z 28007KT 8000 -RA SCT015 SCT040 26/26 Q1006 NOSIG", "speci": null, "taf": "TAF VVPQ 241100Z 2412/2512 29012KT 9999 SCT015 BKN040 TEMPO 2413/2418 4000 TSRA SCT013 FEW015CB TEMPO 2421/2502 27015G25KT 3000 TSRA SCT013 FEW015CB TEMPO 2503/2506 27015G30KT 2000 +TSRA SCT013 SCT015CB TEMPO 2506/2508 4000 TSRA BKN013 FEW015CB", "raw": "METAR VVPQ 241200Z 28007KT 8000 -RA SCT015 SCT040 26/26 Q1006 NOSIG", "fltcat": "MVFR", "wind": "280° @ 7 kt", "vis": "8.0 km", "clouds": "SCT015 SCT040", "temp": 26, "dewp": 26, "qnh": "1006 hPa"}, {"icao": "VVRG", "name": "Rach Gia", "metar": "METAR VVRG 241100Z 26009KT 230V300 9999 FEW017 SCT050 28/24 Q1005 NOSIG", "speci": null, "taf": "TAF AMD VVRG 232326Z 2400/2409 24008KT 9999 SCT017 SCT040 TEMPO 2400/2404 4000 TSRA BKN015 FEW017CB", "raw": "METAR VVRG 241100Z 26009KT 230V300 9999 FEW017 SCT050 28/24 Q1005 NOSIG", "fltcat": "VFR", "wind": "260° @ 9 kt", "vis": ">10 km", "clouds": "FEW017 SCT050", "temp": 28, "dewp": 24, "qnh": "1005 hPa"}, {"icao": "VVTH", "name": "Dong Tac — Tuy Hoa", "metar": "METAR VVTH 241200Z 14008KT 9999 FEW032 29/24 Q1004 NOSIG", "speci": null, "taf": "TAF VVTH 232300Z 2400/2409 26010KT 9999 FEW020 TEMPO 2407/2409 TS SCT013 FEW015CB SCT060", "raw": "METAR VVTH 241200Z 14008KT 9999 FEW032 29/24 Q1004 NOSIG", "fltcat": "VFR", "wind": "140° @ 8 kt", "vis": ">10 km", "clouds": "FEW032", "temp": 29, "dewp": 24, "qnh": "1004 hPa"}, {"icao": "VVTS", "name": "Tan Son Nhat — Ho Chi Minh City", "metar": "METAR VVTS 241200Z 21013KT 9999 SCT020 FEW023CB BKN044 29/26 Q1005 NOSIG", "speci": null, "taf": "TAF VVTS 241100Z 2412/2518 24008KT 9999 SCT017 TEMPO 2412/2415 30015G26KT 3000 TSRA SCT015 SCT017CB TEMPO 2507/2510 30015G28KT 2000 +TSRA SCT013 SCT015CB", "raw": "METAR VVTS 241200Z 21013KT 9999 SCT020 FEW023CB BKN044 29/26 Q1005 NOSIG", "fltcat": "VFR", "wind": "210° @ 13 kt", "vis": ">10 km", "clouds": "SCT020 FEW023 BKN044", "temp": 29, "dewp": 26, "qnh": "1005 hPa", "atis": [{"kind": "ARR", "time": "2026-07-24 11:32 UTC", "text": "VVTS ARR ATIS U 0630Z VVTS INFO U 0630Z. ILSW APCH IN RWY 25R.. LDG RWY 25R AND DEP RWY 25L.. 0630Z. WIND RWY 25L TDZ 280/11KT MAX19 MNM8 MID 280/12KT MAX17 MNM7 VRB BTN 260/ AND 320/ END 320/11KT MAX17 MNM6 VRB BTN 280/ AND 340/ RWY 25R TDZ 280/11KT MAX19 MNM8 VIS 10KM CLD FEW 4700FT T36 DP25 QNH 1006HPA TREND NOSIG. ADZ ON INITIAL CTC YOU HAVE INFO U."}, {"kind": "DEP", "time": "2026-07-23 04:13 UTC", "text": "VVTS DEP ATIS Y 2030Z VVTS INFO Y 2030Z. ILSW APCH IN RWY 25R.. LDG RWY 25R AND DEP RWY 25L.. 2030Z. WIND RWY 25R TDZ 240/8KT MAX15 MNM6 END 240/8KT VIS 10KM CLD FEW 1600FT T29 DP27 QNH 1007HPA TREND NOSIG. ADZ ON INITIAL CTC YOU HAVE INFO Y."}]}, {"icao": "VVTX", "name": "Tho Xuan — Thanh Hoa", "metar": "METAR VVTX 241200Z 13004KT 9999 FEW025 29/24 Q1003 NOSIG", "speci": null, "taf": "TAF VVTX 232300Z 2400/2409 25005KT 9999 FEW020 TEMPO 2406/2409 3500 TSRA SCT010 FEW027CB", "raw": "METAR VVTX 241200Z 13004KT 9999 FEW025 29/24 Q1003 NOSIG", "fltcat": "VFR", "wind": "130° @ 4 kt", "vis": ">10 km", "clouds": "FEW025", "temp": 29, "dewp": 24, "qnh": "1003 hPa"}, {"icao": "VVVD", "name": "Van Don — Quang Ninh", "metar": "METAR VVVD 241200Z VRB02KT CAVOK 28/27 Q1004 NOSIG", "speci": null, "taf": "TAF VVVD 241100Z 2412/2512 12005KT 9999 SCT015 BKN030 TEMPO 2416/2420 3000 TSRA BKN010 FEW027CB TEMPO 2422/2503 4000 TSRA SCT015 FEW027CB", "raw": "METAR VVVD 241200Z VRB02KT CAVOK 28/27 Q1004 NOSIG", "fltcat": "VFR", "wind": "VRB @ 2 kt", "vis": "CAVOK", "clouds": "NSC", "temp": 28, "dewp": 27, "qnh": "1004 hPa"}, {"icao": "VVVH", "name": "Vinh", "metar": "METAR VVVH 241200Z 21004KT 170V270 9999 FEW026 29/24 Q1003 NOSIG", "speci": null, "taf": "TAF VVVH 241100Z 2412/2512 21005KT 9999 FEW030 TEMPO 2415/2418 4000 TSRA SCT012 FEW027CB TEMPO 2508/2512 3500 TSRA SCT012 FEW027CB", "raw": "METAR VVVH 241200Z 21004KT 170V270 9999 FEW026 29/24 Q1003 NOSIG", "fltcat": "VFR", "wind": "210° @ 4 kt", "vis": ">10 km", "clouds": "FEW026", "temp": 29, "dewp": 24, "qnh": "1003 hPa"}]}