{"updated": "2026-07-14T14:00:49+00:00", "source": "VN MET", "stations": [{"icao": "VVBM", "name": "Buon Ma Thuot", "metar": "METAR VVBM 141330Z 23005KT 190V270 9999 SCT013 25/22 Q1012 NOSIG", "speci": null, "taf": "TAF VVBM 141100Z 1412/1512 23008KT 9999 SCT012 SCT040 TEMPO 1412/1415 5000 SHRA SCT010 FEW015CB BKN030 TEMPO 1503/1508 5000 SHRA SCT010 FEW015CB BKN030 TEMPO 1508/1512 26015G26KT 4000 TSRA SCT010 SCT013CB BKN030", "raw": "METAR VVBM 141330Z 23005KT 190V270 9999 SCT013 25/22 Q1012 NOSIG", "fltcat": "VFR", "wind": "230° @ 5 kt", "vis": ">10 km", "clouds": "SCT013", "temp": 25, "dewp": 22, "qnh": "1012 hPa"}, {"icao": "VVCA", "name": "Chu Lai", "metar": "METAR VVCA 141400Z AUTO 23003KT 9999 BKN110/// BKN140/// 31/23 Q1005", "speci": null, "taf": "TAF VVCA 132300Z 1400/1409 19006KT 9999 FEW020 BECMG 1404/1405 07010KT", "raw": "METAR VVCA 141400Z AUTO 23003KT 9999 BKN110/// BKN140/// 31/23 Q1005", "fltcat": "VFR", "wind": "230° @ 3 kt", "vis": ">10 km", "clouds": "BKN110 BKN140", "temp": 31, "dewp": 23, "qnh": "1005 hPa"}, {"icao": "VVCI", "name": "Cat Bi — Hai Phong", "metar": "METAR VVCI 141400Z 14005KT 9999 SCT023 SCT031 31/27 Q1002 NOSIG", "speci": null, "taf": "TAF VVCI 141100Z 1412/1512 12006KT 9999 FEW020 TEMPO 1413/1416 4000 SHRA SCT015 FEW027CB TEMPO 1420/1424 4000 SHRA SCT015 FEW027CB", "raw": "METAR VVCI 141400Z 14005KT 9999 SCT023 SCT031 31/27 Q1002 NOSIG", "fltcat": "VFR", "wind": "140° @ 5 kt", "vis": ">10 km", "clouds": "SCT023 SCT031", "temp": 31, "dewp": 27, "qnh": "1002 hPa"}, {"icao": "VVCR", "name": "Cam Ranh — Nha Trang", "metar": "METAR VVCR 141330Z 20011KT CAVOK 30/25 Q1009 NOSIG", "speci": null, "taf": "TAF VVCR 141100Z 1412/1512 20009KT 9999 FEW020 TEMPO 1509/1512 TS SCT013 FEW015CB SCT050", "raw": "METAR VVCR 141330Z 20011KT CAVOK 30/25 Q1009 NOSIG", "fltcat": "VFR", "wind": "200° @ 11 kt", "vis": "CAVOK", "clouds": "NSC", "temp": 30, "dewp": 25, "qnh": "1009 hPa", "atis": [{"kind": "ARR", "time": "2026-07-13 09:29 UTC", "text": "VVCR ARR ATIS W 1330Z VVCR INFO W 1330Z. ILS YANKEE APPROACH IN USE. LDG RWY 20L AND DPTG RWY 20R.. 1330Z. WIND RWY 20L TDZ 330/3KT VRB BTN 260/ AND 360/ MID 310/3KT VRB BTN 280/ AND 340/ END 320/3KT RWY 20R TDZ 320/1KT CAVOK T29 DP25 QNH 1010HPA TREND NOSIG. ADZ ON INITIAL CTC YOU HAVE INFO W."}, {"kind": "DEP", "time": "2026-05-29 05:57 UTC", "text": "VVCR DEP ATIS S 0533Z VVCR INFO S 0533Z. ILS Z APCH IN USE.. LDG RWY 02R AND DPTG RWY 02L.. 0532Z. WIND RWY 02R TDZ 080/9KT MID 090/8KT END 100/8KT RWY 02L TDZ 080/8KT CAVOK T31 DP26 QNH 1009HPA TREND TEMPO FM0630 VIS 4000M MOD TSRA. ADZ ON INITIAL CTC YOU HAVE INFO S."}]}, {"icao": "VVCT", "name": "Can Tho Intl", "metar": "METAR VVCT 141400Z VRB01KT 9999 FEW015 BKN050 26/26 Q1010 NOSIG", "speci": null, "taf": "TAF VVCT 141100Z 1412/1512 24008KT 9999 SCT015 SCT040 TEMPO 1422/1502 5000 SHRA SCT015 FEW017CB BKN040 TEMPO 1504/1509 24015G26KT 3000 TSRA SCT013 FEW015CB BKN040", "raw": "METAR VVCT 141400Z VRB01KT 9999 FEW015 BKN050 26/26 Q1010 NOSIG", "fltcat": "VFR", "wind": "VRB @ 1 kt", "vis": ">10 km", "clouds": "FEW015 BKN050", "temp": 26, "dewp": 26, "qnh": "1010 hPa"}, {"icao": "VVDB", "name": "Dien Bien Phu", "metar": "METAR VVDB 141400Z AUTO VRB02KT 9999 // NCD 27/24 Q1005 RE// NOSIG", "speci": null, "taf": "TAF VVDB 132300Z 1400/1409 VRB02KT 9999 SCT030 TEMPO 1407/1409 4500 TSRA SCT010 FEW027CB", "raw": "METAR VVDB 141400Z AUTO VRB02KT 9999 // NCD 27/24 Q1005 RE// NOSIG", "fltcat": "VFR", "wind": "VRB @ 2 kt", "vis": ">10 km", "clouds": "—", "temp": 27, "dewp": 24, "qnh": "1005 hPa"}, {"icao": "VVDH", "name": "Dong Hoi", "metar": "METAR VVDH 141400Z 20003KT 150V230 CAVOK 30/24 Q1004 NOSIG", "speci": null, "taf": "TAF VVDH 132300Z 1400/1409 21005KT 9999 FEW030", "raw": "METAR VVDH 141400Z 20003KT 150V230 CAVOK 30/24 Q1004 NOSIG", "fltcat": "VFR", "wind": "200° @ 3 kt", "vis": "CAVOK", "clouds": "NSC", "temp": 30, "dewp": 24, "qnh": "1004 hPa"}, {"icao": "VVDN", "name": "Da Nang Intl", "metar": "METAR VVDN 141330Z 18002KT 9999 FEW020 31/26 Q1006 NOSIG", "speci": null, "taf": "TAF VVDN 141100Z 1412/1512 22008KT 9999 FEW020 SCT060 TEMPO 1412/1414 TS SCT013 FEW015CB SCT060 BECMG 1504/1505 02010KT TEMPO 1508/1512 TS SCT013 FEW015CB SCT060", "raw": "METAR VVDN 141330Z 18002KT 9999 FEW020 31/26 Q1006 NOSIG", "fltcat": "VFR", "wind": "180° @ 2 kt", "vis": ">10 km", "clouds": "FEW020", "temp": 31, "dewp": 26, "qnh": "1006 hPa", "atis": [{"kind": "ARR", "time": "2026-07-14 03:48 UTC", "text": "VVDN ARR ATIS T 1932Z VVDN INFO T 1932Z. ILS VICTOR APPROACH 35L.. DPTG RWY 35R.. 1932Z. WIND 220/05KT CAVOK T27 DP25 QNH 1008HPA TREND NOSIG. ADZ ON INITIAL CTC YOU HAVE INFO. T."}, {"kind": "DEP", "time": "2026-07-12 02:50 UTC", "text": "VVDN DEP ATIS N 0423Z VVDN INFO N 0423Z. ILS VICTOR APPROACH 35L.. DPTG RWY 35R.. 0423Z. WIND 010/02KT CAVOK T36 DP24 QNH 1008HPA TREND NOSIG. WS ALL RWY. ADZ ON INITIAL CTC YOU HAVE INFO. N."}]}, {"icao": "VVNB", "name": "Noi Bai — Ha Noi", "metar": "METAR VVNB 141400Z 14009KT 120V180 CAVOK 32/28 Q1001 NOSIG", "speci": null, "taf": "TAF VVNB 141100Z 1412/1512 12006KT 9999 FEW025 PROB40 TEMPO 1415/1418 4000 TSRA SCT012 FEW027CB TEMPO 1509/1512 4000 TSRA SCT012 FEW027CB", "raw": "METAR VVNB 141400Z 14009KT 120V180 CAVOK 32/28 Q1001 NOSIG", "fltcat": "VFR", "wind": "140° @ 9 kt", "vis": "CAVOK", "clouds": "NSC", "temp": 32, "dewp": 28, "qnh": "1001 hPa", "atis": [{"kind": "ARR", "time": "2026-07-14 13:46 UTC", "text": "VVNB ARR ATIS N 2330Z VVNB INFO N 2330Z. ILS X RWY 11L. DPTG RWY 11R AND ARR RWY 11L .. 2330Z. WIND 090/3KT VIS 6KM FBL RA CLD NSC T27 DP26 QNH 1005HPA TREND TEMPO VIS 4000M FBL RA BR. ADZ ON INITIAL CTC YOU HAVE INFO N."}, {"kind": "DEP", "time": "2026-07-14 04:00 UTC", "text": "VVNB DEP ATIS E 1930Z VVNB INFO E 1930Z. ILS X RWY 11L. DPTG RWY 11R AND ARR RWY 11L .. 1930Z. WIND 100/3KT VIS 10KM CLD NSC T27 DP26 QNH 1005HPA TREND NOSIG. RWY CONDITION REPORT 5 5 5.. ADZ ON INITIAL CTC YOU HAVE INFO E."}]}, {"icao": "VVPB", "name": "Phu Bai — Hue", "metar": "METAR VVPB 141400Z 14003KT 9999 FEW020 30/21 Q1005 NOSIG", "speci": null, "taf": "TAF VVPB 141100Z 1412/1512 24006KT 9999 FEW020 SCT050 BECMG 1504/1505 08010KT TEMPO 1509/1512 TS SCT013 FEW015CB SCT050", "raw": "METAR VVPB 141400Z 14003KT 9999 FEW020 30/21 Q1005 NOSIG", "fltcat": "VFR", "wind": "140° @ 3 kt", "vis": ">10 km", "clouds": "FEW020", "temp": 30, "dewp": 21, "qnh": "1005 hPa"}, {"icao": "VVPC", "name": "Phu Cat — Quy Nhon", "metar": "METAR VVPC 141400Z 22003KT 170V260 9999 FEW030 SCT070 27/25 Q1008 NOSIG", "speci": null, "taf": "TAF VVPC 141100Z 1412/1512 22007KT 9999 SCT015 SCT050 TEMPO 1412/1414 4000 RA TEMPO 1509/1512 TS SCT013 FEW015CB SCT050", "raw": "METAR VVPC 141400Z 22003KT 170V260 9999 FEW030 SCT070 27/25 Q1008 NOSIG", "fltcat": "VFR", "wind": "220° @ 3 kt", "vis": ">10 km", "clouds": "FEW030 SCT070", "temp": 27, "dewp": 25, "qnh": "1008 hPa"}, {"icao": "VVPK", "name": "Pleiku", "metar": "METAR VVPK 141400Z 29006KT 9999 -RA SCT010 BKN020 FEW023CB 21/20 Q1014 NOSIG", "speci": null, "taf": "TAF VVPK 141100Z 1412/1512 25008KT 8000 SCT010 BKN015 TEMPO 1412/1414 24015G25KT 4000 TSRA BKN008 FEW015CB BKN060 TEMPO 1422/1424 1100 RA BR BKN002 BKN005 TEMPO 1500/1502 3500 RA BR BKN004 BKN007 TEMPO 1503/1507 25015G25KT TEMPO 1507/1512 25015G25KT 4000 SHRA BKN008 FEW015CB BKN050", "raw": "METAR VVPK 141400Z 29006KT 9999 -RA SCT010 BKN020 FEW023CB 21/20 Q1014 NOSIG", "fltcat": "MVFR", "wind": "290° @ 6 kt", "vis": ">10 km", "clouds": "SCT010 BKN020 FEW023", "temp": 21, "dewp": 20, "qnh": "1014 hPa"}, {"icao": "VVPQ", "name": "Phu Quoc Intl", "metar": "METAR VVPQ 141400Z VRB01KT 9999 SCT015 SCT040 26/26 Q1010 NOSIG", "speci": null, "taf": "TAF VVPQ 141100Z 1412/1512 25008KT 9999 SCT015 SCT040 TEMPO 1412/1416 5000 TSRA SCT015 FEW017CB BKN040 TEMPO 1422/1504 25016G28KT 3000 TSRA SCT015 SCT017CB BKN040", "raw": "METAR VVPQ 141400Z VRB01KT 9999 SCT015 SCT040 26/26 Q1010 NOSIG", "fltcat": "VFR", "wind": "VRB @ 1 kt", "vis": ">10 km", "clouds": "SCT015 SCT040", "temp": 26, "dewp": 26, "qnh": "1010 hPa"}, {"icao": "VVTH", "name": "Dong Tac — Tuy Hoa", "metar": "METAR VVTH 141330Z VRB01KT CAVOK 28/25 Q1008 NOSIG", "speci": null, "taf": "TAF VVTH 132300Z 1400/1409 23012KT 9999 FEW017 SCT060", "raw": "METAR VVTH 141330Z VRB01KT CAVOK 28/25 Q1008 NOSIG", "fltcat": "VFR", "wind": "VRB @ 1 kt", "vis": "CAVOK", "clouds": "NSC", "temp": 28, "dewp": 25, "qnh": "1008 hPa"}, {"icao": "VVTS", "name": "Tan Son Nhat — Ho Chi Minh City", "metar": "METAR VVTS 141400Z 24009KT CAVOK 29/25 Q1010 NOSIG", "speci": null, "taf": "TAF VVTS 141100Z 1412/1518 26010KT 9999 SCT017 TEMPO 1506/1509 26015G26KT 2000 +TSRA SCT013 SCT015CB", "raw": "METAR VVTS 141400Z 24009KT CAVOK 29/25 Q1010 NOSIG", "fltcat": "VFR", "wind": "240° @ 9 kt", "vis": "CAVOK", "clouds": "NSC", "temp": 29, "dewp": 25, "qnh": "1010 hPa", "atis": [{"kind": "ARR", "time": "2026-07-14 09:44 UTC", "text": "VVTS ARR ATIS K 2200Z VVTS INFO K 2200Z. ILSW APCH IN RWY 25R.. LDG RWY 25R AND DEP RWY 25L.. 2200Z. WIND RWY 25R TDZ VRB BTN 250/ AND 310/2KT CAVOK T27 DP26 QNH 1009HPA TREND NOSIG. ADZ ON INITIAL CTC YOU HAVE INFO K."}, {"kind": "DEP", "time": "2026-07-14 04:23 UTC", "text": "VVTS DEP ATIS F 1930Z VVTS INFO F 1930Z. ILSW APCH IN RWY 25R.. LDG RWY 25R AND DEP RWY 25L.. 1930Z. WIND RWY 25R TDZ 240/5KT VRB BTN 200/ AND 290/ CAVOK T28 DP26 QNH 1009HPA TREND NOSIG. ADZ ON INITIAL CTC YOU HAVE INFO F."}]}, {"icao": "VVTX", "name": "Tho Xuan — Thanh Hoa", "metar": "METAR VVTX 141400Z 30003KT 9999 FEW025 BKN045 26/24 Q1002 NOSIG", "speci": null, "taf": "TAF VVTX 132300Z 1400/1409 24006KT 9999 FEW025 TEMPO 1407/1409 4000 TSRA SCT010 FEW027CB", "raw": "METAR VVTX 141400Z 30003KT 9999 FEW025 BKN045 26/24 Q1002 NOSIG", "fltcat": "VFR", "wind": "300° @ 3 kt", "vis": ">10 km", "clouds": "FEW025 BKN045", "temp": 26, "dewp": 24, "qnh": "1002 hPa"}, {"icao": "VVVD", "name": "Van Don — Quang Ninh", "metar": "METAR VVVD 141400Z AUTO 20004KT 9999 FEW033/// 30/28 Q1003", "speci": null, "taf": "TAF VVVD 141100Z 1412/1512 14005KT 9999 FEW025 TEMPO 1419/1424 4000 SHRA SCT015 FEW027CB", "raw": "METAR VVVD 141400Z AUTO 20004KT 9999 FEW033/// 30/28 Q1003", "fltcat": "VFR", "wind": "200° @ 4 kt", "vis": ">10 km", "clouds": "FEW033", "temp": 30, "dewp": 28, "qnh": "1003 hPa"}, {"icao": "VVVH", "name": "Vinh", "metar": "METAR VVVH 141400Z 24005KT 190V300 CAVOK 31/22 Q1003 NOSIG", "speci": null, "taf": "TAF VVVH 141100Z 1412/1512 26007KT 9999 FEW020 TEMPO 1509/1512 4000 TSRA SCT015 FEW027CB", "raw": "METAR VVVH 141400Z 24005KT 190V300 CAVOK 31/22 Q1003 NOSIG", "fltcat": "VFR", "wind": "240° @ 5 kt", "vis": "CAVOK", "clouds": "NSC", "temp": 31, "dewp": 22, "qnh": "1003 hPa"}]}