{"updated": "2026-07-21T23:31:34+00:00", "source": "VN MET", "stations": [{"icao": "VVBM", "name": "Buon Ma Thuot", "metar": "METAR VVBM 212330Z VRB02KT 9999 SCT013 24/22 Q1013 NOSIG", "speci": null, "taf": "TAF VVBM 202300Z 2100/2124 VRB03KT 9999 SCT013 BECMG 2102/2103 27010KT", "raw": "METAR VVBM 212330Z VRB02KT 9999 SCT013 24/22 Q1013 NOSIG", "fltcat": "VFR", "wind": "VRB @ 2 kt", "vis": ">10 km", "clouds": "SCT013", "temp": 24, "dewp": 22, "qnh": "1013 hPa"}, {"icao": "VVCA", "name": "Chu Lai", "metar": "METAR VVCA 212330Z VRB01KT CAVOK 29/23 Q1007 NOSIG", "speci": null, "taf": "TAF VVCA 212000Z 2121/2206 16007KT 9999 FEW017", "raw": "METAR VVCA 212330Z VRB01KT CAVOK 29/23 Q1007 NOSIG", "fltcat": "VFR", "wind": "VRB @ 1 kt", "vis": "CAVOK", "clouds": "NSC", "temp": 29, "dewp": 23, "qnh": "1007 hPa"}, {"icao": "VVCI", "name": "Cat Bi — Hai Phong", "metar": "METAR VVCI 212330Z 13003KT 100V160 9999 FEW019 29/27 Q1005 NOSIG", "speci": null, "taf": "TAF VVCI 202300Z 2100/2124 07005KT 8000 FEW030 TEMPO 2100/2102 4000 SHRA SCT010 FEW025TCU TEMPO 2103/2106 4000 TSRA SCT012 FEW027CB", "raw": "METAR VVCI 212330Z 13003KT 100V160 9999 FEW019 29/27 Q1005 NOSIG", "fltcat": "VFR", "wind": "130° @ 3 kt", "vis": ">10 km", "clouds": "FEW019", "temp": 29, "dewp": 27, "qnh": "1005 hPa"}, {"icao": "VVCR", "name": "Cam Ranh — Nha Trang", "metar": "METAR VVCR 212330Z 34004KT CAVOK 28/22 Q1009 NOSIG", "speci": null, "taf": "TAF VVCR 202300Z 2100/2124 31006KT 9999 FEW020 BECMG 2102/2103 12010KT BECMG 2111/2112 31006KT", "raw": "METAR VVCR 212330Z 34004KT CAVOK 28/22 Q1009 NOSIG", "fltcat": "VFR", "wind": "340° @ 4 kt", "vis": "CAVOK", "clouds": "NSC", "temp": 28, "dewp": 22, "qnh": "1009 hPa", "atis": [{"kind": "ARR", "time": "2026-07-17 14:03 UTC", "text": "VVCR ARR ATIS F 1401Z VVCR INFO F 1401Z. ILS Z APCH IN USE.. LDG RWY 02R AND DPTG RWY 02L.. 1400Z. WIND RWY 02R TDZ 040/3KT MID 340/3KT END 010/6KT RWY 02L TDZ 020/3KT VIS RWY 02R TDZ 10KM END"}, {"kind": "DEP", "time": "2026-05-29 05:57 UTC", "text": "VVCR DEP ATIS S 0533Z VVCR INFO S 0533Z. ILS Z APCH IN USE.. LDG RWY 02R AND DPTG RWY 02L.. 0532Z. WIND RWY 02R TDZ 080/9KT MID 090/8KT END 100/8KT RWY 02L TDZ 080/8KT CAVOK T31 DP26 QNH 1009HPA TREND TEMPO FM0630 VIS 4000M MOD TSRA. ADZ ON INITIAL CTC YOU HAVE INFO S."}]}, {"icao": "VVCS", "name": "Con Dao", "metar": "METAR VVCS 212330Z VRB02KT 9999 FEW017 27/24 Q1010 NOSIG", "speci": null, "taf": "TAF VVCS 212000Z 2121/2206 24010KT 9999 SCT017", "raw": "METAR VVCS 212330Z VRB02KT 9999 FEW017 27/24 Q1010 NOSIG", "fltcat": "VFR", "wind": "VRB @ 2 kt", "vis": ">10 km", "clouds": "FEW017", "temp": 27, "dewp": 24, "qnh": "1010 hPa"}, {"icao": "VVCT", "name": "Can Tho Intl", "metar": "METAR VVCT 212300Z 20003KT CAVOK 26/25 Q1010 NOSIG", "speci": null, "taf": "TAF VVCT 202300Z 2100/2124 22008KT 9999 SCT015", "raw": "METAR VVCT 212300Z 20003KT CAVOK 26/25 Q1010 NOSIG", "fltcat": "VFR", "wind": "200° @ 3 kt", "vis": "CAVOK", "clouds": "NSC", "temp": 26, "dewp": 25, "qnh": "1010 hPa"}, {"icao": "VVDB", "name": "Dien Bien Phu", "metar": "METAR VVDB 212330Z 00000KT 9999 BKN026 OVC057 24/23 Q1009 NOSIG", "speci": null, "taf": "TAF VVDB 212000Z 2121/2206 19005KT 6000 SCT025", "raw": "METAR VVDB 212330Z 00000KT 9999 BKN026 OVC057 24/23 Q1009 NOSIG", "fltcat": "MVFR", "wind": "000° @ 0 kt", "vis": ">10 km", "clouds": "BKN026 OVC057", "temp": 24, "dewp": 23, "qnh": "1009 hPa"}, {"icao": "VVDH", "name": "Dong Hoi", "metar": "METAR VVDH 212330Z 26007KT 220V300 9999 FEW048 31/22 Q1007 NOSIG", "speci": null, "taf": "TAF VVDH 212000Z 2121/2206 24006KT 9999 FEW030 TEMPO 2204/2206 25015G25KT", "raw": "METAR VVDH 212330Z 26007KT 220V300 9999 FEW048 31/22 Q1007 NOSIG", "fltcat": "VFR", "wind": "260° @ 7 kt", "vis": ">10 km", "clouds": "FEW048", "temp": 31, "dewp": 22, "qnh": "1007 hPa"}, {"icao": "VVDN", "name": "Da Nang Intl", "metar": "METAR VVDN 212300Z 22001KT 9999 FEW020 BKN080 29/22 Q1007 NOSIG", "speci": null, "taf": "TAF VVDN 202300Z 2100/2124 21010KT 9999 FEW020 BECMG 2105/2106 10010KT BECMG 2112/2113 22006KT", "raw": "METAR VVDN 212300Z 22001KT 9999 FEW020 BKN080 29/22 Q1007 NOSIG", "fltcat": "VFR", "wind": "220° @ 1 kt", "vis": ">10 km", "clouds": "FEW020 BKN080", "temp": 29, "dewp": 22, "qnh": "1007 hPa", "atis": [{"kind": "ARR", "time": "2026-07-21 21:28 UTC", "text": "VVDN ARR ATIS X 1000Z VVDN INFO X 1000Z. ILS VICTOR APPROACH 35L.. DPTG RWY 35R.. 1000Z. WIND 140/08KT CAVOK T34 DP25 QNH 1002HPA TREND NOSIG. ADZ ON INITIAL CTC YOU HAVE INFO. X."}, {"kind": "DEP", "time": "2026-07-21 03:51 UTC", "text": "VVDN DEP ATIS M 0432Z VVDN INFO M 0432Z. ILS VICTOR APPROACH 35L.. DPTG RWY 35R.. 0432Z. WIND 220/04KT CAVOK T37 DP22 QNH 1004HPA TREND NOSIG. ADZ ON INITIAL CTC YOU HAVE INFO. M."}]}, {"icao": "VVNB", "name": "Noi Bai — Ha Noi", "metar": "METAR VVNB 212330Z 06004KT 4300 BR NSC 28/26 Q1005 BECMG TL0030 6000 NSW", "speci": null, "taf": "TAF VVNB 202300Z 2100/2124 05005KT 6000 FEW030 PROB40 TEMPO 2103/2106 4000 TSRA SCT015 FEW027CB", "raw": "METAR VVNB 212330Z 06004KT 4300 BR NSC 28/26 Q1005 BECMG TL0030 6000 NSW", "fltcat": "IFR", "wind": "060° @ 4 kt", "vis": "4.3 km", "clouds": "NSC", "temp": 28, "dewp": 26, "qnh": "1005 hPa", "atis": [{"kind": "ARR", "time": "2026-07-21 21:07 UTC", "text": "VVNB ARR ATIS F 1000Z VVNB INFO F 1000Z. ILS X RWY 11L. DPTG RWY 11R AND ARR RWY 11L .. 1000Z. WIND 250/7KT CAVOK T38 DP24 QNH 0997HPA TREND NOSIG. ADZ ON INITIAL CTC YOU HAVE INFO F."}, {"kind": "DEP", "time": "2026-07-21 21:58 UTC", "text": "VVNB DEP ATIS F 1000Z VVNB INFO F 1000Z. ILS X RWY 11L. DPTG RWY 11R AND ARR RWY 11L .. 1000Z. WIND 250/7KT CAVOK T38 DP24 QNH 0997HPA TREND NOSIG. ADZ ON INITIAL CTC YOU HAVE INFO F."}]}, {"icao": "VVNS", "name": "Na San — Son La", "metar": "METAR VVNS 212300Z /////KT 6000 NSC 23/21 Q1006 NOSIG", "speci": null, "taf": null, "raw": "METAR VVNS 212300Z /////KT 6000 NSC 23/21 Q1006 NOSIG", "fltcat": "MVFR", "wind": "—", "vis": "6.0 km", "clouds": "NSC", "temp": 23, "dewp": 21, "qnh": "1006 hPa"}, {"icao": "VVPB", "name": "Phu Bai — Hue", "metar": "METAR VVPB 212330Z 22003KT 9999 FEW020 SCT070 29/20 Q1007 NOSIG", "speci": null, "taf": "TAF VVPB 202300Z 2100/2124 24010KT 9999 FEW020 BECMG 2107/2108 09010KT BECMG 2113/2114 23007KT", "raw": "METAR VVPB 212330Z 22003KT 9999 FEW020 SCT070 29/20 Q1007 NOSIG", "fltcat": "VFR", "wind": "220° @ 3 kt", "vis": ">10 km", "clouds": "FEW020 SCT070", "temp": 29, "dewp": 20, "qnh": "1007 hPa"}, {"icao": "VVPC", "name": "Phu Cat — Quy Nhon", "metar": "METAR VVPC 212300Z 25003KT CAVOK 30/21 Q1008 NOSIG", "speci": null, "taf": "TAF VVPC 202300Z 2100/2124 26012KT 9999 FEW020 TEMPO 2102/2108 26015G25KT", "raw": "METAR VVPC 212300Z 25003KT CAVOK 30/21 Q1008 NOSIG", "fltcat": "VFR", "wind": "250° @ 3 kt", "vis": "CAVOK", "clouds": "NSC", "temp": 30, "dewp": 21, "qnh": "1008 hPa"}, {"icao": "VVPK", "name": "Pleiku", "metar": "METAR VVPK 212330Z 23003KT 9999 FEW015 22/20 Q1014 NOSIG", "speci": null, "taf": "TAF VVPK 202300Z 2100/2124 24010KT 8000 SCT004 BKN008 TEMPO 2100/2101 4000 RA BR BECMG 2102/2103 SCT015 BECMG 2121/2122 4000 BR SCT004 BKN007", "raw": "METAR VVPK 212330Z 23003KT 9999 FEW015 22/20 Q1014 NOSIG", "fltcat": "VFR", "wind": "230° @ 3 kt", "vis": ">10 km", "clouds": "FEW015", "temp": 22, "dewp": 20, "qnh": "1014 hPa"}, {"icao": "VVPQ", "name": "Phu Quoc Intl", "metar": "METAR VVPQ 212330Z 26006KT 9999 SCT015 29/28 Q1010 NOSIG", "speci": null, "taf": "TAF VVPQ 202300Z 2100/2124 27012KT 9999 SCT015", "raw": "METAR VVPQ 212330Z 26006KT 9999 SCT015 29/28 Q1010 NOSIG", "fltcat": "VFR", "wind": "260° @ 6 kt", "vis": ">10 km", "clouds": "SCT015", "temp": 29, "dewp": 28, "qnh": "1010 hPa"}, {"icao": "VVRG", "name": "Rach Gia", "metar": "METAR VVRG 212300Z 24004KT 9999 FEW017 27/24 Q1010 NOSIG", "speci": null, "taf": "TAF VVRG 212000Z 2121/2206 26010KT 9999 SCT017", "raw": "METAR VVRG 212300Z 24004KT 9999 FEW017 27/24 Q1010 NOSIG", "fltcat": "VFR", "wind": "240° @ 4 kt", "vis": ">10 km", "clouds": "FEW017", "temp": 27, "dewp": 24, "qnh": "1010 hPa"}, {"icao": "VVTH", "name": "Dong Tac — Tuy Hoa", "metar": "METAR VVTH 212300Z 24007KT 210V300 CAVOK 29/22 Q1008 NOSIG", "speci": null, "taf": "TAF VVTH 212000Z 2121/2206 22007KT 9999 FEW017", "raw": "METAR VVTH 212300Z 24007KT 210V300 CAVOK 29/22 Q1008 NOSIG", "fltcat": "VFR", "wind": "240° @ 7 kt", "vis": "CAVOK", "clouds": "NSC", "temp": 29, "dewp": 22, "qnh": "1008 hPa"}, {"icao": "VVTS", "name": "Tan Son Nhat — Ho Chi Minh City", "metar": "METAR VVTS 212330Z 24008KT 9999 FEW011 27/26 Q1010 NOSIG", "speci": null, "taf": "TAF VVTS 202300Z 2100/2206 26010KT 9999 SCT017", "raw": "METAR VVTS 212330Z 24008KT 9999 FEW011 27/26 Q1010 NOSIG", "fltcat": "VFR", "wind": "240° @ 8 kt", "vis": ">10 km", "clouds": "FEW011", "temp": 27, "dewp": 26, "qnh": "1010 hPa", "atis": [{"kind": "ARR", "time": "2026-07-21 22:45 UTC", "text": "VVTS ARR ATIS D 1030Z VVTS INFO D 1030Z. ILSW APCH IN RWY 25R.. LDG RWY 25R AND DEP RWY 25L.. 1030Z. WIND RWY 25R TDZ 290/6KT MAX12 MNM5 CAVOK T34 DP25 QNH 1005HPA TREND NOSIG. ADZ ON INITIAL CTC YOU HAVE INFO D."}, {"kind": "DEP", "time": "2026-07-21 04:51 UTC", "text": "VVTS DEP ATIS S 0500Z VVTS INFO S 0500Z. ILSW APCH IN RWY 25R.. LDG RWY 25R AND DEP RWY 25L.. 0500Z. WIND RWY 25R TDZ 290/8KT MAX15 MNM5 VIS 10KM CLD SCT 4100FT T34 DP25 QNH 1007HPA TREND NOSIG. ADZ ON INITIAL CTC YOU HAVE INFO S."}]}, {"icao": "VVTX", "name": "Tho Xuan — Thanh Hoa", "metar": "METAR VVTX 212330Z 21002KT 9999 SCT028 27/24 Q1005 NOSIG", "speci": null, "taf": "TAF VVTX 212000Z 2121/2206 22005KT 9999 FEW030", "raw": "METAR VVTX 212330Z 21002KT 9999 SCT028 27/24 Q1005 NOSIG", "fltcat": "VFR", "wind": "210° @ 2 kt", "vis": ">10 km", "clouds": "SCT028", "temp": 27, "dewp": 24, "qnh": "1005 hPa"}, {"icao": "VVVD", "name": "Van Don — Quang Ninh", "metar": "METAR VVVD 212300Z 14002KT 9999 FEW015 27/27 Q1005 NOSIG", "speci": null, "taf": "TAF VVVD 202300Z 2100/2124 09005KT 6000 SCT015 BKN030 TEMPO 2100/2106 3000 TSRA SCT010 FEW027CB BKN030", "raw": "METAR VVVD 212300Z 14002KT 9999 FEW015 27/27 Q1005 NOSIG", "fltcat": "VFR", "wind": "140° @ 2 kt", "vis": ">10 km", "clouds": "FEW015", "temp": 27, "dewp": 27, "qnh": "1005 hPa"}, {"icao": "VVVH", "name": "Vinh", "metar": "METAR VVVH 212330Z 24004KT 130V300 CAVOK 29/21 Q1006 NOSIG", "speci": null, "taf": null, "raw": "METAR VVVH 212330Z 24004KT 130V300 CAVOK 29/21 Q1006 NOSIG", "fltcat": "VFR", "wind": "240° @ 4 kt", "vis": "CAVOK", "clouds": "NSC", "temp": 29, "dewp": 21, "qnh": "1006 hPa"}]}