{"updated": "2026-07-11T22:01:20+00:00", "source": "VN MET", "stations": [{"icao": "VVBM", "name": "Buon Ma Thuot", "metar": "METAR VVBM 112200Z 23003KT 200V260 9999 SCT012 SCT040 23/22 Q1006 NOSIG", "speci": null, "taf": "TAF VVBM 102300Z 1100/1124 25008KT 9999 SCT013 TEMPO 1108/1112 5000 TSRA BKN010 FEW013CB BKN040", "raw": "METAR VVBM 112200Z 23003KT 200V260 9999 SCT012 SCT040 23/22 Q1006 NOSIG", "fltcat": "VFR", "wind": "230° @ 3 kt", "vis": ">10 km", "clouds": "SCT012 SCT040", "temp": 23, "dewp": 22, "qnh": "1006 hPa"}, {"icao": "VVCA", "name": "Chu Lai", "metar": "METAR VVCA 112130Z AUTO VRB01KT 9999 FEW170/// 26/26 Q0998", "speci": null, "taf": "TAF VVCA 112000Z 1121/1206 17006KT 9999 FEW020 BECMG 1204/1205 06010KT", "raw": "METAR VVCA 112130Z AUTO VRB01KT 9999 FEW170/// 26/26 Q0998", "fltcat": "VFR", "wind": "VRB @ 1 kt", "vis": ">10 km", "clouds": "FEW170", "temp": 26, "dewp": 26, "qnh": "998 hPa"}, {"icao": "VVCI", "name": "Cat Bi — Hai Phong", "metar": "METAR VVCI 112200Z 04003KT 9000 NSC 28/27 Q0998 NOSIG", "speci": null, "taf": "TAF VVCI 102300Z 1100/1124 16005KT 9000 FEW025 TEMPO 1100/1104 4000 SHRA SCT012 FEW025TCU TEMPO 1108/1112 2500 +TSRA BKN010 FEW027CB", "raw": "METAR VVCI 112200Z 04003KT 9000 NSC 28/27 Q0998 NOSIG", "fltcat": "VFR", "wind": "040° @ 3 kt", "vis": "9.0 km", "clouds": "NSC", "temp": 28, "dewp": 27, "qnh": "998 hPa"}, {"icao": "VVCR", "name": "Cam Ranh — Nha Trang", "metar": "METAR VVCR 112130Z 20012KT 9999 FEW017 28/23 Q1003 NOSIG", "speci": null, "taf": "TAF VVCR 102300Z 1100/1124 22012KT 9999 FEW020", "raw": "METAR VVCR 112130Z 20012KT 9999 FEW017 28/23 Q1003 NOSIG", "fltcat": "VFR", "wind": "200° @ 12 kt", "vis": ">10 km", "clouds": "FEW017", "temp": 28, "dewp": 23, "qnh": "1003 hPa", "atis": [{"kind": "ARR", "time": "2026-07-10 21:26 UTC", "text": "VVCR ARR ATIS J 1800Z VVCR INFO J 1800Z. ILS YANKEE APPROACH IN USE. LDG RWY 20L AND DPTG RWY 20R.. 1800Z. WIND RWY 20L TDZ 230/3KT MID 230/4KT END 260/4KT RWY 20R TDZ 210/3KT CAVOK T29 DP25 QNH 1011HPA TREND NOSIG. ADZ ON INITIAL CTC YOU HAVE INFO J."}, {"kind": "DEP", "time": "2026-05-29 05:57 UTC", "text": "VVCR DEP ATIS S 0533Z VVCR INFO S 0533Z. ILS Z APCH IN USE.. LDG RWY 02R AND DPTG RWY 02L.. 0532Z. WIND RWY 02R TDZ 080/9KT MID 090/8KT END 100/8KT RWY 02L TDZ 080/8KT CAVOK T31 DP26 QNH 1009HPA TREND TEMPO FM0630 VIS 4000M MOD TSRA. ADZ ON INITIAL CTC YOU HAVE INFO S."}]}, {"icao": "VVCS", "name": "Con Dao", "metar": "METAR VVCS 112200Z VRB07KT 9999 FEW017 29/24 Q1006 NOSIG", "speci": null, "taf": null, "raw": "METAR VVCS 112200Z VRB07KT 9999 FEW017 29/24 Q1006 NOSIG", "fltcat": "VFR", "wind": "VRB @ 7 kt", "vis": ">10 km", "clouds": "FEW017", "temp": 29, "dewp": 24, "qnh": "1006 hPa"}, {"icao": "VVCT", "name": "Can Tho Intl", "metar": "METAR VVCT 112200Z 22004KT 9999 FEW015 26/25 Q1006 NOSIG", "speci": null, "taf": "TAF VVCT 102300Z 1100/1124 21008KT 9999 SCT015 TEMPO 1107/1112 5000 TSRA BKN013 FEW015CB", "raw": "METAR VVCT 112200Z 22004KT 9999 FEW015 26/25 Q1006 NOSIG", "fltcat": "VFR", "wind": "220° @ 4 kt", "vis": ">10 km", "clouds": "FEW015", "temp": 26, "dewp": 25, "qnh": "1006 hPa"}, {"icao": "VVDB", "name": "Dien Bien Phu", "metar": "METAR VVDB 112100Z AUTO 05002KT 9999 // FEW004/// BKN021/// OVC026/// 25/25 Q1001 RE//", "speci": "SPECI VVDB 112149Z AUTO VRB02KT 4400 // FEW002/// SCT023/// OVC027/// 25/25 Q1001 RE//", "taf": "TAF VVDB 112000Z 1121/1206 VRB02KT 8000 SCT015 TEMPO 1122/1202 4000 SHRA SCT010 FEW027TCU", "raw": "SPECI VVDB 112149Z AUTO VRB02KT 4400 // FEW002/// SCT023/// OVC027/// 25/25 Q1001 RE//", "fltcat": "IFR", "wind": "VRB @ 2 kt", "vis": "4.4 km", "clouds": "FEW002 SCT023 OVC027", "temp": 25, "dewp": 25, "qnh": "1001 hPa"}, {"icao": "VVDH", "name": "Dong Hoi", "metar": "METAR VVDH 112200Z 25006KT 170V280 CAVOK 29/23 Q0998 NOSIG", "speci": null, "taf": "TAF VVDH 112000Z 1121/1206 24005KT 9999 FEW020 TEMPO 1202/1206 24015G25KT", "raw": "METAR VVDH 112200Z 25006KT 170V280 CAVOK 29/23 Q0998 NOSIG", "fltcat": "VFR", "wind": "250° @ 6 kt", "vis": "CAVOK", "clouds": "NSC", "temp": 29, "dewp": 23, "qnh": "998 hPa"}, {"icao": "VVDN", "name": "Da Nang Intl", "metar": "METAR VVDN 112130Z 25004KT 9999 FEW020 28/22 Q0999 NOSIG", "speci": null, "taf": "TAF VVDN 102300Z 1100/1124 23010KT 9999 FEW020 SCT060", "raw": "METAR VVDN 112130Z 25004KT 9999 FEW020 28/22 Q0999 NOSIG", "fltcat": "VFR", "wind": "250° @ 4 kt", "vis": ">10 km", "clouds": "FEW020", "temp": 28, "dewp": 22, "qnh": "999 hPa", "atis": [{"kind": "ARR", "time": "2026-07-11 13:46 UTC", "text": "VVDN ARR ATIS A 1332Z VVDN INFO A 1332Z. ILS ZULU RWY 35L. DPTG RWY 35R.. 1332Z. WIND CALM CAVOK T31 DP24 QNH 1001HPA TREND NOSIG. ADZ ON INITIAL CTC YOU HAVE INFO. A."}, {"kind": "DEP", "time": "2026-07-09 06:26 UTC", "text": "VVDN DEP ATIS R 0503Z VVDN INFO R 0503Z. ILS VICTOR APPROACH 35L.. DPTG RWY 35R.. 0502Z. WIND 090/05KT VRB BTN 070/ AND 140/ CAVOK T37 DP23 QNH 1007HPA TREND NOSIG. ADZ ON INITIAL CTC YOU HAVE INFO. R."}]}, {"icao": "VVNB", "name": "Noi Bai — Ha Noi", "metar": "METAR VVNB 112200Z 07003KT 020V080 CAVOK 27/26 Q0998 NOSIG", "speci": null, "taf": "TAF VVNB 102300Z 1100/1124 17005KT 9000 SCT025 TEMPO 1100/1103 3500 SHRA BKN012 FEW025TCU TEMPO 1107/1112 2500 +TSRA BKN010 FEW027CB", "raw": "METAR VVNB 112200Z 07003KT 020V080 CAVOK 27/26 Q0998 NOSIG", "fltcat": "VFR", "wind": "070° @ 3 kt", "vis": "CAVOK", "clouds": "NSC", "temp": 27, "dewp": 26, "qnh": "998 hPa", "atis": [{"kind": "ARR", "time": "2026-07-11 21:54 UTC", "text": "VVNB ARR ATIS R 0230Z VVNB INFO R 0230Z. ILS X RWY 11L. DPTG RWY 11R AND ARR RWY 11L .. 0230Z. WIND 150/8KT VIS 10KM CLD FEW 1800FT T32 DP27 QNH 1007HPA TREND NOSIG. ADZ ON INITIAL CTC YOU HAVE INFO R."}, {"kind": "DEP", "time": "2026-07-11 04:33 UTC", "text": "VVNB DEP ATIS E 2040Z VVNB INFO E 2040Z. ILS W RWY 29L .. DEP 29L AND ARR 29L.. 2031Z. WIND 070/4KT VIS 10KM CLD 1600FT T26 DP25 QNH 1006HPA TREND NOSIG. ADZ ON INITIAL CTC YOU HAVE INFO E."}]}, {"icao": "VVPB", "name": "Phu Bai — Hue", "metar": "METAR VVPB 112200Z 33002KT 9999 FEW020 SCT070 29/21 Q0999 NOSIG", "speci": null, "taf": "TAF VVPB 102300Z 1100/1124 27011KT 9999 FEW020 SCT070", "raw": "METAR VVPB 112200Z 33002KT 9999 FEW020 SCT070 29/21 Q0999 NOSIG", "fltcat": "VFR", "wind": "330° @ 2 kt", "vis": ">10 km", "clouds": "FEW020 SCT070", "temp": 29, "dewp": 21, "qnh": "999 hPa"}, {"icao": "VVPC", "name": "Phu Cat — Quy Nhon", "metar": "METAR VVPC 112200Z 23010KT 9999 FEW018 BKN040 29/22 Q1001 NOSIG", "speci": null, "taf": "TAF VVPC 102300Z 1100/1124 24012KT 9999 FEW020 SCT060 TEMPO 1100/1109 25015G27KT", "raw": "METAR VVPC 112200Z 23010KT 9999 FEW018 BKN040 29/22 Q1001 NOSIG", "fltcat": "VFR", "wind": "230° @ 10 kt", "vis": ">10 km", "clouds": "FEW018 BKN040", "temp": 29, "dewp": 22, "qnh": "1001 hPa"}, {"icao": "VVPK", "name": "Pleiku", "metar": "METAR VVPK 112130Z AUTO 25011KT 9999 RA BKN003/// OVC006/// 22/21 Q1007", "speci": null, "taf": "TAF VVPK 102300Z 1100/1124 26012KT 8000 BKN012 TEMPO 1100/1103 25016G27KT 4000 RA BR BKN004 BKN008 TEMPO 1103/1110 25016G27KT TEMPO 1122/1124 3500 RA BR BKN004 BKN008", "raw": "METAR VVPK 112130Z AUTO 25011KT 9999 RA BKN003/// OVC006/// 22/21 Q1007", "fltcat": "LIFR", "wind": "250° @ 11 kt", "vis": ">10 km", "clouds": "BKN003 OVC006", "temp": 22, "dewp": 21, "qnh": "1007 hPa"}, {"icao": "VVPQ", "name": "Phu Quoc Intl", "metar": "METAR VVPQ 112200Z 22012KT 9999 FEW015 30/28 Q1006 NOSIG", "speci": null, "taf": "TAF VVPQ 102300Z 1100/1124 27013KT 9999 SCT015 TEMPO 1106/1109 5000 TSRA BKN015 FEW017CB", "raw": "METAR VVPQ 112200Z 22012KT 9999 FEW015 30/28 Q1006 NOSIG", "fltcat": "VFR", "wind": "220° @ 12 kt", "vis": ">10 km", "clouds": "FEW015", "temp": 30, "dewp": 28, "qnh": "1006 hPa"}, {"icao": "VVTH", "name": "Dong Tac — Tuy Hoa", "metar": "METAR VVTH 112200Z 22008KT CAVOK 27/24 Q1002 NOSIG", "speci": null, "taf": "TAF VVTH 112000Z 1121/1206 24012KT 9999 FEW017 TEMPO 1200/1206 24015G25KT", "raw": "METAR VVTH 112200Z 22008KT CAVOK 27/24 Q1002 NOSIG", "fltcat": "VFR", "wind": "220° @ 8 kt", "vis": "CAVOK", "clouds": "NSC", "temp": 27, "dewp": 24, "qnh": "1002 hPa"}, {"icao": "VVTS", "name": "Tan Son Nhat — Ho Chi Minh City", "metar": "METAR VVTS 112200Z 23010KT 9999 FEW016 28/26 Q1005 NOSIG", "speci": null, "taf": "TAF VVTS 102300Z 1100/1206 24012KT 9999 SCT017 TEMPO 1103/1107 24015G25KT TEMPO 1107/1111 24016G28KT 5000 TSRA BKN015 FEW017CB", "raw": "METAR VVTS 112200Z 23010KT 9999 FEW016 28/26 Q1005 NOSIG", "fltcat": "VFR", "wind": "230° @ 10 kt", "vis": ">10 km", "clouds": "FEW016", "temp": 28, "dewp": 26, "qnh": "1005 hPa", "atis": [{"kind": "ARR", "time": "2026-07-11 20:20 UTC", "text": "VVTS ARR ATIS S 0230Z VVTS INFO S 0230Z. ILSW APCH IN RWY 25R.. LDG RWY 25R AND DEP RWY 25L.. 0230Z. WIND RWY 25R TDZ 270/9KT VRB BTN 230/ AND 300/ VIS 10KM CLD SCT 2600FT SCT 4000FT T32 DP26 QNH 1011HPA TREND NOSIG. ADZ ON INITIAL CTC YOU HAVE INFO S."}, {"kind": "DEP", "time": "2026-07-10 22:52 UTC", "text": "VVTS DEP ATIS Z 1835Z VVTS INFO Z 1835Z. ILSW APCH IN RWY 25R.. LDG RWY 25R AND DEP RWY 25L.. 1830Z. WIND RWY 25L TDZ 200/5KT MID 200/6KT END 200/4KT MAX10 MNM2 VRB BTN 160/ AND 300/ RWY 25R TDZ 200/5KT END 200/6KT MAX12 MNM4 VRB BTN 180/ AND 270/ VIS RWY 25L TDZ 10KM MID 10KM END 10KM RWY 25R TDZ 10KM MID 10KM END 10KM CLD RWY 25L SCT 3500FT RWY 25R FEW 3500FT T29 DP26 QNH 1010HPA TREND NOSIG. ADZ ON INITIAL CTC YOU HAVE INFO Z."}]}, {"icao": "VVTX", "name": "Tho Xuan — Thanh Hoa", "metar": "METAR VVTX 112200Z 35002KT CAVOK 26/25 Q0997 NOSIG", "speci": null, "taf": "TAF VVTX 112000Z 1121/1206 VRB02KT 9999 SCT020", "raw": "METAR VVTX 112200Z 35002KT CAVOK 26/25 Q0997 NOSIG", "fltcat": "VFR", "wind": "350° @ 2 kt", "vis": "CAVOK", "clouds": "NSC", "temp": 26, "dewp": 25, "qnh": "997 hPa"}, {"icao": "VVVD", "name": "Van Don — Quang Ninh", "metar": "METAR VVVD 112200Z 05003KT 9999 FEW015 27/27 Q0998 NOSIG", "speci": null, "taf": "TAF VVVD 102300Z 1100/1124 12005KT 9000 FEW020 TEMPO 1100/1102 3500 SHRA SCT012 FEW025TCU TEMPO 1108/1112 2500 +TSRA BKN010 FEW027CB", "raw": "METAR VVVD 112200Z 05003KT 9999 FEW015 27/27 Q0998 NOSIG", "fltcat": "VFR", "wind": "050° @ 3 kt", "vis": ">10 km", "clouds": "FEW015", "temp": 27, "dewp": 27, "qnh": "998 hPa"}, {"icao": "VVVH", "name": "Vinh", "metar": "METAR VVVH 112200Z 30002KT CAVOK 27/24 Q0997 NOSIG", "speci": null, "taf": "TAF VVVH 102300Z 1100/1124 24005KT 9999 FEW025", "raw": "METAR VVVH 112200Z 30002KT CAVOK 27/24 Q0997 NOSIG", "fltcat": "VFR", "wind": "300° @ 2 kt", "vis": "CAVOK", "clouds": "NSC", "temp": 27, "dewp": 24, "qnh": "997 hPa"}]}