{"updated": "2026-07-14T23:35:55+00:00", "source": "VN MET", "stations": [{"icao": "VVBM", "name": "Buon Ma Thuot", "metar": "METAR VVBM 142330Z 20004KT 160V250 8000 SCT013 BKN040 24/21 Q1013 NOSIG", "speci": null, "taf": "TAF VVBM 132300Z 1400/1424 24006KT 9999 SCT013 BKN040 TEMPO 1408/1411 3000 TSRA BKN010 FEW013CB TEMPO 1411/1414 5000 SHRA SCT013 FEW015CB BKN040", "raw": "METAR VVBM 142330Z 20004KT 160V250 8000 SCT013 BKN040 24/21 Q1013 NOSIG", "fltcat": "MVFR", "wind": "200° @ 4 kt", "vis": "8.0 km", "clouds": "SCT013 BKN040", "temp": 24, "dewp": 21, "qnh": "1013 hPa"}, {"icao": "VVCA", "name": "Chu Lai", "metar": "METAR VVCA 142330Z VRB02KT 9999 FEW020 BKN080 28/27 Q1005 NOSIG", "speci": null, "taf": "TAF VVCA 142000Z 1421/1506 16006KT 9999 FEW020", "raw": "METAR VVCA 142330Z VRB02KT 9999 FEW020 BKN080 28/27 Q1005 NOSIG", "fltcat": "VFR", "wind": "VRB @ 2 kt", "vis": ">10 km", "clouds": "FEW020 BKN080", "temp": 28, "dewp": 27, "qnh": "1005 hPa"}, {"icao": "VVCI", "name": "Cat Bi — Hai Phong", "metar": "METAR VVCI 142330Z 04001KT 9999 SCT018 30/28 Q1002 NOSIG", "speci": null, "taf": "TAF VVCI 132300Z 1400/1424 11006KT 9999 FEW020 TEMPO 1420/1424 4000 TSRA SCT015 FEW027CB", "raw": "METAR VVCI 142330Z 04001KT 9999 SCT018 30/28 Q1002 NOSIG", "fltcat": "VFR", "wind": "040° @ 1 kt", "vis": ">10 km", "clouds": "SCT018", "temp": 30, "dewp": 28, "qnh": "1002 hPa"}, {"icao": "VVCR", "name": "Cam Ranh — Nha Trang", "metar": "METAR VVCR 142330Z 21009KT CAVOK 29/23 Q1009 NOSIG", "speci": null, "taf": "TAF VVCR 132300Z 1400/1424 19012KT 9999 FEW020 TEMPO 1407/1412 TS SCT013 FEW017CB", "raw": "METAR VVCR 142330Z 21009KT CAVOK 29/23 Q1009 NOSIG", "fltcat": "VFR", "wind": "210° @ 9 kt", "vis": "CAVOK", "clouds": "NSC", "temp": 29, "dewp": 23, "qnh": "1009 hPa", "atis": [{"kind": "ARR", "time": "2026-07-13 09:29 UTC", "text": "VVCR ARR ATIS W 1330Z VVCR INFO W 1330Z. ILS YANKEE APPROACH IN USE. LDG RWY 20L AND DPTG RWY 20R.. 1330Z. WIND RWY 20L TDZ 330/3KT VRB BTN 260/ AND 360/ MID 310/3KT VRB BTN 280/ AND 340/ END 320/3KT RWY 20R TDZ 320/1KT CAVOK T29 DP25 QNH 1010HPA TREND NOSIG. ADZ ON INITIAL CTC YOU HAVE INFO W."}, {"kind": "DEP", "time": "2026-05-29 05:57 UTC", "text": "VVCR DEP ATIS S 0533Z VVCR INFO S 0533Z. ILS Z APCH IN USE.. LDG RWY 02R AND DPTG RWY 02L.. 0532Z. WIND RWY 02R TDZ 080/9KT MID 090/8KT END 100/8KT RWY 02L TDZ 080/8KT CAVOK T31 DP26 QNH 1009HPA TREND TEMPO FM0630 VIS 4000M MOD TSRA. ADZ ON INITIAL CTC YOU HAVE INFO S."}]}, {"icao": "VVCS", "name": "Con Dao", "metar": "METAR VVCS 142330Z VRB01KT 9999 FEW017 26/24 Q1010 NOSIG", "speci": null, "taf": "TAF VVCS 142000Z 1421/1506 22008KT 9999 SCT017 SCT040 TEMPO 1500/1503 20015G28KT 3000 TSRA SCT015 SCT017CB BKN040", "raw": "METAR VVCS 142330Z VRB01KT 9999 FEW017 26/24 Q1010 NOSIG", "fltcat": "VFR", "wind": "VRB @ 1 kt", "vis": ">10 km", "clouds": "FEW017", "temp": 26, "dewp": 24, "qnh": "1010 hPa"}, {"icao": "VVCT", "name": "Can Tho Intl", "metar": "METAR VVCT 142330Z VRB01KT 7000 FEW015 BKN050 26/25 Q1011 NOSIG", "speci": null, "taf": "TAF VVCT 132300Z 1400/1424 24010KT 9999 SCT015 SCT050 TEMPO 1400/1404 4000 TSRA SCT013 FEW015CB TEMPO 1407/1410 25015G27KT 3000 TSRA BKN013 FEW015CB BKN040", "raw": "METAR VVCT 142330Z VRB01KT 7000 FEW015 BKN050 26/25 Q1011 NOSIG", "fltcat": "MVFR", "wind": "VRB @ 1 kt", "vis": "7.0 km", "clouds": "FEW015 BKN050", "temp": 26, "dewp": 25, "qnh": "1011 hPa"}, {"icao": "VVDB", "name": "Dien Bien Phu", "metar": "METAR VVDB 142330Z VRB02KT 9999 SCT028 BKN035 OVC042 26/24 Q1007 NOSIG", "speci": null, "taf": "TAF VVDB 142000Z 1421/1506 VRB02KT 9999 FEW025", "raw": "METAR VVDB 142330Z VRB02KT 9999 SCT028 BKN035 OVC042 26/24 Q1007 NOSIG", "fltcat": "VFR", "wind": "VRB @ 2 kt", "vis": ">10 km", "clouds": "SCT028 BKN035 OVC042", "temp": 26, "dewp": 24, "qnh": "1007 hPa"}, {"icao": "VVDH", "name": "Dong Hoi", "metar": "METAR VVDH 142330Z 22006KT 180V270 9999 FEW040 28/24 Q1005 NOSIG", "speci": null, "taf": "TAF VVDH 142000Z 1421/1506 24005KT 9999 FEW030", "raw": "METAR VVDH 142330Z 22006KT 180V270 9999 FEW040 28/24 Q1005 NOSIG", "fltcat": "VFR", "wind": "220° @ 6 kt", "vis": ">10 km", "clouds": "FEW040", "temp": 28, "dewp": 24, "qnh": "1005 hPa"}, {"icao": "VVDN", "name": "Da Nang Intl", "metar": "METAR VVDN 142330Z 26003KT 230V320 9999 SCT017 BKN070 31/22 Q1006 NOSIG", "speci": null, "taf": "TAF VVDN 132300Z 1400/1424 22008KT 9999 FEW020 SCT070 BECMG 1404/1405 01010KT TEMPO 1409/1413 TS SCT013 FEW015CB BKN060 BECMG 1413/1414 22006KT", "raw": "METAR VVDN 142330Z 26003KT 230V320 9999 SCT017 BKN070 31/22 Q1006 NOSIG", "fltcat": "VFR", "wind": "260° @ 3 kt", "vis": ">10 km", "clouds": "SCT017 BKN070", "temp": 31, "dewp": 22, "qnh": "1006 hPa", "atis": [{"kind": "ARR", "time": "2026-07-14 03:48 UTC", "text": "VVDN ARR ATIS T 1932Z VVDN INFO T 1932Z. ILS VICTOR APPROACH 35L.. DPTG RWY 35R.. 1932Z. WIND 220/05KT CAVOK T27 DP25 QNH 1008HPA TREND NOSIG. ADZ ON INITIAL CTC YOU HAVE INFO. T."}, {"kind": "DEP", "time": "2026-07-12 02:50 UTC", "text": "VVDN DEP ATIS N 0423Z VVDN INFO N 0423Z. ILS VICTOR APPROACH 35L.. DPTG RWY 35R.. 0423Z. WIND 010/02KT CAVOK T36 DP24 QNH 1008HPA TREND NOSIG. WS ALL RWY. ADZ ON INITIAL CTC YOU HAVE INFO. N."}]}, {"icao": "VVNB", "name": "Noi Bai — Ha Noi", "metar": "METAR VVNB 142330Z 11007KT CAVOK 29/26 Q1002 NOSIG", "speci": null, "taf": "TAF VVNB 132300Z 1400/1424 08006KT 9999 FEW025 PROB30 TEMPO 1408/1412 4000 TSRA SCT010 FEW027CB", "raw": "METAR VVNB 142330Z 11007KT CAVOK 29/26 Q1002 NOSIG", "fltcat": "VFR", "wind": "110° @ 7 kt", "vis": "CAVOK", "clouds": "NSC", "temp": 29, "dewp": 26, "qnh": "1002 hPa", "atis": [{"kind": "ARR", "time": "2026-07-14 23:07 UTC", "text": "VVNB ARR ATIS T 0230Z VVNB INFO T 0230Z. ILS X RWY 11L. DPTG RWY 11R AND ARR RWY 11L .. 0230Z. WIND 080/5KT VIS 6KM CLD RWY 11R NSC RWY 11L NSC T29 DP27 QNH 1005HPA TREND TEMPO VIS 4500M MOD RA. ADZ ON INITIAL CTC YOU HAVE INFO T."}, {"kind": "DEP", "time": "2026-07-14 15:56 UTC", "text": "VVNB DEP ATIS O 0000Z VVNB INFO O 0000Z. ILS X RWY 11L. DPTG RWY 11R AND ARR RWY 11L .. 0000Z. WIND 080/3KT VIS 7KM FBL RA CLD FEW 2700FT T27 DP27 QNH 1004HPA TREND TEMPO VIS 4000M FBL RA BR. ADZ ON INITIAL CTC YOU HAVE INFO O."}]}, {"icao": "VVNS", "name": "Na San — Son La", "metar": "METAR VVNS 142300Z /////KT 9999 SCT035 23/21 Q1006 NOSIG", "speci": null, "taf": null, "raw": "METAR VVNS 142300Z /////KT 9999 SCT035 23/21 Q1006 NOSIG", "fltcat": "VFR", "wind": "—", "vis": ">10 km", "clouds": "SCT035", "temp": 23, "dewp": 21, "qnh": "1006 hPa"}, {"icao": "VVPB", "name": "Phu Bai — Hue", "metar": "METAR VVPB 142330Z 22008KT 9999 FEW020 SCT070 31/20 Q1005 NOSIG", "speci": null, "taf": "TAF VVPB 132300Z 1400/1424 20008KT 9999 FEW020 SCT060 BECMG 1406/1407 10010KT TEMPO 1408/1412 TS SCT012 FEW015CB BKN050 BECMG 1412/1413 20006KT", "raw": "METAR VVPB 142330Z 22008KT 9999 FEW020 SCT070 31/20 Q1005 NOSIG", "fltcat": "VFR", "wind": "220° @ 8 kt", "vis": ">10 km", "clouds": "FEW020 SCT070", "temp": 31, "dewp": 20, "qnh": "1005 hPa"}, {"icao": "VVPC", "name": "Phu Cat — Quy Nhon", "metar": "METAR VVPC 142330Z 22005KT 190V250 9999 FEW025 SCT070 29/23 Q1007 NOSIG", "speci": null, "taf": "TAF VVPC 132300Z 1400/1424 20006KT 9999 FEW020 SCT070 TEMPO 1401/1408 24015G25KT TEMPO 1408/1412 TS SCT013 FEW015CB BKN060", "raw": "METAR VVPC 142330Z 22005KT 190V250 9999 FEW025 SCT070 29/23 Q1007 NOSIG", "fltcat": "VFR", "wind": "220° @ 5 kt", "vis": ">10 km", "clouds": "FEW025 SCT070", "temp": 29, "dewp": 23, "qnh": "1007 hPa"}, {"icao": "VVPK", "name": "Pleiku", "metar": "METAR VVPK 142330Z 25013KT 230V290 8000 SCT002 BKN004 22/21 Q1014 TEMPO 3000 RA BR", "speci": null, "taf": "TAF AMD VVPK 140100Z 1401/1424 26010KT 2000 RA BR BKN002 BKN004 BECMG 1401/1402 4000 RA BR BKN004 BKN008 BECMG 1402/1403 8000 NSW SCT013 TEMPO 1403/1406 25015G25KT TEMPO 1408/1412 27015G27KT 3500 TSRA BKN010 FEW015CB BKN050 TEMPO 1422/1424 0800 FG VV002", "raw": "METAR VVPK 142330Z 25013KT 230V290 8000 SCT002 BKN004 22/21 Q1014 TEMPO 3000 RA BR", "fltcat": "LIFR", "wind": "250° @ 13 kt", "vis": "8.0 km", "clouds": "SCT002 BKN004", "temp": 22, "dewp": 21, "qnh": "1014 hPa"}, {"icao": "VVPQ", "name": "Phu Quoc Intl", "metar": "METAR VVPQ 142330Z 09003KT 9999 TS SCT015 FEW017CB SCT040 25/25 Q1011 NOSIG", "speci": null, "taf": "TAF VVPQ 132300Z 1400/1424 27010KT 9999 SCT015 SCT040 TEMPO 1400/1403 3000 TSRA BKN013 FEW015CB BKN040 TEMPO 1403/1407 28020G30KT 2000 +TSRA SCT013 SCT015CB BKN040 TEMPO 1407/1410 5000 SHRA SCT013 FEW015CB BKN040", "raw": "METAR VVPQ 142330Z 09003KT 9999 TS SCT015 FEW017CB SCT040 25/25 Q1011 NOSIG", "fltcat": "VFR", "wind": "090° @ 3 kt", "vis": ">10 km", "clouds": "SCT015 FEW017 SCT040", "temp": 25, "dewp": 25, "qnh": "1011 hPa"}, {"icao": "VVRG", "name": "Rach Gia", "metar": "METAR VVRG 142330Z VRB01KT 8000 VCTS SCT015 FEW017CB SCT040 26/25 Q1011 TEMPO TL0010 5000 TSRA", "speci": null, "taf": "TAF VVRG 142000Z 1421/1506 27008KT 9999 SCT015 SCT040 TEMPO 1423/1502 4000 TSRA SCT013 FEW015CB BKN040", "raw": "METAR VVRG 142330Z VRB01KT 8000 VCTS SCT015 FEW017CB SCT040 26/25 Q1011 TEMPO TL0010 5000 TSRA", "fltcat": "MVFR", "wind": "VRB @ 1 kt", "vis": "8.0 km", "clouds": "SCT015 FEW017 SCT040", "temp": 26, "dewp": 25, "qnh": "1011 hPa"}, {"icao": "VVTH", "name": "Dong Tac — Tuy Hoa", "metar": "METAR VVTH 142330Z 21002KT CAVOK 27/23 Q1008 NOSIG", "speci": null, "taf": "TAF VVTH 142000Z 1421/1506 24010KT 9999 FEW017", "raw": "METAR VVTH 142330Z 21002KT CAVOK 27/23 Q1008 NOSIG", "fltcat": "VFR", "wind": "210° @ 2 kt", "vis": "CAVOK", "clouds": "NSC", "temp": 27, "dewp": 23, "qnh": "1008 hPa"}, {"icao": "VVTS", "name": "Tan Son Nhat — Ho Chi Minh City", "metar": "METAR VVTS 142330Z 22006KT 9999 FEW019 28/26 Q1010 NOSIG", "speci": null, "taf": "TAF VVTS 132300Z 1400/1506 24010KT 9999 SCT017 TEMPO 1402/1405 24015G25KT 5000 TSRA BKN015 FEW017CB TEMPO 1405/1410 24018G30KT 2500 +TSRA BKN015 SCT017CB", "raw": "METAR VVTS 142330Z 22006KT 9999 FEW019 28/26 Q1010 NOSIG", "fltcat": "VFR", "wind": "220° @ 6 kt", "vis": ">10 km", "clouds": "FEW019", "temp": 28, "dewp": 26, "qnh": "1010 hPa", "atis": [{"kind": "ARR", "time": "2026-07-14 23:15 UTC", "text": "VVTS ARR ATIS T 0230Z VVTS INFO T 0230Z. ILSW APCH IN RWY 25R.. LDG RWY 25R AND DEP RWY 25L.. 0230Z. WIND RWY 25R TDZ VRB4KT VIS 10KM CLD FEW 2500FT T32 DP26 QNH 1010HPA TREND NOSIG. ADZ ON INITIAL CTC YOU HAVE INFO T."}, {"kind": "DEP", "time": "2026-07-14 15:01 UTC", "text": "VVTS DEP ATIS O 0000Z VVTS INFO O 0000Z. ILSW APCH IN RWY 25R.. LDG RWY 25R AND DEP RWY 25L.. 0000Z. WIND RWY 25R TDZ 280/3KT VRB BTN 250/ AND 310/ CAVOK T28 DP27 QNH 1010HPA TREND NOSIG. ADZ ON INITIAL CTC YOU HAVE INFO O."}]}, {"icao": "VVTX", "name": "Tho Xuan — Thanh Hoa", "metar": "METAR VVTX 142330Z 27002KT CAVOK 26/24 Q1002 NOSIG", "speci": null, "taf": "TAF VVTX 142000Z 1421/1506 20005KT 9999 FEW030", "raw": "METAR VVTX 142330Z 27002KT CAVOK 26/24 Q1002 NOSIG", "fltcat": "VFR", "wind": "270° @ 2 kt", "vis": "CAVOK", "clouds": "NSC", "temp": 26, "dewp": 24, "qnh": "1002 hPa"}, {"icao": "VVVD", "name": "Van Don — Quang Ninh", "metar": "METAR VVVD 142330Z VRB02KT 9999 FEW006 SCT016 BKN022 28/28 Q1003 NOSIG", "speci": null, "taf": "TAF VVVD 132300Z 1400/1424 21005KT 9999 FEW025 TEMPO 1419/1424 3500 TSRA SCT015 FEW027CB", "raw": "METAR VVVD 142330Z VRB02KT 9999 FEW006 SCT016 BKN022 28/28 Q1003 NOSIG", "fltcat": "MVFR", "wind": "VRB @ 2 kt", "vis": ">10 km", "clouds": "FEW006 SCT016 BKN022", "temp": 28, "dewp": 28, "qnh": "1003 hPa"}, {"icao": "VVVH", "name": "Vinh", "metar": "METAR VVVH 142330Z 24004KT 190V280 CAVOK 31/21 Q1003 NOSIG", "speci": null, "taf": "TAF VVVH 132300Z 1400/1424 23005KT 9999 FEW020", "raw": "METAR VVVH 142330Z 24004KT 190V280 CAVOK 31/21 Q1003 NOSIG", "fltcat": "VFR", "wind": "240° @ 4 kt", "vis": "CAVOK", "clouds": "NSC", "temp": 31, "dewp": 21, "qnh": "1003 hPa"}]}