{"updated": "2026-07-20T11:27:46+00:00", "source": "VN MET", "stations": [{"icao": "VVBM", "name": "Buon Ma Thuot", "metar": "METAR VVBM 201030Z 30009KT 260V320 9999 SCT015 30/20 Q1010 NOSIG", "speci": null, "taf": "TAF VVBM 192300Z 2000/2024 VRB02KT 9999 SCT015 BECMG 2001/2002 27010KT TEMPO 2009/2012 TS SCT015 FEW017CB", "raw": "METAR VVBM 201030Z 30009KT 260V320 9999 SCT015 30/20 Q1010 NOSIG", "fltcat": "VFR", "wind": "300° @ 9 kt", "vis": ">10 km", "clouds": "SCT015", "temp": 30, "dewp": 20, "qnh": "1010 hPa"}, {"icao": "VVCA", "name": "Chu Lai", "metar": "METAR VVCA 201100Z 15010KT CAVOK 32/22 Q1004 NOSIG", "speci": null, "taf": "TAF VVCA 200800Z 2009/2018 08011KT 9999 FEW020 BECMG 2011/2012 15006KT", "raw": "METAR VVCA 201100Z 15010KT CAVOK 32/22 Q1004 NOSIG", "fltcat": "VFR", "wind": "150° @ 10 kt", "vis": "CAVOK", "clouds": "NSC", "temp": 32, "dewp": 22, "qnh": "1004 hPa"}, {"icao": "VVCI", "name": "Cat Bi — Hai Phong", "metar": "METAR VVCI 201100Z 12004KT CAVOK 30/27 Q1002 NOSIG", "speci": null, "taf": "TAF VVCI 192300Z 2000/2024 23005KT 9999 FEW030 TEMPO 2008/2012 3500 TSRA SCT010 FEW027CB TEMPO 2021/2024 4000 SHRA SCT015 FEW025TCU", "raw": "METAR VVCI 201100Z 12004KT CAVOK 30/27 Q1002 NOSIG", "fltcat": "VFR", "wind": "120° @ 4 kt", "vis": "CAVOK", "clouds": "NSC", "temp": 30, "dewp": 27, "qnh": "1002 hPa"}, {"icao": "VVCR", "name": "Cam Ranh — Nha Trang", "metar": "METAR VVCR 201100Z VRB02KT CAVOK 34/25 Q1007 NOSIG", "speci": null, "taf": "TAF VVCR 192300Z 2000/2024 33006KT 9999 FEW020 BECMG 2002/2003 11012KT BECMG 2011/2012 20009KT", "raw": "METAR VVCR 201100Z VRB02KT CAVOK 34/25 Q1007 NOSIG", "fltcat": "VFR", "wind": "VRB @ 2 kt", "vis": "CAVOK", "clouds": "NSC", "temp": 34, "dewp": 25, "qnh": "1007 hPa", "atis": [{"kind": "ARR", "time": "2026-07-17 14:03 UTC", "text": "VVCR ARR ATIS F 1401Z VVCR INFO F 1401Z. ILS Z APCH IN USE.. LDG RWY 02R AND DPTG RWY 02L.. 1400Z. WIND RWY 02R TDZ 040/3KT MID 340/3KT END 010/6KT RWY 02L TDZ 020/3KT VIS RWY 02R TDZ 10KM END"}, {"kind": "DEP", "time": "2026-05-29 05:57 UTC", "text": "VVCR DEP ATIS S 0533Z VVCR INFO S 0533Z. ILS Z APCH IN USE.. LDG RWY 02R AND DPTG RWY 02L.. 0532Z. WIND RWY 02R TDZ 080/9KT MID 090/8KT END 100/8KT RWY 02L TDZ 080/8KT CAVOK T31 DP26 QNH 1009HPA TREND TEMPO FM0630 VIS 4000M MOD TSRA. ADZ ON INITIAL CTC YOU HAVE INFO S."}]}, {"icao": "VVCS", "name": "Con Dao", "metar": "METAR VVCS 201100Z VRB02KT 9999 FEW017 30/24 Q1009 NOSIG", "speci": null, "taf": "TAF VVCS 192300Z 2000/2009 24006KT 9999 FEW017", "raw": "METAR VVCS 201100Z VRB02KT 9999 FEW017 30/24 Q1009 NOSIG", "fltcat": "VFR", "wind": "VRB @ 2 kt", "vis": ">10 km", "clouds": "FEW017", "temp": 30, "dewp": 24, "qnh": "1009 hPa"}, {"icao": "VVCT", "name": "Can Tho Intl", "metar": "METAR VVCT 201100Z 26005KT 9999 FEW015 30/26 Q1009 NOSIG", "speci": null, "taf": "TAF VVCT 192300Z 2000/2024 24007KT 9999 SCT015 TEMPO 2006/2008 TS SCT015 FEW017CB", "raw": "METAR VVCT 201100Z 26005KT 9999 FEW015 30/26 Q1009 NOSIG", "fltcat": "VFR", "wind": "260° @ 5 kt", "vis": ">10 km", "clouds": "FEW015", "temp": 30, "dewp": 26, "qnh": "1009 hPa"}, {"icao": "VVDB", "name": "Dien Bien Phu", "metar": "METAR VVDB 201100Z 23005KT 9999 FEW021 SCT033 OVC037 26/22 Q1007 NOSIG", "speci": null, "taf": "TAF COR VVDB 192300Z 2000/2009 VRB02KT 8000 SCT015 BKN025 TEMPO 2000/2004 4000 -RA BR SCT008 BKN020", "raw": "METAR VVDB 201100Z 23005KT 9999 FEW021 SCT033 OVC037 26/22 Q1007 NOSIG", "fltcat": "VFR", "wind": "230° @ 5 kt", "vis": ">10 km", "clouds": "FEW021 SCT033 OVC037", "temp": 26, "dewp": 22, "qnh": "1007 hPa"}, {"icao": "VVDH", "name": "Dong Hoi", "metar": "METAR VVDH 201100Z 24007KT 200V330 CAVOK 34/22 Q1004 NOSIG", "speci": null, "taf": "TAF VVDH 192300Z 2000/2009 21008KT 9999 FEW030", "raw": "METAR VVDH 201100Z 24007KT 200V330 CAVOK 34/22 Q1004 NOSIG", "fltcat": "VFR", "wind": "240° @ 7 kt", "vis": "CAVOK", "clouds": "NSC", "temp": 34, "dewp": 22, "qnh": "1004 hPa"}, {"icao": "VVDN", "name": "Da Nang Intl", "metar": "METAR VVDN 201100Z 13004KT 070V150 9999 FEW020 SCT080 32/23 Q1005 NOSIG", "speci": null, "taf": "TAF VVDN 192300Z 2000/2024 24004KT 9999 FEW017 BECMG 2005/2006 01010KT BECMG 2012/2013 22007KT", "raw": "METAR VVDN 201100Z 13004KT 070V150 9999 FEW020 SCT080 32/23 Q1005 NOSIG", "fltcat": "VFR", "wind": "130° @ 4 kt", "vis": ">10 km", "clouds": "FEW020 SCT080", "temp": 32, "dewp": 23, "qnh": "1005 hPa", "atis": [{"kind": "ARR", "time": "2026-07-20 05:01 UTC", "text": "VVDN ARR ATIS D 0432Z VVDN INFO D 0432Z. ILS VICTOR APPROACH 35L.. DPTG RWY 35R.. 0432Z. WIND 270/04KT CAVOK T37 DP20 QNH 1005HPA TREND NOSIG. ADZ ON INITIAL CTC YOU HAVE INFO. D."}, {"kind": "DEP", "time": "2026-07-19 18:34 UTC", "text": "VVDN DEP ATIS J 1833Z VVDN INFO J 1833Z. ILS VICTOR APPROACH 35L.. DPTG RWY 35R.. 1833Z. WIND 300/02KT CAVOK T30 DP22 QNH 1006HPA TREND NOSIG. ADZ ON INITIAL CTC YOU HAVE INFO. J."}]}, {"icao": "VVNB", "name": "Noi Bai — Ha Noi", "metar": "METAR VVNB 201100Z 08005KT 9999 FEW040 31/27 Q1002 NOSIG", "speci": null, "taf": "TAF VVNB 192300Z 2000/2024 32005KT 9999 FEW020 TEMPO 2005/2009 3200 TSRA SCT010 FEW027CB", "raw": "METAR VVNB 201100Z 08005KT 9999 FEW040 31/27 Q1002 NOSIG", "fltcat": "VFR", "wind": "080° @ 5 kt", "vis": ">10 km", "clouds": "FEW040", "temp": 31, "dewp": 27, "qnh": "1002 hPa", "atis": [{"kind": "ARR", "time": "2026-07-20 11:23 UTC", "text": "VVNB ARR ATIS K 2330Z VVNB INFO K 2330Z. ILS X RWY 11L. DPTG RWY 11R AND ARR RWY 11L .. 2330Z. WIND VRB2KT CAVOK T31 DP26 QNH 1000HPA TREND NOSIG. ADZ ON INITIAL CTC YOU HAVE INFO K."}, {"kind": "DEP", "time": "2026-07-19 08:39 UTC", "text": "VVNB DEP ATIS P 1300Z VVNB INFO P 1300Z. ILS X RWY 11L. DPTG RWY 11R AND ARR RWY 11L .. 1300Z. WIND 220/6KT VIS 10KM CLD FEW 1200FT T35 DP24 QNH 0999HPA TREND NOSIG. ADZ ON INITIAL CTC YOU HAVE INFO P."}]}, {"icao": "VVNS", "name": "Na San — Son La", "metar": "METAR VVNS 201100Z /////KT 8000 SCT020 BKN040 26/24 Q1007 NOSIG", "speci": null, "taf": null, "raw": "METAR VVNS 201100Z /////KT 8000 SCT020 BKN040 26/24 Q1007 NOSIG", "fltcat": "MVFR", "wind": "—", "vis": "8.0 km", "clouds": "SCT020 BKN040", "temp": 26, "dewp": 24, "qnh": "1007 hPa"}, {"icao": "VVPB", "name": "Phu Bai — Hue", "metar": "METAR VVPB 201100Z 09006KT 9999 FEW020 33/22 Q1004 NOSIG", "speci": null, "taf": "TAF VVPB 192300Z 2000/2024 23006KT 9999 FEW020 BECMG 2006/2007 06010KT BECMG 2013/2014 20007KT", "raw": "METAR VVPB 201100Z 09006KT 9999 FEW020 33/22 Q1004 NOSIG", "fltcat": "VFR", "wind": "090° @ 6 kt", "vis": ">10 km", "clouds": "FEW020", "temp": 33, "dewp": 22, "qnh": "1004 hPa"}, {"icao": "VVPC", "name": "Phu Cat — Quy Nhon", "metar": "METAR VVPC 201100Z 22009KT CAVOK 34/21 Q1005 NOSIG", "speci": null, "taf": "TAF VVPC 192300Z 2000/2024 25007KT 9999 FEW020 TEMPO 2003/2008 25015G25KT", "raw": "METAR VVPC 201100Z 22009KT CAVOK 34/21 Q1005 NOSIG", "fltcat": "VFR", "wind": "220° @ 9 kt", "vis": "CAVOK", "clouds": "NSC", "temp": 34, "dewp": 21, "qnh": "1005 hPa"}, {"icao": "VVPK", "name": "Pleiku", "metar": "METAR VVPK 201100Z 27008KT 9999 FEW020 26/20 Q1012 NOSIG", "speci": null, "taf": "TAF VVPK 192300Z 2000/2024 26010KT 9999 BKN005 BKN010 TEMPO 2000/2002 4000 RA BR BECMG 2002/2003 SCT017 TEMPO 2008/2012 TS SCT013 FEW015CB SCT060 TEMPO 2022/2024 4000 RA BR BKN004", "raw": "METAR VVPK 201100Z 27008KT 9999 FEW020 26/20 Q1012 NOSIG", "fltcat": "VFR", "wind": "270° @ 8 kt", "vis": ">10 km", "clouds": "FEW020", "temp": 26, "dewp": 20, "qnh": "1012 hPa"}, {"icao": "VVPQ", "name": "Phu Quoc Intl", "metar": "METAR VVPQ 201100Z 27010KT 9999 SCT015 30/28 Q1009 NOSIG", "speci": null, "taf": "TAF VVPQ 192300Z 2000/2024 27007KT 9999 SCT015", "raw": "METAR VVPQ 201100Z 27010KT 9999 SCT015 30/28 Q1009 NOSIG", "fltcat": "VFR", "wind": "270° @ 10 kt", "vis": ">10 km", "clouds": "SCT015", "temp": 30, "dewp": 28, "qnh": "1009 hPa"}, {"icao": "VVRG", "name": "Rach Gia", "metar": "METAR VVRG 201100Z 23009KT 9999 SCT020 30/24 Q1008 NOSIG", "speci": null, "taf": "TAF VVRG 192300Z 2000/2009 24008KT 9999 SCT015", "raw": "METAR VVRG 201100Z 23009KT 9999 SCT020 30/24 Q1008 NOSIG", "fltcat": "VFR", "wind": "230° @ 9 kt", "vis": ">10 km", "clouds": "SCT020", "temp": 30, "dewp": 24, "qnh": "1008 hPa"}, {"icao": "VVTH", "name": "Dong Tac — Tuy Hoa", "metar": "METAR VVTH 201100Z 15009KT 9999 FEW023 SCT047 33/20 Q1006 NOSIG", "speci": null, "taf": "TAF VVTH 200800Z 2009/2018 12012KT 9999 FEW020 BECMG 2013/2014 24007KT", "raw": "METAR VVTH 201100Z 15009KT 9999 FEW023 SCT047 33/20 Q1006 NOSIG", "fltcat": "VFR", "wind": "150° @ 9 kt", "vis": ">10 km", "clouds": "FEW023 SCT047", "temp": 33, "dewp": 20, "qnh": "1006 hPa"}, {"icao": "VVTS", "name": "Tan Son Nhat — Ho Chi Minh City", "metar": "METAR VVTS 201100Z 26009KT 9999 FEW027 32/23 Q1008 NOSIG", "speci": null, "taf": "TAF VVTS 192300Z 2000/2106 24008KT 9999 SCT017", "raw": "METAR VVTS 201100Z 26009KT 9999 FEW027 32/23 Q1008 NOSIG", "fltcat": "VFR", "wind": "260° @ 9 kt", "vis": ">10 km", "clouds": "FEW027", "temp": 32, "dewp": 23, "qnh": "1008 hPa", "atis": [{"kind": "ARR", "time": "2026-07-19 17:26 UTC", "text": "VVTS ARR ATIS R 1600Z VVTS INFO R 1600Z. ILSW APCH IN RWY 25R.. LDG RWY 25R AND DEP RWY 25L.. 1600Z. WIND RWY 25R TDZ 280/6KT CAVOK T28 DP24 QNH 1008HPA TREND NOSIG. ADZ ON INITIAL CTC YOU HAVE INFO R."}, {"kind": "DEP", "time": "2026-07-19 13:16 UTC", "text": "VVTS DEP ATIS O 1430Z VVTS INFO O 1430Z. ILSW APCH IN RWY 25R.. LDG RWY 25R AND DEP RWY 25L.. 1430Z. WIND RWY 25R TDZ 290/5KT END 250/4KT CAVOK T28 DP25 QNH 1009HPA TREND NOSIG. ADZ ON INITIAL CTC YOU HAVE INFO O."}]}, {"icao": "VVTX", "name": "Tho Xuan — Thanh Hoa", "metar": "METAR VVTX 201100Z 21003KT 9999 FEW025 BKN060 33/24 Q1001 NOSIG", "speci": null, "taf": "TAF VVTX 200800Z 2009/2018 21006KT 9999 FEW025 TEMPO 2010/2014 4000 TSRA SCT015 FEW027CB", "raw": "METAR VVTX 201100Z 21003KT 9999 FEW025 BKN060 33/24 Q1001 NOSIG", "fltcat": "VFR", "wind": "210° @ 3 kt", "vis": ">10 km", "clouds": "FEW025 BKN060", "temp": 33, "dewp": 24, "qnh": "1001 hPa"}, {"icao": "VVVD", "name": "Van Don — Quang Ninh", "metar": "METAR VVVD 201100Z 11002KT 7000 -RA VCTS FEW014 FEW027CB BKN040 27/26 Q1003 NOSIG", "speci": null, "taf": "TAF VVVD 192300Z 2000/2024 VRB02KT 9999 FEW030 TEMPO 2007/2011 3200 TSRA SCT010 FEW027CB TEMPO 2021/2024 4000 SHRA SCT012 FEW022TCU", "raw": "METAR VVVD 201100Z 11002KT 7000 -RA VCTS FEW014 FEW027CB BKN040 27/26 Q1003 NOSIG", "fltcat": "MVFR", "wind": "110° @ 2 kt", "vis": "7.0 km", "clouds": "FEW014 FEW027 BKN040", "temp": 27, "dewp": 26, "qnh": "1003 hPa"}, {"icao": "VVVH", "name": "Vinh", "metar": "METAR VVVH 201100Z 24007KT 180V280 CAVOK 32/19 Q1003 NOSIG", "speci": null, "taf": "TAF VVVH 192300Z 2000/2024 24008KT 9999 FEW030", "raw": "METAR VVVH 201100Z 24007KT 180V280 CAVOK 32/19 Q1003 NOSIG", "fltcat": "VFR", "wind": "240° @ 7 kt", "vis": "CAVOK", "clouds": "NSC", "temp": 32, "dewp": 19, "qnh": "1003 hPa"}]}