{"updated": "2026-07-24T06:05:59+00:00", "source": "VN MET", "stations": [{"icao": "VVBM", "name": "Buon Ma Thuot", "metar": "METAR VVBM 240600Z 29008KT 260V320 9999 SCT013 FEW015CB BKN040 28/24 Q1008 NOSIG", "speci": null, "taf": "TAF VVBM 240500Z 2406/2506 25008KT 9999 SCT017 TEMPO 2408/2412 5000 TSRA SCT015 FEW017CB", "raw": "METAR VVBM 240600Z 29008KT 260V320 9999 SCT013 FEW015CB BKN040 28/24 Q1008 NOSIG", "fltcat": "VFR", "wind": "290° @ 8 kt", "vis": ">10 km", "clouds": "SCT013 FEW015 BKN040", "temp": 28, "dewp": 24, "qnh": "1008 hPa"}, {"icao": "VVCA", "name": "Chu Lai", "metar": "METAR VVCA 240600Z 07011KT 040V110 9999 FEW020 33/26 Q1003 NOSIG", "speci": null, "taf": "TAF VVCA 240500Z 2406/2415 07010KT 9999 FEW020 TEMPO 2408/2411 24015G25KT 4000 TSRA BKN013 FEW015CB BKN060 TEMPO 2411/2413 TS SCT013 FEW015CB BECMG 2413/2414 20006KT", "raw": "METAR VVCA 240600Z 07011KT 040V110 9999 FEW020 33/26 Q1003 NOSIG", "fltcat": "VFR", "wind": "070° @ 11 kt", "vis": ">10 km", "clouds": "FEW020", "temp": 33, "dewp": 26, "qnh": "1003 hPa"}, {"icao": "VVCI", "name": "Cat Bi — Hai Phong", "metar": "METAR VVCI 240600Z 05008KT 9999 FEW019 30/26 Q1005 NOSIG", "speci": null, "taf": "TAF VVCI 240500Z 2406/2506 09005KT 9999 FEW030 TEMPO 2408/2413 4000 TSRA BKN015 FEW027CB TEMPO 2416/2420 3000 TSRA BKN010 FEW027CB TEMPO 2422/2503 4000 TSRA BKN015 FEW027CB", "raw": "METAR VVCI 240600Z 05008KT 9999 FEW019 30/26 Q1005 NOSIG", "fltcat": "VFR", "wind": "050° @ 8 kt", "vis": ">10 km", "clouds": "FEW019", "temp": 30, "dewp": 26, "qnh": "1005 hPa"}, {"icao": "VVCR", "name": "Cam Ranh — Nha Trang", "metar": "METAR VVCR 240600Z 11009KT 090V150 9999 FEW021 34/22 Q1005 NOSIG", "speci": null, "taf": "TAF VVCR 240500Z 2406/2506 08012KT 9999 FEW020 TEMPO 2407/2412 TS SCT013 FEW015CB BECMG 2412/2413 30007KT", "raw": "METAR VVCR 240600Z 11009KT 090V150 9999 FEW021 34/22 Q1005 NOSIG", "fltcat": "VFR", "wind": "110° @ 9 kt", "vis": ">10 km", "clouds": "FEW021", "temp": 34, "dewp": 22, "qnh": "1005 hPa", "atis": [{"kind": "ARR", "time": "2026-07-22 05:32 UTC", "text": "VVCR ARR ATIS O 1300Z VVCR INFO O 1300Z. ILS YANKEE APPROACH IN USE. LDG RWY 20L AND DPTG RWY 20R.. 1300Z. WIND RWY 20L TDZ 190/7KT MID 190/8KT END 180/7KT RWY 20R TDZ 190/7KT VIS RWY 20L TDZ 10KM END 10KM CLD RWY 20L SCT 7200FT T31 DP24 QNH 1007HPA TREND NOSIG. ADZ ON INITIAL CTC YOU HAVE INFO O."}, {"kind": "DEP", "time": "2026-05-29 05:57 UTC", "text": "VVCR DEP ATIS S 0533Z VVCR INFO S 0533Z. ILS Z APCH IN USE.. LDG RWY 02R AND DPTG RWY 02L.. 0532Z. WIND RWY 02R TDZ 080/9KT MID 090/8KT END 100/8KT RWY 02L TDZ 080/8KT CAVOK T31 DP26 QNH 1009HPA TREND TEMPO FM0630 VIS 4000M MOD TSRA. ADZ ON INITIAL CTC YOU HAVE INFO S."}]}, {"icao": "VVCS", "name": "Con Dao", "metar": "METAR VVCS 240600Z 26012G23KT 220V310 8000 -SHRA BKN015 FEW017CB BKN040 26/25 Q1007 NOSIG", "speci": null, "taf": "TAF VVCS 240500Z 2406/2415 27010KT 9999 SCT017 TEMPO 2406/2410 27015G25KT 4000 TSRA SCT015 FEW017CB", "raw": "METAR VVCS 240600Z 26012G23KT 220V310 8000 -SHRA BKN015 FEW017CB BKN040 26/25 Q1007 NOSIG", "fltcat": "MVFR", "wind": "260° @ 12 kt G23", "vis": "8.0 km", "clouds": "BKN015 FEW017 BKN040", "temp": 26, "dewp": 25, "qnh": "1007 hPa"}, {"icao": "VVCT", "name": "Can Tho Intl", "metar": "METAR VVCT 240600Z 23010KT 9999 BKN015 29/25 Q1006 NOSIG", "speci": null, "taf": "TAF VVCT 240500Z 2406/2506 27010KT 9999 SCT017 TEMPO 2406/2410 27015G26KT 5000 TSRA SCT013 FEW015CB", "raw": "METAR VVCT 240600Z 23010KT 9999 BKN015 29/25 Q1006 NOSIG", "fltcat": "MVFR", "wind": "230° @ 10 kt", "vis": ">10 km", "clouds": "BKN015", "temp": 29, "dewp": 25, "qnh": "1006 hPa"}, {"icao": "VVDB", "name": "Dien Bien Phu", "metar": "METAR VVDB 240600Z 32003KT 250V030 CAVOK 29/22 Q1006 NOSIG", "speci": null, "taf": "TAF VVDB 240500Z 2406/2415 32005KT 8000 -RA SCT027 TEMPO 2407/2410 4000 TSRA SCT015 FEW027CB TEMPO 2412/2415 3500 SHRA SCT012 FEW025TCU", "raw": "METAR VVDB 240600Z 32003KT 250V030 CAVOK 29/22 Q1006 NOSIG", "fltcat": "VFR", "wind": "320° @ 3 kt", "vis": "CAVOK", "clouds": "NSC", "temp": 29, "dewp": 22, "qnh": "1006 hPa"}, {"icao": "VVDH", "name": "Dong Hoi", "metar": "METAR VVDH 240600Z 06010KT CAVOK 32/25 Q1003 NOSIG", "speci": null, "taf": "TAF VVDH 240500Z 2406/2415 24010KT 9999 FEW030 TEMPO 2411/2415 4000 TSRA SCT015 FEW027CB", "raw": "METAR VVDH 240600Z 06010KT CAVOK 32/25 Q1003 NOSIG", "fltcat": "VFR", "wind": "060° @ 10 kt", "vis": "CAVOK", "clouds": "NSC", "temp": 32, "dewp": 25, "qnh": "1003 hPa"}, {"icao": "VVDL", "name": "Lien Khuong — Da Lat", "metar": "METAR VVDL 240600Z 31010KT 9999 SCT013 FEW015TCU 29/20 Q1011 NOSIG", "speci": null, "taf": "TAF VVDL 240500Z 2406/2506 30010KT 9999 SCT013 TEMPO 2408/2412 4000 TSRA SCT013 FEW015CB", "raw": "METAR VVDL 240600Z 31010KT 9999 SCT013 FEW015TCU 29/20 Q1011 NOSIG", "fltcat": "VFR", "wind": "310° @ 10 kt", "vis": ">10 km", "clouds": "SCT013 FEW015", "temp": 29, "dewp": 20, "qnh": "1011 hPa"}, {"icao": "VVDN", "name": "Da Nang Intl", "metar": "METAR VVDN 240530Z 03013KT 9999 FEW020 33/27 Q1004 NOSIG", "speci": null, "taf": "TAF VVDN 240500Z 2406/2506 04012KT 9999 FEW020 TEMPO 2406/2408 TS SCT015 FEW017CB TEMPO 2408/2410 24015G27KT 4000 TSRA BKN013 FEW015CB BKN050 TEMPO 2410/2413 24015G28KT 2500 +TSRA BKN013 SCT015CB BKN050 BECMG 2414/2415 22006KT", "raw": "METAR VVDN 240530Z 03013KT 9999 FEW020 33/27 Q1004 NOSIG", "fltcat": "VFR", "wind": "030° @ 13 kt", "vis": ">10 km", "clouds": "FEW020", "temp": 33, "dewp": 27, "qnh": "1004 hPa", "atis": [{"kind": "ARR", "time": "2026-07-24 05:12 UTC", "text": "VVDN ARR ATIS H 0502Z VVDN INFO H 0502Z. ILS VICTOR APPROACH 35L.. DPTG RWY 35R.. 0502Z. WIND 020/13KT VIS 10KM CLD FEW 2700FT T32 DP26 QNH 1004HPA TREND NOSIG. ADZ ON INITIAL CTC YOU HAVE INFO. H."}, {"kind": "DEP", "time": "2026-07-22 10:38 UTC", "text": "VVDN DEP ATIS G 1432Z VVDN INFO G 1432Z. ILS VICTOR APPROACH 35L.. DPTG RWY 35R.. 1432Z. WIND VRB/01KT CAVOK T32 DP24 QNH 1004HPA TREND NOSIG. ADZ ON INITIAL CTC YOU HAVE INFO. G."}]}, {"icao": "VVNB", "name": "Noi Bai — Ha Noi", "metar": "METAR VVNB 240600Z 07005KT 350V100 9999 FEW020 FEW030CB 31/27 Q1005 TEMPO FM0615 TL0715 3500 TSRA", "speci": null, "taf": "TAF VVNB 240500Z 2406/2506 12005KT 9999 SCT020 TEMPO 2406/2411 3500 TSRA BKN012 FEW027CB TEMPO 2414/2418 3500 TSRA BKN012 FEW027CB TEMPO 2420/2501 3200 TSRA BKN010 FEW027CB", "raw": "METAR VVNB 240600Z 07005KT 350V100 9999 FEW020 FEW030CB 31/27 Q1005 TEMPO FM0615 TL0715 3500 TSRA", "fltcat": "VFR", "wind": "070° @ 5 kt", "vis": ">10 km", "clouds": "FEW020 FEW030", "temp": 31, "dewp": 27, "qnh": "1005 hPa", "atis": [{"kind": "ARR", "time": "2026-07-24 02:09 UTC", "text": "VVNB ARR ATIS R 0401Z VVNB INFO R 0401Z. ILS X RWY 11L. DPTG RWY 11R AND ARR RWY 11L .. 0401Z. WIND 030/6KT CAVOK T34 DP28 QNH 1002HPA TREND NOSIG. ADZ ON INITIAL CTC YOU HAVE INFO R."}, {"kind": "DEP", "time": "2026-07-24 01:10 UTC", "text": "VVNB DEP ATIS Q 0330Z VVNB INFO Q 0330Z. ILS X RWY 11L. DPTG RWY 11R AND ARR RWY 11L .. 0330Z. WIND 030/8KT CAVOK T34 DP28 QNH 1002HPA TREND NOSIG. ADZ ON INITIAL CTC YOU HAVE INFO Q."}]}, {"icao": "VVPB", "name": "Phu Bai — Hue", "metar": "METAR VVPB 240600Z 06010KT 9999 FEW017 34/24 Q1004 NOSIG", "speci": null, "taf": "TAF VVPB 240500Z 2406/2506 05010KT 9999 FEW020 TEMPO 2406/2408 TS SCT013 FEW015CB SCT060 TEMPO 2408/2412 25015G25KT 3500 TSRA BKN013 FEW015CB BKN050 BECMG 2414/2415 23005KT", "raw": "METAR VVPB 240600Z 06010KT 9999 FEW017 34/24 Q1004 NOSIG", "fltcat": "VFR", "wind": "060° @ 10 kt", "vis": ">10 km", "clouds": "FEW017", "temp": 34, "dewp": 24, "qnh": "1004 hPa"}, {"icao": "VVPC", "name": "Phu Cat — Quy Nhon", "metar": "METAR VVPC 240600Z VRB03KT 9999 FEW053 37/22 Q1003 NOSIG", "speci": null, "taf": "TAF VVPC 240500Z 2406/2506 26011KT 9999 FEW020 TEMPO 2406/2408 TS SCT013 FEW015CB TEMPO 2408/2412 26015G25KT 4500 TSRA BKN013 FEW015CB BKN050 TEMPO 2412/2414 TS BKN013 FEW015CB BKN050", "raw": "METAR VVPC 240600Z VRB03KT 9999 FEW053 37/22 Q1003 NOSIG", "fltcat": "VFR", "wind": "VRB @ 3 kt", "vis": ">10 km", "clouds": "FEW053", "temp": 37, "dewp": 22, "qnh": "1003 hPa"}, {"icao": "VVPK", "name": "Pleiku", "metar": "METAR VVPK 240600Z 24009KT 200V280 9999 SCT020 28/22 Q1009 NOSIG", "speci": null, "taf": "TAF VVPK 240500Z 2406/2506 25010KT 9999 FEW015 SCT050 TEMPO 2407/2412 4000 TSRA BKN008 BKN013 FEW015CB TEMPO 2422/2424 2000 RA BR BKN003 BKN006 TEMPO 2500/2503 4000 RA BR BKN004 BKN008", "raw": "METAR VVPK 240600Z 24009KT 200V280 9999 SCT020 28/22 Q1009 NOSIG", "fltcat": "VFR", "wind": "240° @ 9 kt", "vis": ">10 km", "clouds": "SCT020", "temp": 28, "dewp": 22, "qnh": "1009 hPa"}, {"icao": "VVPQ", "name": "Phu Quoc Intl", "metar": "METAR VVPQ 240530Z 28012KT 9999 SCT015 31/30 Q1007 NOSIG", "speci": null, "taf": "TAF VVPQ 240500Z 2406/2506 30012KT 9999 SCT015 TEMPO 2406/2410 30015G26KT 5000 TSRA SCT013 FEW015CB TEMPO 2422/2502 5000 TSRA SCT013 FEW015CB", "raw": "METAR VVPQ 240530Z 28012KT 9999 SCT015 31/30 Q1007 NOSIG", "fltcat": "VFR", "wind": "280° @ 12 kt", "vis": ">10 km", "clouds": "SCT015", "temp": 31, "dewp": 30, "qnh": "1007 hPa"}, {"icao": "VVRG", "name": "Rach Gia", "metar": "METAR VVRG 240600Z 22009KT 9999 SCT013 FEW017TCU BKN040 30/27 Q1006 NOSIG", "speci": null, "taf": "TAF VVRG 240500Z 2406/2415 25008KT 9999 SCT015 SCT040 TEMPO 2407/2411 5000 TSRA SCT013 FEW015CB BKN040", "raw": "METAR VVRG 240600Z 22009KT 9999 SCT013 FEW017TCU BKN040 30/27 Q1006 NOSIG", "fltcat": "VFR", "wind": "220° @ 9 kt", "vis": ">10 km", "clouds": "SCT013 FEW017 BKN040", "temp": 30, "dewp": 27, "qnh": "1006 hPa"}, {"icao": "VVTH", "name": "Dong Tac — Tuy Hoa", "metar": "METAR VVTH 240600Z 24011KT CAVOK 36/21 Q1004 NOSIG", "speci": null, "taf": "TAF VVTH 240500Z 2406/2415 25013KT 9999 FEW020 TEMPO 2407/2412 TS SCT013 FEW015CB", "raw": "METAR VVTH 240600Z 24011KT CAVOK 36/21 Q1004 NOSIG", "fltcat": "VFR", "wind": "240° @ 11 kt", "vis": "CAVOK", "clouds": "NSC", "temp": 36, "dewp": 21, "qnh": "1004 hPa"}, {"icao": "VVTS", "name": "Tan Son Nhat — Ho Chi Minh City", "metar": "METAR VVTS 240600Z 32008KT 270V350 9999 SCT029 FEW031TCU 34/25 Q1005 TEMPO FM0700 TL0735 4000 SHRA", "speci": null, "taf": "TAF AMD VVTS 240543Z 2406/2512 28010KT 9999 SCT017 TEMPO 2406/2408 5000 TSRA SCT015 FEW017CB TEMPO 2408/2412 28015G30KT 2000 +TSRA BKN013 SCT015CB TEMPO 2412/2416 5000 SHRA SCT015 FEW017CB BKN040 TEMPO 2507/2511 28015G28KT 3000 TSRA SCT013 SCT015CB", "raw": "METAR VVTS 240600Z 32008KT 270V350 9999 SCT029 FEW031TCU 34/25 Q1005 TEMPO FM0700 TL0735 4000 SHRA", "fltcat": "VFR", "wind": "320° @ 8 kt", "vis": ">10 km", "clouds": "SCT029 FEW031", "temp": 34, "dewp": 25, "qnh": "1005 hPa", "atis": [{"kind": "ARR", "time": "2026-07-24 05:26 UTC", "text": "VVTS ARR ATIS P 0500Z VVTS INFO P 0500Z. ILSW APCH IN RWY 25R.. LDG RWY 25R AND DEP RWY 25L.. 0500Z. WIND RWY 25R TDZ 290/10KT MAX18 MNM7 VIS 10KM CLD FEW 4000FT SCT 9100FT T35 DP26 QNH 1007HPA TREND TEMPO FM0630 200/16KT MAX28 VIS 4000M MOD TSRA CLD SCT 1500FT FEW CB 1700FT. ADZ ON INITIAL CTC YOU HAVE INFO P."}, {"kind": "DEP", "time": "2026-07-23 04:13 UTC", "text": "VVTS DEP ATIS Y 2030Z VVTS INFO Y 2030Z. ILSW APCH IN RWY 25R.. LDG RWY 25R AND DEP RWY 25L.. 2030Z. WIND RWY 25R TDZ 240/8KT MAX15 MNM6 END 240/8KT VIS 10KM CLD FEW 1600FT T29 DP27 QNH 1007HPA TREND NOSIG. ADZ ON INITIAL CTC YOU HAVE INFO Y."}]}, {"icao": "VVTX", "name": "Tho Xuan — Thanh Hoa", "metar": "METAR VVTX 240600Z 11007KT 9999 FEW025 BKN050 32/23 Q1003 NOSIG", "speci": null, "taf": "TAF VVTX 240500Z 2406/2415 12005KT 9999 FEW030 TEMPO 2407/2411 4000 TSRA SCT015 FEW027CB", "raw": "METAR VVTX 240600Z 11007KT 9999 FEW025 BKN050 32/23 Q1003 NOSIG", "fltcat": "VFR", "wind": "110° @ 7 kt", "vis": ">10 km", "clouds": "FEW025 BKN050", "temp": 32, "dewp": 23, "qnh": "1003 hPa"}, {"icao": "VVVD", "name": "Van Don — Quang Ninh", "metar": "METAR VVVD 240600Z VRB02KT 9999 SCT017 BKN045 27/27 Q1006 NOSIG", "speci": null, "taf": "TAF VVVD 240500Z 2406/2506 12005KT 9999 SCT015 BKN030 TEMPO 2406/2411 4000 TSRA BKN015 FEW027CB TEMPO 2415/2420 3000 TSRA BKN010 FEW027CB TEMPO 2422/2503 4000 TSRA SCT015 FEW027CB", "raw": "METAR VVVD 240600Z VRB02KT 9999 SCT017 BKN045 27/27 Q1006 NOSIG", "fltcat": "VFR", "wind": "VRB @ 2 kt", "vis": ">10 km", "clouds": "SCT017 BKN045", "temp": 27, "dewp": 27, "qnh": "1006 hPa"}, {"icao": "VVVH", "name": "Vinh", "metar": "METAR VVVH 240600Z 05008KT 360V100 9999 FEW040 32/24 Q1004 NOSIG", "speci": null, "taf": "TAF VVVH 240500Z 2406/2506 21005KT 9999 FEW030 TEMPO 2408/2412 4000 TSRA SCT015 FEW027CB TEMPO 2414/2418 3500 TSRA SCT010 FEW027CB", "raw": "METAR VVVH 240600Z 05008KT 360V100 9999 FEW040 32/24 Q1004 NOSIG", "fltcat": "VFR", "wind": "050° @ 8 kt", "vis": ">10 km", "clouds": "FEW040", "temp": 32, "dewp": 24, "qnh": "1004 hPa"}]}