{"updated": "2026-07-10T17:19:12+00:00", "source": "VN MET", "stations": [{"icao": "VVBM", "name": "Buon Ma Thuot", "metar": "METAR VVBM 101700Z 23007KT 210V270 9999 SCT013 25/21 Q1010 NOSIG", "speci": null, "taf": "TAF VVBM 100500Z 1006/1106 22008KT 9999 SCT013 SCT040 TEMPO 1009/1013 28015G25KT 5000 TSRA SCT013 FEW015CB BKN040", "raw": "METAR VVBM 101700Z 23007KT 210V270 9999 SCT013 25/21 Q1010 NOSIG", "fltcat": "VFR", "wind": "230° @ 7 kt", "vis": ">10 km", "clouds": "SCT013", "temp": 25, "dewp": 21, "qnh": "1010 hPa"}, {"icao": "VVCA", "name": "Chu Lai", "metar": "METAR VVCA 101700Z AUTO 17003KT 9999 BKN120/// BKN190/// 27/27 Q1002 REDZ", "speci": null, "taf": "TAF VVCA 100500Z 1006/1015 31008KT 9999 FEW020 SCT070", "raw": "METAR VVCA 101700Z AUTO 17003KT 9999 BKN120/// BKN190/// 27/27 Q1002 REDZ", "fltcat": "VFR", "wind": "170° @ 3 kt", "vis": ">10 km", "clouds": "BKN120 BKN190", "temp": 27, "dewp": 27, "qnh": "1002 hPa"}, {"icao": "VVCI", "name": "Cat Bi — Hai Phong", "metar": "METAR VVCI 101700Z 05002KT CAVOK 28/25 Q1000 NOSIG", "speci": null, "taf": "TAF VVCI 100500Z 1006/1106 12005KT 9999 SCT020 BKN040 TEMPO 1008/1013 3500 TSRA BKN012 FEW027CB TEMPO 1020/1024 3500 TSRA BKN012 FEW027CB", "raw": "METAR VVCI 101700Z 05002KT CAVOK 28/25 Q1000 NOSIG", "fltcat": "VFR", "wind": "050° @ 2 kt", "vis": "CAVOK", "clouds": "NSC", "temp": 28, "dewp": 25, "qnh": "1000 hPa"}, {"icao": "VVCR", "name": "Cam Ranh — Nha Trang", "metar": "METAR VVCR 101700Z 19010KT CAVOK 30/24 Q1006 NOSIG", "speci": null, "taf": "TAF VVCR 100500Z 1006/1106 08010KT 9999 FEW020 BECMG 1012/1013 21008KT", "raw": "METAR VVCR 101700Z 19010KT CAVOK 30/24 Q1006 NOSIG", "fltcat": "VFR", "wind": "190° @ 10 kt", "vis": "CAVOK", "clouds": "NSC", "temp": 30, "dewp": 24, "qnh": "1006 hPa", "atis": [{"kind": "ARR", "time": "2026-07-10 05:14 UTC", "text": "VVCR ARR ATIS P 0501Z VVCR INFO P 0501Z. ILS-DME YANKEE APPROACH IN USE. LDG RWY 20L AND DPTG RWY 20R.. 0501Z. WIND RWY 20L TDZ 110/10KT MID 090/9KT END 090/9KT RWY 20R TDZ 100/8KT CAVOK T35 DP23 QNH 1"}, {"kind": "DEP", "time": "2026-05-29 05:57 UTC", "text": "VVCR DEP ATIS S 0533Z VVCR INFO S 0533Z. ILS Z APCH IN USE.. LDG RWY 02R AND DPTG RWY 02L.. 0532Z. WIND RWY 02R TDZ 080/9KT MID 090/8KT END 100/8KT RWY 02L TDZ 080/8KT CAVOK T31 DP26 QNH 1009HPA TREND TEMPO FM0630 VIS 4000M MOD TSRA. ADZ ON INITIAL CTC YOU HAVE INFO S."}]}, {"icao": "VVCT", "name": "Can Tho Intl", "metar": "METAR VVCT 101700Z 19001KT 9999 FEW015 26/26 Q1009 NOSIG", "speci": null, "taf": "TAF VVCT 100500Z 1006/1106 25008KT 9999 SCT015 SCT040 TEMPO 1006/1010 TS SCT013 FEW015CB BKN040 TEMPO 1100/1104 25015G25KT 3000 TSRA BKN013 FEW015CB", "raw": "METAR VVCT 101700Z 19001KT 9999 FEW015 26/26 Q1009 NOSIG", "fltcat": "VFR", "wind": "190° @ 1 kt", "vis": ">10 km", "clouds": "FEW015", "temp": 26, "dewp": 26, "qnh": "1009 hPa"}, {"icao": "VVDB", "name": "Dien Bien Phu", "metar": "METAR VVDB 101700Z AUTO VRB01KT 9999 // SCT027/// OVC036/// 26/25 Q1004 RE//", "speci": null, "taf": "TAF VVDB 100500Z 1006/1015 21005KT 9999 SCT020 TEMPO 1007/1012 3500 TSRA SCT015 FEW027CB", "raw": "METAR VVDB 101700Z AUTO VRB01KT 9999 // SCT027/// OVC036/// 26/25 Q1004 RE//", "fltcat": "VFR", "wind": "VRB @ 1 kt", "vis": ">10 km", "clouds": "SCT027 OVC036", "temp": 26, "dewp": 25, "qnh": "1004 hPa"}, {"icao": "VVDH", "name": "Dong Hoi", "metar": "METAR VVDH 101700Z AUTO 25009KT 210V290 9999 FEW082/// BKN180/// 30/23 Q1001", "speci": null, "taf": "TAF VVDH 100500Z 1006/1015 24010KT 9999 FEW020 TEMPO 1006/1007 24015G25KT", "raw": "METAR VVDH 101700Z AUTO 25009KT 210V290 9999 FEW082/// BKN180/// 30/23 Q1001", "fltcat": "VFR", "wind": "250° @ 9 kt", "vis": ">10 km", "clouds": "FEW082 BKN180", "temp": 30, "dewp": 23, "qnh": "1001 hPa"}, {"icao": "VVDN", "name": "Da Nang Intl", "metar": "METAR VVDN 101700Z 23004KT 9999 FEW020 SCT070 30/22 Q1003 NOSIG", "speci": null, "taf": "TAF VVDN 100500Z 1006/1106 23010KT 9999 SCT020 BKN070 BECMG 1011/1012 29007KT", "raw": "METAR VVDN 101700Z 23004KT 9999 FEW020 SCT070 30/22 Q1003 NOSIG", "fltcat": "VFR", "wind": "230° @ 4 kt", "vis": ">10 km", "clouds": "FEW020 SCT070", "temp": 30, "dewp": 22, "qnh": "1003 hPa", "atis": [{"kind": "ARR", "time": "2026-07-10 11:33 UTC", "text": "VVDN ARR ATIS K 1432Z VVDN INFO K 1432Z. ILS VICTOR APPROACH 35L.. DPTG RWY 35R.. 1432Z. WIND 340/01KT CAVOK T30 DP24 QNH 1009HPA TREND NOSIG. ADZ ON INITIAL CTC YOU HAVE INFO. K."}, {"kind": "DEP", "time": "2026-07-09 06:26 UTC", "text": "VVDN DEP ATIS R 0503Z VVDN INFO R 0503Z. ILS VICTOR APPROACH 35L.. DPTG RWY 35R.. 0502Z. WIND 090/05KT VRB BTN 070/ AND 140/ CAVOK T37 DP23 QNH 1007HPA TREND NOSIG. ADZ ON INITIAL CTC YOU HAVE INFO. R."}]}, {"icao": "VVNB", "name": "Noi Bai — Ha Noi", "metar": "METAR VVNB 101700Z 03005KT 8000 FEW004 SCT076 27/26 Q1000 NOSIG", "speci": null, "taf": "TAF VVNB 100500Z 1006/1106 26005KT 9999 SCT020 BKN040 TEMPO 1006/1012 2500 +TSRA BKN010 FEW027CB TEMPO 1021/1101 3000 TSRA BKN012 FEW027CB", "raw": "METAR VVNB 101700Z 03005KT 8000 FEW004 SCT076 27/26 Q1000 NOSIG", "fltcat": "MVFR", "wind": "030° @ 5 kt", "vis": "8.0 km", "clouds": "FEW004 SCT076", "temp": 27, "dewp": 26, "qnh": "1000 hPa", "atis": [{"kind": "ARR", "time": "2026-07-10 15:52 UTC", "text": "VVNB ARR ATIS S 1601Z VVNB INFO S 1601Z. ILS X RWY 11L. DPTG RWY 11R AND ARR RWY 11L .. 1601Z. WIND 070/6KT VIS 10KM FBL RA CLD NSC T25 DP25 QNH 1007HPA TREND NOSIG. RWY CONDITION REPORT 5 5 5.. ADZ ON INITIAL CTC YOU HAVE INFO S."}, {"kind": "DEP", "time": "2026-07-10 17:12 UTC", "text": "VVNB DEP ATIS T 1630Z VVNB INFO T 1630Z. ILS X RWY 11L. DPTG RWY 11R AND ARR RWY 11L .. 1630Z. WIND 080/5KT VIS 10KM FBL RA CLD FEW 1400FT T26 DP25 QNH 1007HPA TREND NOSIG. RWY CONDITION REPORT 5 5 5.. ADZ ON INITIAL CTC YOU HAVE INFO T."}]}, {"icao": "VVPB", "name": "Phu Bai — Hue", "metar": "METAR VVPB 101700Z 24005KT 9999 FEW020 SCT070 31/20 Q1002 NOSIG", "speci": null, "taf": "TAF VVPB 100500Z 1006/1106 25010KT 9999 SCT017 SCT060", "raw": "METAR VVPB 101700Z 24005KT 9999 FEW020 SCT070 31/20 Q1002 NOSIG", "fltcat": "VFR", "wind": "240° @ 5 kt", "vis": ">10 km", "clouds": "FEW020 SCT070", "temp": 31, "dewp": 20, "qnh": "1002 hPa"}, {"icao": "VVPC", "name": "Phu Cat — Quy Nhon", "metar": "METAR VVPC 101700Z AUTO 24007KT 9999 SCT140/// SCT180/// 30/22 Q1004", "speci": null, "taf": "TAF VVPC 100500Z 1006/1106 26013KT 9999 FEW020 SCT050 TEMPO 1006/1012 26015G25KT TEMPO 1100/1106 26017G27KT", "raw": "METAR VVPC 101700Z AUTO 24007KT 9999 SCT140/// SCT180/// 30/22 Q1004", "fltcat": "VFR", "wind": "240° @ 7 kt", "vis": ">10 km", "clouds": "SCT140 SCT180", "temp": 30, "dewp": 22, "qnh": "1004 hPa"}, {"icao": "VVPK", "name": "Pleiku", "metar": "METAR VVPK 101700Z AUTO 26010G20KT 230V290 9999 OVC004/// 22/21 Q1011", "speci": null, "taf": "TAF VVPK 100500Z 1006/1106 28016KT 9999 SCT015 SCT050 TEMPO 1006/1012 28017G27KT TEMPO 1022/1101 3500 RA BR BKN003 BKN006 TEMPO 1101/1106 28018G28KT", "raw": "METAR VVPK 101700Z AUTO 26010G20KT 230V290 9999 OVC004/// 22/21 Q1011", "fltcat": "LIFR", "wind": "260° @ 10 kt G20", "vis": ">10 km", "clouds": "OVC004", "temp": 22, "dewp": 21, "qnh": "1011 hPa"}, {"icao": "VVPQ", "name": "Phu Quoc Intl", "metar": "METAR VVPQ 101700Z 26010KT 9999 SCT015 29/28 Q1010 NOSIG", "speci": null, "taf": "TAF VVPQ 100500Z 1006/1106 27010KT 9999 SCT015 PROB30 TEMPO 1006/1009 27015G28KT 5000 TSRA SCT015 FEW017CB TEMPO 1022/1102 27015G28KT 5000 TSRA SCT015 FEW017CB", "raw": "METAR VVPQ 101700Z 26010KT 9999 SCT015 29/28 Q1010 NOSIG", "fltcat": "VFR", "wind": "260° @ 10 kt", "vis": ">10 km", "clouds": "SCT015", "temp": 29, "dewp": 28, "qnh": "1010 hPa"}, {"icao": "VVTH", "name": "Dong Tac — Tuy Hoa", "metar": "METAR VVTH 101700Z AUTO 26011KT 220V290 CAVOK 31/22 Q1004", "speci": "SPECI VVTH 101716Z AUTO 26013KT 230V330 9999 SCT063 32/22 Q1004", "taf": "TAF VVTH 100500Z 1006/1015 26017KT 9999 FEW015 SCT060 TEMPO 1006/1013 26020G30KT", "raw": "SPECI VVTH 101716Z AUTO 26013KT 230V330 9999 SCT063 32/22 Q1004", "fltcat": "VFR", "wind": "260° @ 13 kt", "vis": ">10 km", "clouds": "SCT063", "temp": 32, "dewp": 22, "qnh": "1004 hPa"}, {"icao": "VVTS", "name": "Tan Son Nhat — Ho Chi Minh City", "metar": "METAR VVTS 101700Z 24010KT CAVOK 29/26 Q1008 NOSIG", "speci": null, "taf": "TAF VVTS 100500Z 1006/1112 27012KT 9999 SCT017 TEMPO 1007/1010 27016G28KT 5000 SHRA SCT015 FEW017CB", "raw": "METAR VVTS 101700Z 24010KT CAVOK 29/26 Q1008 NOSIG", "fltcat": "VFR", "wind": "240° @ 10 kt", "vis": "CAVOK", "clouds": "NSC", "temp": 29, "dewp": 26, "qnh": "1008 hPa", "atis": [{"kind": "ARR", "time": "2026-07-10 16:36 UTC", "text": "VVTS ARR ATIS U 1600Z VVTS INFO U 1600Z. ILSW APCH IN RWY 25R.. LDG RWY 25R AND DEP RWY 25L.. 1600Z. WIND RWY 25R TDZ 210/8KT VRB BTN 180/ AND 250/ VIS 10KM CLD BKN 1900FT T29 DP25 QNH 1011HPA TREND NOSIG. ADZ ON INITIAL CTC YOU HAVE INFO U."}, {"kind": "DEP", "time": "2026-07-10 08:04 UTC", "text": "VVTS DEP ATIS P 1330Z VVTS INFO P 1330Z. ILSW APCH IN RWY 25R.. LDG RWY 25R AND DEP RWY 25L.. 1330Z. WIND RWY 25R TDZ 260/3KT VRB BTN 210/ AND 290/ VIS 10KM CLD FEW 3100FT T30 DP24 QNH 1010HPA TREND NOSIG. ADZ ON INITIAL CTC YOU HAVE INFO P."}]}, {"icao": "VVTX", "name": "Tho Xuan — Thanh Hoa", "metar": "METAR VVTX 101700Z AUTO 12002KT CAVOK 27/25 Q1000 NOSIG", "speci": null, "taf": null, "raw": "METAR VVTX 101700Z AUTO 12002KT CAVOK 27/25 Q1000 NOSIG", "fltcat": "VFR", "wind": "120° @ 2 kt", "vis": "CAVOK", "clouds": "NSC", "temp": 27, "dewp": 25, "qnh": "1000 hPa"}, {"icao": "VVVD", "name": "Van Don — Quang Ninh", "metar": "METAR VVVD 101700Z AUTO 17002KT 9999 FEW009/// BKN019/// 27/27 Q1001", "speci": null, "taf": "TAF VVVD 100500Z 1006/1106 08005KT 9999 SCT017 BKN040 TEMPO 1008/1014 3500 TSRA BKN012 FEW027CB TEMPO 1020/1024 3500 TSRA BKN012 FEW027CB", "raw": "METAR VVVD 101700Z AUTO 17002KT 9999 FEW009/// BKN019/// 27/27 Q1001", "fltcat": "MVFR", "wind": "170° @ 2 kt", "vis": ">10 km", "clouds": "FEW009 BKN019", "temp": 27, "dewp": 27, "qnh": "1001 hPa"}, {"icao": "VVVH", "name": "Vinh", "metar": "METAR VVVH 101700Z 23004KT 190V270 CAVOK 30/21 Q1000 NOSIG", "speci": null, "taf": "TAF VVVH 100500Z 1006/1106 22010KT 9999 FEW020", "raw": "METAR VVVH 101700Z 23004KT 190V270 CAVOK 30/21 Q1000 NOSIG", "fltcat": "VFR", "wind": "230° @ 4 kt", "vis": "CAVOK", "clouds": "NSC", "temp": 30, "dewp": 21, "qnh": "1000 hPa"}]}