{"updated": "2026-07-13T16:59:37+00:00", "source": "VN MET", "stations": [{"icao": "VVBM", "name": "Buon Ma Thuot", "metar": "METAR VVBM 131630Z 24003KT 9999 SCT013 24/22 Q1011 NOSIG", "speci": null, "taf": "TAF VVBM 122300Z 1300/1324 24009KT 9999 SCT012 SCT040 TEMPO 1305/1308 5000 TSRA SCT010 FEW013CB BKN040 TEMPO 1308/1313 24015G28KT 3000 TSRA BKN010 SCT013CB BKN040", "raw": "METAR VVBM 131630Z 24003KT 9999 SCT013 24/22 Q1011 NOSIG", "fltcat": "VFR", "wind": "240° @ 3 kt", "vis": ">10 km", "clouds": "SCT013", "temp": 24, "dewp": 22, "qnh": "1011 hPa"}, {"icao": "VVCA", "name": "Chu Lai", "metar": "METAR VVCA 131630Z AUTO VRB01KT 9999 SCT140/// BKN220/// 28/26 Q1004", "speci": null, "taf": "TAF VVCA 122300Z 1300/1309 09010KT 9999 FEW020", "raw": "METAR VVCA 131630Z AUTO VRB01KT 9999 SCT140/// BKN220/// 28/26 Q1004", "fltcat": "VFR", "wind": "VRB @ 1 kt", "vis": ">10 km", "clouds": "SCT140 BKN220", "temp": 28, "dewp": 26, "qnh": "1004 hPa"}, {"icao": "VVCI", "name": "Cat Bi — Hai Phong", "metar": "METAR VVCI 131630Z 12002KT CAVOK 30/27 Q1003 NOSIG", "speci": null, "taf": "TAF AMD VVCI 130200Z 1302/1324 12005KT 9999 FEW030 TEMPO 1307/1311 4000 TSRA SCT010 FEW027CB", "raw": "METAR VVCI 131630Z 12002KT CAVOK 30/27 Q1003 NOSIG", "fltcat": "VFR", "wind": "120° @ 2 kt", "vis": "CAVOK", "clouds": "NSC", "temp": 30, "dewp": 27, "qnh": "1003 hPa"}, {"icao": "VVCR", "name": "Cam Ranh — Nha Trang", "metar": "METAR VVCR 131630Z 19015KT CAVOK 28/24 Q1008 NOSIG", "speci": null, "taf": "TAF VVCR 122300Z 1300/1324 20014KT 9999 FEW017", "raw": "METAR VVCR 131630Z 19015KT CAVOK 28/24 Q1008 NOSIG", "fltcat": "VFR", "wind": "190° @ 15 kt", "vis": "CAVOK", "clouds": "NSC", "temp": 28, "dewp": 24, "qnh": "1008 hPa", "atis": [{"kind": "ARR", "time": "2026-07-13 09:29 UTC", "text": "VVCR ARR ATIS W 1330Z VVCR INFO W 1330Z. ILS YANKEE APPROACH IN USE. LDG RWY 20L AND DPTG RWY 20R.. 1330Z. WIND RWY 20L TDZ 330/3KT VRB BTN 260/ AND 360/ MID 310/3KT VRB BTN 280/ AND 340/ END 320/3KT RWY 20R TDZ 320/1KT CAVOK T29 DP25 QNH 1010HPA TREND NOSIG. ADZ ON INITIAL CTC YOU HAVE INFO W."}, {"kind": "DEP", "time": "2026-05-29 05:57 UTC", "text": "VVCR DEP ATIS S 0533Z VVCR INFO S 0533Z. ILS Z APCH IN USE.. LDG RWY 02R AND DPTG RWY 02L.. 0532Z. WIND RWY 02R TDZ 080/9KT MID 090/8KT END 100/8KT RWY 02L TDZ 080/8KT CAVOK T31 DP26 QNH 1009HPA TREND TEMPO FM0630 VIS 4000M MOD TSRA. ADZ ON INITIAL CTC YOU HAVE INFO S."}]}, {"icao": "VVCT", "name": "Can Tho Intl", "metar": "METAR VVCT 131630Z 16003KT 9999 -RA SCT013 FEW015CB BKN040 25/25 Q1010 NOSIG", "speci": null, "taf": "TAF VVCT 122300Z 1300/1324 23009KT 9999 SCT013 SCT040 TEMPO 1300/1304 5000 TSRA SCT013 FEW015CB BKN040 TEMPO 1304/1308 23015G26KT 3000 TSRA SCT013 SCT015CB BKN040 TEMPO 1308/1312 5000 TSRA SCT013 FEW015CB BKN040", "raw": "METAR VVCT 131630Z 16003KT 9999 -RA SCT013 FEW015CB BKN040 25/25 Q1010 NOSIG", "fltcat": "VFR", "wind": "160° @ 3 kt", "vis": ">10 km", "clouds": "SCT013 FEW015 BKN040", "temp": 25, "dewp": 25, "qnh": "1010 hPa"}, {"icao": "VVDB", "name": "Dien Bien Phu", "metar": "METAR VVDB 131630Z AUTO 20004KT 160V230 9999 // FEW028/// BKN051/// 26/24 Q1006 RE//", "speci": null, "taf": "TAF VVDB 122300Z 1300/1309 VRB02KT 6000 SCT015 BKN030 TEMPO 1300/1304 4000 TSRA SCT010 FEW027CB BKN030 TEMPO 1307/1309 4000 TSRA SCT012 FEW027CB BKN030", "raw": "METAR VVDB 131630Z AUTO 20004KT 160V230 9999 // FEW028/// BKN051/// 26/24 Q1006 RE//", "fltcat": "VFR", "wind": "200° @ 4 kt", "vis": ">10 km", "clouds": "FEW028 BKN051", "temp": 26, "dewp": 24, "qnh": "1006 hPa"}, {"icao": "VVDH", "name": "Dong Hoi", "metar": "METAR VVDH 131630Z AUTO 20002KT 9999 FEW086/// BKN110/// 28/25 Q1004", "speci": null, "taf": "TAF VVDH 122300Z 1300/1309 21008KT 8000 FEW030 TEMPO 1300/1305 4000 SHRA SCT010 FEW025TCU TEMPO 1306/1309 4000 TSRA SCT015 FEW027CB", "raw": "METAR VVDH 131630Z AUTO 20002KT 9999 FEW086/// BKN110/// 28/25 Q1004", "fltcat": "VFR", "wind": "200° @ 2 kt", "vis": ">10 km", "clouds": "FEW086 BKN110", "temp": 28, "dewp": 25, "qnh": "1004 hPa"}, {"icao": "VVDN", "name": "Da Nang Intl", "metar": "METAR VVDN 131630Z VRB02KT 9999 FEW017 BKN080 28/26 Q1005 NOSIG", "speci": null, "taf": "TAF VVDN 122300Z 1300/1324 22008KT 9999 FEW017 SCT060 PROB40 TEMPO 1309/1313 24015G25KT 4500 TSRA BKN013 FEW015CB BKN050", "raw": "METAR VVDN 131630Z VRB02KT 9999 FEW017 BKN080 28/26 Q1005 NOSIG", "fltcat": "VFR", "wind": "VRB @ 2 kt", "vis": ">10 km", "clouds": "FEW017 BKN080", "temp": 28, "dewp": 26, "qnh": "1005 hPa", "atis": [{"kind": "ARR", "time": "2026-07-13 08:47 UTC", "text": "VVDN ARR ATIS H 1332Z VVDN INFO H 1332Z. ILS VICTOR APPROACH 35L.. DPTG RWY 35R.. 1332Z. WIND 260/01KT CAVOK T31 DP25 QNH 1009HPA TREND NOSIG. ADZ ON INITIAL CTC YOU HAVE INFO. H."}, {"kind": "DEP", "time": "2026-07-12 02:50 UTC", "text": "VVDN DEP ATIS N 0423Z VVDN INFO N 0423Z. ILS VICTOR APPROACH 35L.. DPTG RWY 35R.. 0423Z. WIND 010/02KT CAVOK T36 DP24 QNH 1008HPA TREND NOSIG. WS ALL RWY. ADZ ON INITIAL CTC YOU HAVE INFO. N."}]}, {"icao": "VVNB", "name": "Noi Bai — Ha Noi", "metar": "METAR VVNB 131630Z 14007KT 120V180 CAVOK 30/27 Q1003 NOSIG", "speci": null, "taf": "TAF AMD VVNB 130200Z 1302/1403 08006KT 9000 FEW025 TEMPO 1308/1312 3500 TSRA SCT010 FEW027CB", "raw": "METAR VVNB 131630Z 14007KT 120V180 CAVOK 30/27 Q1003 NOSIG", "fltcat": "VFR", "wind": "140° @ 7 kt", "vis": "CAVOK", "clouds": "NSC", "temp": 30, "dewp": 27, "qnh": "1003 hPa", "atis": [{"kind": "ARR", "time": "2026-07-13 14:50 UTC", "text": "VVNB ARR ATIS V 1500Z VVNB INFO V 1500Z. ILS X RWY 11L. DPTG RWY 11R AND ARR RWY 11L .. 1500Z. WIND 080/6KT VIS 10KM FBL RA CLD NSC T26 DP25 QNH 1007HPA TREND NOSIG. RWY CONDITION REPORT 5 5 5.. ADZ ON INITIAL CTC YOU HAVE INFO V."}, {"kind": "DEP", "time": "2026-07-13 04:41 UTC", "text": "VVNB DEP ATIS N 1203Z VVNB INFO N 1203Z. ILS X RWY 11L. DPTG RWY 11R AND ARR RWY 11L .. 1201Z. WIND 260/18KT VIS 1100M HVY TSRA CLD OBSC VER VIS 700FT T26 DP25 QNH 1006HPA TREND BECMG TL1230 VIS 3000M MOD TSRA. RWY CONDITION REPORT 5 5 5.. ADZ ON INITIAL CTC YOU HAVE INFO N."}]}, {"icao": "VVPB", "name": "Phu Bai — Hue", "metar": "METAR VVPB 131630Z 20001KT 9999 FEW020 29/26 Q1004 NOSIG", "speci": null, "taf": "TAF VVPB 122300Z 1300/1324 20008KT 9999 FEW017 SCT050 TEMPO 1308/1312 23015G25KT 4000 TSRA BKN013 FEW015CB BKN050", "raw": "METAR VVPB 131630Z 20001KT 9999 FEW020 29/26 Q1004 NOSIG", "fltcat": "VFR", "wind": "200° @ 1 kt", "vis": ">10 km", "clouds": "FEW020", "temp": 29, "dewp": 26, "qnh": "1004 hPa"}, {"icao": "VVPC", "name": "Phu Cat — Quy Nhon", "metar": "METAR VVPC 131630Z AUTO 00000KT 9999 FEW170/// 28/22 Q1006", "speci": null, "taf": "TAF VVPC 122300Z 1300/1324 25010KT 9999 FEW017 TEMPO 1303/1309 25015G25KT", "raw": "METAR VVPC 131630Z AUTO 00000KT 9999 FEW170/// 28/22 Q1006", "fltcat": "VFR", "wind": "000° @ 0 kt", "vis": ">10 km", "clouds": "FEW170", "temp": 28, "dewp": 22, "qnh": "1006 hPa"}, {"icao": "VVPK", "name": "Pleiku", "metar": "METAR VVPK 131630Z AUTO 23012KT 9999 BKN005/// OVC008/// 23/22 Q1012", "speci": null, "taf": "TAF VVPK 122300Z 1300/1324 26015KT 8000 SCT005 BKN010 TEMPO 1300/1304 26015G25KT 4000 RA BR BKN003 BKN008 TEMPO 1309/1313 26017G27KT 3500 SHRA BKN004 BKN010 FEW015CB", "raw": "METAR VVPK 131630Z AUTO 23012KT 9999 BKN005/// OVC008/// 23/22 Q1012", "fltcat": "IFR", "wind": "230° @ 12 kt", "vis": ">10 km", "clouds": "BKN005 OVC008", "temp": 23, "dewp": 22, "qnh": "1012 hPa"}, {"icao": "VVPQ", "name": "Phu Quoc Intl", "metar": "METAR VVPQ 131630Z 26021KT 8000 -TSRA SCT015 FEW017CB SCT040 26/26 Q1010 TEMPO TL1710 28015G28KT 3000 TSRA", "speci": "SPECI VVPQ 131635Z 23017KT 2000 +TSRA SCT013 FEW017CB BKN040 24/24 Q1010 TEMPO TL1710 28015G28KT 3000 TSRA", "taf": "TAF VVPQ 122300Z 1300/1324 23012KT 9999 SCT013 SCT040 TEMPO 1300/1304 23015G28KT 5000 TSRA SCT013 FEW015CB BKN040 TEMPO 1304/1309 23015G28KT 3000 TSRA SCT013 SCT015CB BKN040 TEMPO 1322/1324 5000 TSRA SCT013 FEW015CB BKN040", "raw": "SPECI VVPQ 131635Z 23017KT 2000 +TSRA SCT013 FEW017CB BKN040 24/24 Q1010 TEMPO TL1710 28015G28KT 3000 TSRA", "fltcat": "IFR", "wind": "230° @ 17 kt", "vis": "2.0 km", "clouds": "SCT013 FEW017 BKN040", "temp": 24, "dewp": 24, "qnh": "1010 hPa"}, {"icao": "VVTH", "name": "Dong Tac — Tuy Hoa", "metar": "METAR VVTH 131630Z AUTO 20006KT CAVOK 27/23 Q1007", "speci": null, "taf": "TAF VVTH 122300Z 1300/1309 22012KT 9999 FEW017 TEMPO 1300/1307 22015G25KT", "raw": "METAR VVTH 131630Z AUTO 20006KT CAVOK 27/23 Q1007", "fltcat": "VFR", "wind": "200° @ 6 kt", "vis": "CAVOK", "clouds": "NSC", "temp": 27, "dewp": 23, "qnh": "1007 hPa"}, {"icao": "VVTS", "name": "Tan Son Nhat — Ho Chi Minh City", "metar": "METAR VVTS 131630Z 21009KT 9999 SCT012 27/25 Q1010 NOSIG", "speci": null, "taf": "TAF VVTS 122300Z 1300/1406 22010KT 9999 SCT017 TEMPO 1304/1307 22015G28KT 4000 TSRA SCT015 SCT017CB TEMPO 1307/1311 5000 SHRA SCT015 FEW017CB", "raw": "METAR VVTS 131630Z 21009KT 9999 SCT012 27/25 Q1010 NOSIG", "fltcat": "VFR", "wind": "210° @ 9 kt", "vis": ">10 km", "clouds": "SCT012", "temp": 27, "dewp": 25, "qnh": "1010 hPa", "atis": [{"kind": "ARR", "time": "2026-07-13 14:28 UTC", "text": "VVTS ARR ATIS W 1500Z VVTS INFO W 1500Z. ILSW APCH IN RWY 25R.. LDG RWY 25R AND DEP RWY 25L.. 1500Z. WIND RWY 25R TDZ 250/7KT VIS 10KM CLD SCT 4100FT T29 DP26 QNH 1011HPA TREND NOSIG. ADZ ON INITIAL CTC YOU HAVE INFO W."}, {"kind": "DEP", "time": "2026-07-13 01:59 UTC", "text": "VVTS DEP ATIS P 1130Z VVTS INFO P 1130Z. ILSW APCH IN RWY 25R.. LDG RWY 25R AND DEP RWY 25L.. 1130Z. WIND RWY 25R TDZ 230/4KT END 190/4KT VIS 10KM CLD SCT 2000FT FEW CB 2300FT BKN 4900FT T30 DP24 QNH 1008HPA CB IN APCH TREND NOSIG. ADZ ON INITIAL CTC YOU HAVE INFO P."}]}, {"icao": "VVTX", "name": "Tho Xuan — Thanh Hoa", "metar": "METAR VVTX 131630Z AUTO 31003KT CAVOK 27/24 Q1003 NOSIG", "speci": null, "taf": "TAF VVTX 122300Z 1300/1309 VRB02KT 6000 FEW025 TEMPO 1301/1305 4000 SHRA SCT010 FEW025TCU TEMPO 1306/1309 3000 TSRA SCT015 FEW027CB", "raw": "METAR VVTX 131630Z AUTO 31003KT CAVOK 27/24 Q1003 NOSIG", "fltcat": "VFR", "wind": "310° @ 3 kt", "vis": "CAVOK", "clouds": "NSC", "temp": 27, "dewp": 24, "qnh": "1003 hPa"}, {"icao": "VVVD", "name": "Van Don — Quang Ninh", "metar": "METAR VVVD 131630Z AUTO VRB01KT 9999 NCD 29/27 Q1003", "speci": null, "taf": "TAF VVVD 122300Z 1300/1324 09005KT 9999 FEW020 TEMPO 1303/1307 4000 TSRA SCT010 FEW027CB", "raw": "METAR VVVD 131630Z AUTO VRB01KT 9999 NCD 29/27 Q1003", "fltcat": "VFR", "wind": "VRB @ 1 kt", "vis": ">10 km", "clouds": "—", "temp": 29, "dewp": 27, "qnh": "1003 hPa"}, {"icao": "VVVH", "name": "Vinh", "metar": "METAR VVVH 131630Z 23003KT 170V310 CAVOK 27/25 Q1003 NOSIG", "speci": null, "taf": "TAF VVVH 122300Z 1300/1324 24005KT 9999 FEW030 TEMPO 1300/1304 4000 TSRA SCT010 FEW027CB TEMPO 1308/1312 3000 TSRA SCT010 FEW027CB", "raw": "METAR VVVH 131630Z 23003KT 170V310 CAVOK 27/25 Q1003 NOSIG", "fltcat": "VFR", "wind": "230° @ 3 kt", "vis": "CAVOK", "clouds": "NSC", "temp": 27, "dewp": 25, "qnh": "1003 hPa"}]}