{"updated": "2026-07-20T19:07:59+00:00", "source": "VN MET", "stations": [{"icao": "VVBM", "name": "Buon Ma Thuot", "metar": "METAR VVBM 201900Z VRB01KT 9999 SCT015 21/20 Q1012 NOSIG", "speci": null, "taf": "TAF VVBM 201700Z 2018/2118 VRB03KT 9999 SCT013 BECMG 2102/2103 28010KT", "raw": "METAR VVBM 201900Z VRB01KT 9999 SCT015 21/20 Q1012 NOSIG", "fltcat": "VFR", "wind": "VRB @ 1 kt", "vis": ">10 km", "clouds": "SCT015", "temp": 21, "dewp": 20, "qnh": "1012 hPa"}, {"icao": "VVCA", "name": "Chu Lai", "metar": "METAR VVCA 201900Z AUTO 22002KT 9999 NCD 27/26 Q1005", "speci": null, "taf": "TAF VVCA 192300Z 2000/2009 27004KT 9999 FEW020 BECMG 2003/2004 08010KT", "raw": "METAR VVCA 201900Z AUTO 22002KT 9999 NCD 27/26 Q1005", "fltcat": "VFR", "wind": "220° @ 2 kt", "vis": ">10 km", "clouds": "—", "temp": 27, "dewp": 26, "qnh": "1005 hPa"}, {"icao": "VVCI", "name": "Cat Bi — Hai Phong", "metar": "METAR VVCI 201900Z 05006KT 9999 FEW018 29/27 Q1002 NOSIG", "speci": null, "taf": "TAF VVCI 201700Z 2018/2118 07005KT 8000 FEW030 TEMPO 2020/2101 4000 TSRA SCT010 FEW027CB TEMPO 2103/2107 4000 TSRA SCT012 FEW027CB", "raw": "METAR VVCI 201900Z 05006KT 9999 FEW018 29/27 Q1002 NOSIG", "fltcat": "VFR", "wind": "050° @ 6 kt", "vis": ">10 km", "clouds": "FEW018", "temp": 29, "dewp": 27, "qnh": "1002 hPa"}, {"icao": "VVCR", "name": "Cam Ranh — Nha Trang", "metar": "METAR VVCR 201900Z VRB01KT CAVOK 28/25 Q1008 NOSIG", "speci": null, "taf": "TAF VVCR 201700Z 2018/2118 22006KT 9999 FEW020 BECMG 2103/2104 12010KT BECMG 2111/2112 20006KT", "raw": "METAR VVCR 201900Z VRB01KT CAVOK 28/25 Q1008 NOSIG", "fltcat": "VFR", "wind": "VRB @ 1 kt", "vis": "CAVOK", "clouds": "NSC", "temp": 28, "dewp": 25, "qnh": "1008 hPa", "atis": [{"kind": "ARR", "time": "2026-07-17 14:03 UTC", "text": "VVCR ARR ATIS F 1401Z VVCR INFO F 1401Z. ILS Z APCH IN USE.. LDG RWY 02R AND DPTG RWY 02L.. 1400Z. WIND RWY 02R TDZ 040/3KT MID 340/3KT END 010/6KT RWY 02L TDZ 020/3KT VIS RWY 02R TDZ 10KM END"}, {"kind": "DEP", "time": "2026-05-29 05:57 UTC", "text": "VVCR DEP ATIS S 0533Z VVCR INFO S 0533Z. ILS Z APCH IN USE.. LDG RWY 02R AND DPTG RWY 02L.. 0532Z. WIND RWY 02R TDZ 080/9KT MID 090/8KT END 100/8KT RWY 02L TDZ 080/8KT CAVOK T31 DP26 QNH 1009HPA TREND TEMPO FM0630 VIS 4000M MOD TSRA. ADZ ON INITIAL CTC YOU HAVE INFO S."}]}, {"icao": "VVCT", "name": "Can Tho Intl", "metar": "METAR VVCT 201900Z 18003KT CAVOK 25/25 Q1010 NOSIG", "speci": null, "taf": "TAF VVCT 201700Z 2018/2118 22006KT 9999 SCT015", "raw": "METAR VVCT 201900Z 18003KT CAVOK 25/25 Q1010 NOSIG", "fltcat": "VFR", "wind": "180° @ 3 kt", "vis": "CAVOK", "clouds": "NSC", "temp": 25, "dewp": 25, "qnh": "1010 hPa"}, {"icao": "VVDH", "name": "Dong Hoi", "metar": "METAR VVDH 201900Z AUTO VRB02KT 9999 SCT100/// 31/22 Q1005", "speci": null, "taf": "TAF VVDH 192300Z 2000/2009 21008KT 9999 FEW030", "raw": "METAR VVDH 201900Z AUTO VRB02KT 9999 SCT100/// 31/22 Q1005", "fltcat": "VFR", "wind": "VRB @ 2 kt", "vis": ">10 km", "clouds": "SCT100", "temp": 31, "dewp": 22, "qnh": "1005 hPa"}, {"icao": "VVDN", "name": "Da Nang Intl", "metar": "METAR VVDN 201900Z 21002KT 9999 FEW020 27/22 Q1006 NOSIG", "speci": null, "taf": "TAF VVDN 201700Z 2018/2118 23006KT 9999 FEW020 BECMG 2105/2106 10010KT BECMG 2112/2113 22007KT", "raw": "METAR VVDN 201900Z 21002KT 9999 FEW020 27/22 Q1006 NOSIG", "fltcat": "VFR", "wind": "210° @ 2 kt", "vis": ">10 km", "clouds": "FEW020", "temp": 27, "dewp": 22, "qnh": "1006 hPa", "atis": [{"kind": "ARR", "time": "2026-07-20 19:02 UTC", "text": "VVDN ARR ATIS G 0157Z VVDN INFO G 0157Z. ILS VICTOR APPROACH 35L.. DPTG RWY 35R.. 0132Z. WIND VRB/02KT CAVOK T34 DP23 QNH 1005HPA TREND NOSIG. ADZ ON INITIAL CTC YOU HAVE INFO. G."}, {"kind": "DEP", "time": "2026-07-19 18:34 UTC", "text": "VVDN DEP ATIS J 1833Z VVDN INFO J 1833Z. ILS VICTOR APPROACH 35L.. DPTG RWY 35R.. 1833Z. WIND 300/02KT CAVOK T30 DP22 QNH 1006HPA TREND NOSIG. ADZ ON INITIAL CTC YOU HAVE INFO. J."}]}, {"icao": "VVNB", "name": "Noi Bai — Ha Noi", "metar": "METAR VVNB 201900Z 03004KT CAVOK 28/25 Q1003 NOSIG", "speci": null, "taf": "TAF VVNB 201700Z 2018/2118 05005KT 6000 FEW030 PROB40 TEMPO 2103/2107 4000 TSRA SCT015 FEW027CB", "raw": "METAR VVNB 201900Z 03004KT CAVOK 28/25 Q1003 NOSIG", "fltcat": "VFR", "wind": "030° @ 4 kt", "vis": "CAVOK", "clouds": "NSC", "temp": 28, "dewp": 25, "qnh": "1003 hPa", "atis": [{"kind": "ARR", "time": "2026-07-20 18:56 UTC", "text": "VVNB ARR ATIS P 0200Z VVNB INFO P 0200Z. ILS X RWY 11L. DPTG RWY 11R AND ARR RWY 11L .. 0200Z. WIND 310/7KT CAVOK T35 DP24 QNH 1001HPA TREND NOSIG. ADZ ON INITIAL CTC YOU HAVE INFO P."}, {"kind": "DEP", "time": "2026-07-20 19:05 UTC", "text": "VVNB DEP ATIS P 0200Z VVNB INFO P 0200Z. ILS X RWY 11L. DPTG RWY 11R AND ARR RWY 11L .. 0200Z. WIND 310/7KT CAVOK T35 DP24 QNH 1001HPA TREND NOSIG. ADZ ON INITIAL CTC YOU HAVE INFO P."}]}, {"icao": "VVPB", "name": "Phu Bai — Hue", "metar": "METAR VVPB 201900Z 21005KT 9999 FEW020 30/18 Q1005 NOSIG", "speci": null, "taf": "TAF VVPB 201700Z 2018/2118 24006KT 9999 FEW020 BECMG 2105/2106 07010KT BECMG 2114/2115 23006KT", "raw": "METAR VVPB 201900Z 21005KT 9999 FEW020 30/18 Q1005 NOSIG", "fltcat": "VFR", "wind": "210° @ 5 kt", "vis": ">10 km", "clouds": "FEW020", "temp": 30, "dewp": 18, "qnh": "1005 hPa"}, {"icao": "VVPC", "name": "Phu Cat — Quy Nhon", "metar": "METAR VVPC 201900Z AUTO 24004KT 9999 NCD 30/22 Q1007", "speci": null, "taf": "TAF VVPC 201700Z 2018/2118 23007KT 9999 FEW020", "raw": "METAR VVPC 201900Z AUTO 24004KT 9999 NCD 30/22 Q1007", "fltcat": "VFR", "wind": "240° @ 4 kt", "vis": ">10 km", "clouds": "—", "temp": 30, "dewp": 22, "qnh": "1007 hPa"}, {"icao": "VVPK", "name": "Pleiku", "metar": "METAR VVPK 201900Z AUTO 30003KT 9999 NCD 22/21 Q1013", "speci": null, "taf": "TAF VVPK 201700Z 2018/2118 28007KT 9999 FEW020 BECMG 2021/2022 3000 BR BKN004 BECMG 2100/2101 8000 NSW SCT012", "raw": "METAR VVPK 201900Z AUTO 30003KT 9999 NCD 22/21 Q1013", "fltcat": "VFR", "wind": "300° @ 3 kt", "vis": ">10 km", "clouds": "—", "temp": 22, "dewp": 21, "qnh": "1013 hPa"}, {"icao": "VVPQ", "name": "Phu Quoc Intl", "metar": "METAR VVPQ 201900Z 27006KT 9999 SCT015 28/27 Q1010 NOSIG", "speci": null, "taf": "TAF VVPQ 201700Z 2018/2118 27008KT 9999 SCT015", "raw": "METAR VVPQ 201900Z 27006KT 9999 SCT015 28/27 Q1010 NOSIG", "fltcat": "VFR", "wind": "270° @ 6 kt", "vis": ">10 km", "clouds": "SCT015", "temp": 28, "dewp": 27, "qnh": "1010 hPa"}, {"icao": "VVTH", "name": "Dong Tac — Tuy Hoa", "metar": "METAR VVTH 201900Z AUTO 20003KT 180V280 CAVOK 26/22 Q1008", "speci": null, "taf": "TAF VVTH 192300Z 2000/2009 24008KT 9999 FEW020", "raw": "METAR VVTH 201900Z AUTO 20003KT 180V280 CAVOK 26/22 Q1008", "fltcat": "VFR", "wind": "200° @ 3 kt", "vis": "CAVOK", "clouds": "NSC", "temp": 26, "dewp": 22, "qnh": "1008 hPa"}, {"icao": "VVTS", "name": "Tan Son Nhat — Ho Chi Minh City", "metar": "METAR VVTS 201900Z 23010KT 200V260 CAVOK 28/26 Q1009 NOSIG", "speci": null, "taf": "TAF VVTS 201700Z 2018/2124 23009KT 9999 SCT017", "raw": "METAR VVTS 201900Z 23010KT 200V260 CAVOK 28/26 Q1009 NOSIG", "fltcat": "VFR", "wind": "230° @ 10 kt", "vis": "CAVOK", "clouds": "NSC", "temp": 28, "dewp": 26, "qnh": "1009 hPa", "atis": [{"kind": "ARR", "time": "2026-07-20 19:00 UTC", "text": "VVTS ARR ATIS M 0200Z VVTS INFO M 0200Z. ILSW APCH IN RWY 25R.. LDG RWY 25R AND DEP RWY 25L.. 0200Z. WIND RWY 25R TDZ 240/9KT VIS 10KM CLD FEW 2000FT T30 DP27 QNH 1009HPA TREND NOSIG. ADZ ON INITIAL CTC YOU HAVE INFO M."}, {"kind": "DEP", "time": "2026-07-19 13:16 UTC", "text": "VVTS DEP ATIS O 1430Z VVTS INFO O 1430Z. ILSW APCH IN RWY 25R.. LDG RWY 25R AND DEP RWY 25L.. 1430Z. WIND RWY 25R TDZ 290/5KT END 250/4KT CAVOK T28 DP25 QNH 1009HPA TREND NOSIG. ADZ ON INITIAL CTC YOU HAVE INFO O."}]}, {"icao": "VVTX", "name": "Tho Xuan — Thanh Hoa", "metar": "METAR VVTX 201900Z AUTO 26003KT CAVOK 28/24 Q1003 NOSIG", "speci": null, "taf": "TAF VVTX 192300Z 2000/2009 VRB02KT 9999 FEW030", "raw": "METAR VVTX 201900Z AUTO 26003KT CAVOK 28/24 Q1003 NOSIG", "fltcat": "VFR", "wind": "260° @ 3 kt", "vis": "CAVOK", "clouds": "NSC", "temp": 28, "dewp": 24, "qnh": "1003 hPa"}, {"icao": "VVVD", "name": "Van Don — Quang Ninh", "metar": "METAR VVVD 201900Z AUTO 12005KT 4900 TSRA SCT014/// SCT024/// BKN036/// 26/26 Q1004 RESHGR", "speci": null, "taf": "TAF VVVD 201700Z 2018/2118 09005KT 6000 SCT015 BKN030 TEMPO 2020/2001 3000 TSRA BKN010 FEW027CB BKN030 TEMPO 2103/2107 4000 TSRA SCT010 FEW027CB BKN030", "raw": "METAR VVVD 201900Z AUTO 12005KT 4900 TSRA SCT014/// SCT024/// BKN036/// 26/26 Q1004 RESHGR", "fltcat": "MVFR", "wind": "120° @ 5 kt", "vis": "4.9 km", "clouds": "SCT014 SCT024 BKN036", "temp": 26, "dewp": 26, "qnh": "1004 hPa"}, {"icao": "VVVH", "name": "Vinh", "metar": "METAR VVVH 201900Z 28003KT 250V320 CAVOK 30/20 Q1003 NOSIG", "speci": null, "taf": "TAF VVVH 192300Z 2000/2024 24008KT 9999 FEW030", "raw": "METAR VVVH 201900Z 28003KT 250V320 CAVOK 30/20 Q1003 NOSIG", "fltcat": "VFR", "wind": "280° @ 3 kt", "vis": "CAVOK", "clouds": "NSC", "temp": 30, "dewp": 20, "qnh": "1003 hPa"}]}