{"updated": "2026-07-24T05:35:00+00:00", "source": "VN MET", "stations": [{"icao": "VVBM", "name": "Buon Ma Thuot", "metar": "METAR VVBM 240530Z 29007KT 260V320 9999 SCT013 FEW015CB BKN040 27/24 Q1009 NOSIG", "speci": null, "taf": "TAF VVBM 232300Z 2400/2424 29007KT 9999 SCT015 SCT040 TEMPO 2407/2412 5000 TSRA BKN010 FEW015CB BKN040", "raw": "METAR VVBM 240530Z 29007KT 260V320 9999 SCT013 FEW015CB BKN040 27/24 Q1009 NOSIG", "fltcat": "VFR", "wind": "290° @ 7 kt", "vis": ">10 km", "clouds": "SCT013 FEW015 BKN040", "temp": 27, "dewp": 24, "qnh": "1009 hPa"}, {"icao": "VVCA", "name": "Chu Lai", "metar": "METAR VVCA 240530Z 06011KT 030V090 9999 FEW020TCU 34/26 Q1003 NOSIG", "speci": null, "taf": "TAF VVCA 240200Z 2403/2412 06010KT 9999 FEW020 TEMPO 2408/2412 20015G25KT 4000 TSRA BKN013 FEW015CB BKN050", "raw": "METAR VVCA 240530Z 06011KT 030V090 9999 FEW020TCU 34/26 Q1003 NOSIG", "fltcat": "VFR", "wind": "060° @ 11 kt", "vis": ">10 km", "clouds": "FEW020", "temp": 34, "dewp": 26, "qnh": "1003 hPa"}, {"icao": "VVCI", "name": "Cat Bi — Hai Phong", "metar": "METAR VVCI 240530Z VRB04KT 9999 BKN027 BKN032 29/25 Q1005 NOSIG", "speci": null, "taf": "TAF VVCI 232300Z 2400/2424 14005KT 9999 SCT020 TEMPO 2400/2403 3500 TSRA SCT012 FEW027CB TEMPO 2406/2412 3000 TSRA SCT010 FEW027CB TEMPO 2416/2422 3000 TSRA SCT010 FEW027CB", "raw": "METAR VVCI 240530Z VRB04KT 9999 BKN027 BKN032 29/25 Q1005 NOSIG", "fltcat": "MVFR", "wind": "VRB @ 4 kt", "vis": ">10 km", "clouds": "BKN027 BKN032", "temp": 29, "dewp": 25, "qnh": "1005 hPa"}, {"icao": "VVCR", "name": "Cam Ranh — Nha Trang", "metar": "METAR VVCR 240530Z 10011KT CAVOK 33/22 Q1005 NOSIG", "speci": null, "taf": "TAF VVCR 232300Z 2400/2424 32005KT 9999 FEW020 BECMG 2402/2403 11011KT TEMPO 2407/2411 4000 TSRA BKN013 FEW017CB BKN050 BECMG 2413/2414 30007KT", "raw": "METAR VVCR 240530Z 10011KT CAVOK 33/22 Q1005 NOSIG", "fltcat": "VFR", "wind": "100° @ 11 kt", "vis": "CAVOK", "clouds": "NSC", "temp": 33, "dewp": 22, "qnh": "1005 hPa", "atis": [{"kind": "ARR", "time": "2026-07-22 05:32 UTC", "text": "VVCR ARR ATIS O 1300Z VVCR INFO O 1300Z. ILS YANKEE APPROACH IN USE. LDG RWY 20L AND DPTG RWY 20R.. 1300Z. WIND RWY 20L TDZ 190/7KT MID 190/8KT END 180/7KT RWY 20R TDZ 190/7KT VIS RWY 20L TDZ 10KM END 10KM CLD RWY 20L SCT 7200FT T31 DP24 QNH 1007HPA TREND NOSIG. ADZ ON INITIAL CTC YOU HAVE INFO O."}, {"kind": "DEP", "time": "2026-05-29 05:57 UTC", "text": "VVCR DEP ATIS S 0533Z VVCR INFO S 0533Z. ILS Z APCH IN USE.. LDG RWY 02R AND DPTG RWY 02L.. 0532Z. WIND RWY 02R TDZ 080/9KT MID 090/8KT END 100/8KT RWY 02L TDZ 080/8KT CAVOK T31 DP26 QNH 1009HPA TREND TEMPO FM0630 VIS 4000M MOD TSRA. ADZ ON INITIAL CTC YOU HAVE INFO S."}]}, {"icao": "VVCS", "name": "Con Dao", "metar": "METAR VVCS 240500Z 24006KT 140V310 9999 SCT017 FEW020CB 32/24 Q1007 NOSIG", "speci": "SPECI VVCS 240510Z 27012G25KT 230V310 9000 -SHRA BKN015 FEW017CB 27/23 Q1007 TEMPO TL0540 26015G26KT 3000 TSRA", "taf": "TAF VVCS 240200Z 2403/2412 26010KT 9999 SCT017 TEMPO 2404/2409 26015G25KT 4000 TSRA SCT015 FEW017CB", "raw": "SPECI VVCS 240510Z 27012G25KT 230V310 9000 -SHRA BKN015 FEW017CB 27/23 Q1007 TEMPO TL0540 26015G26KT 3000 TSRA", "fltcat": "MVFR", "wind": "270° @ 12 kt G25", "vis": "9.0 km", "clouds": "BKN015 FEW017", "temp": 27, "dewp": 23, "qnh": "1007 hPa"}, {"icao": "VVCT", "name": "Can Tho Intl", "metar": "METAR VVCT 240530Z 23008KT 9999 BKN015 31/25 Q1007 NOSIG", "speci": null, "taf": "TAF AMD VVCT 232325Z 2400/2424 26007KT 9999 SCT015 SCT040 TEMPO 2400/2405 5000 TSRA SCT015 FEW017CB", "raw": "METAR VVCT 240530Z 23008KT 9999 BKN015 31/25 Q1007 NOSIG", "fltcat": "MVFR", "wind": "230° @ 8 kt", "vis": ">10 km", "clouds": "BKN015", "temp": 31, "dewp": 25, "qnh": "1007 hPa"}, {"icao": "VVDB", "name": "Dien Bien Phu", "metar": "METAR VVDB 240530Z 01003KT 310V070 9999 FEW019 28/23 Q1006 NOSIG", "speci": null, "taf": "TAF VVDB 240200Z 2403/2412 VRB03KT 9999 SCT027 TEMPO 2404/2406 3500 TSRA SCT015 FEW027CB TEMPO 2408/2411 3000 TSRA SCT012 FEW027CB", "raw": "METAR VVDB 240530Z 01003KT 310V070 9999 FEW019 28/23 Q1006 NOSIG", "fltcat": "VFR", "wind": "010° @ 3 kt", "vis": ">10 km", "clouds": "FEW019", "temp": 28, "dewp": 23, "qnh": "1006 hPa"}, {"icao": "VVDH", "name": "Dong Hoi", "metar": "METAR VVDH 240530Z 05010KT CAVOK 34/26 Q1004 NOSIG", "speci": null, "taf": "TAF VVDH 240200Z 2403/2412 24010KT 9999 FEW030 TEMPO 2409/2412 4000 TSRA SCT015 FEW027CB", "raw": "METAR VVDH 240530Z 05010KT CAVOK 34/26 Q1004 NOSIG", "fltcat": "VFR", "wind": "050° @ 10 kt", "vis": "CAVOK", "clouds": "NSC", "temp": 34, "dewp": 26, "qnh": "1004 hPa"}, {"icao": "VVDL", "name": "Lien Khuong — Da Lat", "metar": "METAR VVDL 240530Z 29008KT 9999 SCT013 FEW015TCU 29/20 Q1012 NOSIG", "speci": null, "taf": "TAF VVDL 232300Z 2400/2424 28010KT 9999 SCT015 TEMPO 2407/2412 28015G26KT 3000 TSRA BKN010 SCT015CB", "raw": "METAR VVDL 240530Z 29008KT 9999 SCT013 FEW015TCU 29/20 Q1012 NOSIG", "fltcat": "VFR", "wind": "290° @ 8 kt", "vis": ">10 km", "clouds": "SCT013 FEW015", "temp": 29, "dewp": 20, "qnh": "1012 hPa"}, {"icao": "VVDN", "name": "Da Nang Intl", "metar": "METAR VVDN 240500Z 03013KT 9999 FEW020 32/26 Q1004 NOSIG", "speci": null, "taf": "TAF VVDN 232300Z 2400/2424 22005KT 9999 FEW017 BECMG 2404/2405 02010KT TEMPO 2408/2412 23015G25KT 3000 TSRA BKN013 FEW017CB BKN060 BECMG 2412/2413 20007KT", "raw": "METAR VVDN 240500Z 03013KT 9999 FEW020 32/26 Q1004 NOSIG", "fltcat": "VFR", "wind": "030° @ 13 kt", "vis": ">10 km", "clouds": "FEW020", "temp": 32, "dewp": 26, "qnh": "1004 hPa", "atis": [{"kind": "ARR", "time": "2026-07-24 05:12 UTC", "text": "VVDN ARR ATIS H 0502Z VVDN INFO H 0502Z. ILS VICTOR APPROACH 35L.. DPTG RWY 35R.. 0502Z. WIND 020/13KT VIS 10KM CLD FEW 2700FT T32 DP26 QNH 1004HPA TREND NOSIG. ADZ ON INITIAL CTC YOU HAVE INFO. H."}, {"kind": "DEP", "time": "2026-07-22 10:38 UTC", "text": "VVDN DEP ATIS G 1432Z VVDN INFO G 1432Z. ILS VICTOR APPROACH 35L.. DPTG RWY 35R.. 1432Z. WIND VRB/01KT CAVOK T32 DP24 QNH 1004HPA TREND NOSIG. ADZ ON INITIAL CTC YOU HAVE INFO. G."}]}, {"icao": "VVNB", "name": "Noi Bai — Ha Noi", "metar": "METAR VVNB 240530Z 06006KT 340V120 9999 FEW019 31/27 Q1005 NOSIG", "speci": null, "taf": "TAF AMD VVNB 240047Z 2401/2424 05005KT 9999 FEW020 TEMPO 2401/2403 3000 TSRA SCT010 FEW027CB TEMPO 2406/2410 3500 TSRA SCT010 FEW027CB TEMPO 2418/2422 3000 TSRA SCT010 FEW027CB", "raw": "METAR VVNB 240530Z 06006KT 340V120 9999 FEW019 31/27 Q1005 NOSIG", "fltcat": "VFR", "wind": "060° @ 6 kt", "vis": ">10 km", "clouds": "FEW019", "temp": 31, "dewp": 27, "qnh": "1005 hPa", "atis": [{"kind": "ARR", "time": "2026-07-24 02:09 UTC", "text": "VVNB ARR ATIS R 0401Z VVNB INFO R 0401Z. ILS X RWY 11L. DPTG RWY 11R AND ARR RWY 11L .. 0401Z. WIND 030/6KT CAVOK T34 DP28 QNH 1002HPA TREND NOSIG. ADZ ON INITIAL CTC YOU HAVE INFO R."}, {"kind": "DEP", "time": "2026-07-24 01:10 UTC", "text": "VVNB DEP ATIS Q 0330Z VVNB INFO Q 0330Z. ILS X RWY 11L. DPTG RWY 11R AND ARR RWY 11L .. 0330Z. WIND 030/8KT CAVOK T34 DP28 QNH 1002HPA TREND NOSIG. ADZ ON INITIAL CTC YOU HAVE INFO Q."}]}, {"icao": "VVPB", "name": "Phu Bai — Hue", "metar": "METAR VVPB 240530Z 06009KT 9999 FEW017 34/23 Q1004 NOSIG", "speci": null, "taf": "TAF VVPB 232300Z 2400/2424 24006KT 9999 FEW017 SCT060 BECMG 2403/2404 07010KT TEMPO 2408/2412 24015G25KT 4000 TSRA BKN013 FEW017CB BKN060 BECMG 2413/2414 24007KT", "raw": "METAR VVPB 240530Z 06009KT 9999 FEW017 34/23 Q1004 NOSIG", "fltcat": "VFR", "wind": "060° @ 9 kt", "vis": ">10 km", "clouds": "FEW017", "temp": 34, "dewp": 23, "qnh": "1004 hPa"}, {"icao": "VVPC", "name": "Phu Cat — Quy Nhon", "metar": "METAR VVPC 240530Z 21004KT 140V280 9999 FEW038 37/22 Q1003 NOSIG", "speci": null, "taf": "TAF VVPC 232300Z 2400/2424 25009KT 9999 FEW020 SCT060 TEMPO 2408/2412 VRB15G25KT 3000 TSRA BKN010 FEW015CB BKN050", "raw": "METAR VVPC 240530Z 21004KT 140V280 9999 FEW038 37/22 Q1003 NOSIG", "fltcat": "VFR", "wind": "210° @ 4 kt", "vis": ">10 km", "clouds": "FEW038", "temp": 37, "dewp": 22, "qnh": "1003 hPa"}, {"icao": "VVPK", "name": "Pleiku", "metar": "METAR VVPK 240500Z 24008KT 210V300 9999 BKN017 26/22 Q1010 NOSIG", "speci": null, "taf": "TAF VVPK 232300Z 2400/2424 24008KT 9999 BKN010 TEMPO 2400/2403 3500 RA BR BKN004 BECMG 2403/2404 SCT017 SCT060 TEMPO 2408/2413 26015G25KT 4000 TSRA BKN010 FEW017CB BKN050 TEMPO 2422/2424 3500 RA BR BKN003 BKN006", "raw": "METAR VVPK 240500Z 24008KT 210V300 9999 BKN017 26/22 Q1010 NOSIG", "fltcat": "MVFR", "wind": "240° @ 8 kt", "vis": ">10 km", "clouds": "BKN017", "temp": 26, "dewp": 22, "qnh": "1010 hPa"}, {"icao": "VVPQ", "name": "Phu Quoc Intl", "metar": "METAR VVPQ 240530Z 28012KT 9999 SCT015 31/30 Q1007 NOSIG", "speci": null, "taf": "TAF COR VVPQ 232350Z 2400/2424 28014KT 9999 SCT017 SCT040 TEMPO 2402/2406 28015G28KT 4000 TSRA BKN015 FEW017CB TEMPO 2422/2424 28015G28KT 4000 TSRA BKN015 FEW017CB", "raw": "METAR VVPQ 240530Z 28012KT 9999 SCT015 31/30 Q1007 NOSIG", "fltcat": "VFR", "wind": "280° @ 12 kt", "vis": ">10 km", "clouds": "SCT015", "temp": 31, "dewp": 30, "qnh": "1007 hPa"}, {"icao": "VVRG", "name": "Rach Gia", "metar": "METAR VVRG 240530Z 22007KT 190V250 9999 SCT013 FEW017CB BKN040 29/27 Q1007 NOSIG", "speci": null, "taf": "TAF VVRG 240200Z 2403/2412 25007KT 9999 SCT015 SCT040 TEMPO 2403/2407 5000 TSRA SCT013 FEW015CB BKN040", "raw": "METAR VVRG 240530Z 22007KT 190V250 9999 SCT013 FEW017CB BKN040 29/27 Q1007 NOSIG", "fltcat": "VFR", "wind": "220° @ 7 kt", "vis": ">10 km", "clouds": "SCT013 FEW017 BKN040", "temp": 29, "dewp": 27, "qnh": "1007 hPa"}, {"icao": "VVTH", "name": "Dong Tac — Tuy Hoa", "metar": "METAR VVTH 240530Z 26010KT 210V300 CAVOK 36/21 Q1004 NOSIG", "speci": null, "taf": "TAF VVTH 240200Z 2403/2412 26013KT 9999 FEW020 TEMPO 2408/2412 TS SCT013 FEW015CB SCT050", "raw": "METAR VVTH 240530Z 26010KT 210V300 CAVOK 36/21 Q1004 NOSIG", "fltcat": "VFR", "wind": "260° @ 10 kt", "vis": "CAVOK", "clouds": "NSC", "temp": 36, "dewp": 21, "qnh": "1004 hPa"}, {"icao": "VVTS", "name": "Tan Son Nhat — Ho Chi Minh City", "metar": "METAR VVTS 240500Z 27006G16KT 190V320 9999 SCT036 BKN042 BKN070 34/24 Q1006 NOSIG", "speci": null, "taf": "TAF VVTS 232300Z 2400/2506 VRB03KT 9999 SCT017 BECMG 2400/2402 26010KT TEMPO 2406/2408 5000 TSRA BKN015 FEW017CB TEMPO 2408/2412 26015G28KT 2000 +TSRA BKN013 SCT015CB", "raw": "METAR VVTS 240500Z 27006G16KT 190V320 9999 SCT036 BKN042 BKN070 34/24 Q1006 NOSIG", "fltcat": "VFR", "wind": "270° @ 6 kt G16", "vis": ">10 km", "clouds": "SCT036 BKN042 BKN070", "temp": 34, "dewp": 24, "qnh": "1006 hPa", "atis": [{"kind": "ARR", "time": "2026-07-24 05:26 UTC", "text": "VVTS ARR ATIS P 0500Z VVTS INFO P 0500Z. ILSW APCH IN RWY 25R.. LDG RWY 25R AND DEP RWY 25L.. 0500Z. WIND RWY 25R TDZ 290/10KT MAX18 MNM7 VIS 10KM CLD FEW 4000FT SCT 9100FT T35 DP26 QNH 1007HPA TREND TEMPO FM0630 200/16KT MAX28 VIS 4000M MOD TSRA CLD SCT 1500FT FEW CB 1700FT. ADZ ON INITIAL CTC YOU HAVE INFO P."}, {"kind": "DEP", "time": "2026-07-23 04:13 UTC", "text": "VVTS DEP ATIS Y 2030Z VVTS INFO Y 2030Z. ILSW APCH IN RWY 25R.. LDG RWY 25R AND DEP RWY 25L.. 2030Z. WIND RWY 25R TDZ 240/8KT MAX15 MNM6 END 240/8KT VIS 10KM CLD FEW 1600FT T29 DP27 QNH 1007HPA TREND NOSIG. ADZ ON INITIAL CTC YOU HAVE INFO Y."}]}, {"icao": "VVTX", "name": "Tho Xuan — Thanh Hoa", "metar": "METAR VVTX 240530Z 10007KT 9999 FEW025 BKN050 32/24 Q1004 NOSIG", "speci": null, "taf": "TAF VVTX 240200Z 2403/2412 08005KT 9999 FEW030 TEMPO 2407/2412 4000 TSRA SCT015 FEW027CB", "raw": "METAR VVTX 240530Z 10007KT 9999 FEW025 BKN050 32/24 Q1004 NOSIG", "fltcat": "VFR", "wind": "100° @ 7 kt", "vis": ">10 km", "clouds": "FEW025 BKN050", "temp": 32, "dewp": 24, "qnh": "1004 hPa"}, {"icao": "VVVD", "name": "Van Don — Quang Ninh", "metar": "METAR VVVD 240500Z 07003KT 9999 -RA BKN010 OVC022 26/26 Q1007 NOSIG", "speci": null, "taf": "TAF VVVD 232300Z 2400/2424 VRB02KT 9999 SCT020 TEMPO 2400/2403 3000 TSRA SCT010 FEW027CB TEMPO 2405/2410 3500 TSRA SCT010 FEW027CB TEMPO 2416/2422 3000 TSRA SCT010 FEW027CB", "raw": "METAR VVVD 240500Z 07003KT 9999 -RA BKN010 OVC022 26/26 Q1007 NOSIG", "fltcat": "MVFR", "wind": "070° @ 3 kt", "vis": ">10 km", "clouds": "BKN010 OVC022", "temp": 26, "dewp": 26, "qnh": "1007 hPa"}, {"icao": "VVVH", "name": "Vinh", "metar": "METAR VVVH 240530Z 06008KT 020V090 CAVOK 33/24 Q1004 NOSIG", "speci": null, "taf": "TAF VVVH 232300Z 2400/2424 VRB02KT 9999 FEW030 TEMPO 2408/2412 3500 TSRA SCT010 FEW027CB", "raw": "METAR VVVH 240530Z 06008KT 020V090 CAVOK 33/24 Q1004 NOSIG", "fltcat": "VFR", "wind": "060° @ 8 kt", "vis": "CAVOK", "clouds": "NSC", "temp": 33, "dewp": 24, "qnh": "1004 hPa"}]}