{"updated": "2026-07-19T21:29:02+00:00", "source": "VN MET", "stations": [{"icao": "VVBM", "name": "Buon Ma Thuot", "metar": "METAR VVBM 192100Z VRB02KT 8000 SCT013 23/21 Q1012 NOSIG", "speci": null, "taf": "TAF VVBM 182300Z 1900/1924 VRB03KT 9999 SCT013 BECMG 1901/1902 25010KT TEMPO 1908/1913 5000 TSRA BKN010 FEW013CB", "raw": "METAR VVBM 192100Z VRB02KT 8000 SCT013 23/21 Q1012 NOSIG", "fltcat": "MVFR", "wind": "VRB @ 2 kt", "vis": "8.0 km", "clouds": "SCT013", "temp": 23, "dewp": 21, "qnh": "1012 hPa"}, {"icao": "VVCA", "name": "Chu Lai", "metar": "METAR VVCA 192100Z AUTO VRB02KT 9999 NCD 25/24 Q1005", "speci": null, "taf": "TAF VVCA 192000Z 1921/2006 17008KT 9999 FEW020", "raw": "METAR VVCA 192100Z AUTO VRB02KT 9999 NCD 25/24 Q1005", "fltcat": "VFR", "wind": "VRB @ 2 kt", "vis": ">10 km", "clouds": "—", "temp": 25, "dewp": 24, "qnh": "1005 hPa"}, {"icao": "VVCI", "name": "Cat Bi — Hai Phong", "metar": "METAR VVCI 192100Z 22003KT CAVOK 28/25 Q1002 NOSIG", "speci": null, "taf": "TAF VVCI 182300Z 1900/1924 20006KT 9999 FEW030 TEMPO 1909/1912 4000 TSRA SCT015 FEW027CB", "raw": "METAR VVCI 192100Z 22003KT CAVOK 28/25 Q1002 NOSIG", "fltcat": "VFR", "wind": "220° @ 3 kt", "vis": "CAVOK", "clouds": "NSC", "temp": 28, "dewp": 25, "qnh": "1002 hPa"}, {"icao": "VVCR", "name": "Cam Ranh — Nha Trang", "metar": "METAR VVCR 192100Z 28003KT 210V330 CAVOK 29/24 Q1008 NOSIG", "speci": null, "taf": "TAF VVCR 182300Z 1900/1924 20010KT 9999 FEW020 BECMG 1902/1903 07010KT BECMG 1909/1910 20009KT", "raw": "METAR VVCR 192100Z 28003KT 210V330 CAVOK 29/24 Q1008 NOSIG", "fltcat": "VFR", "wind": "280° @ 3 kt", "vis": "CAVOK", "clouds": "NSC", "temp": 29, "dewp": 24, "qnh": "1008 hPa", "atis": [{"kind": "ARR", "time": "2026-07-17 14:03 UTC", "text": "VVCR ARR ATIS F 1401Z VVCR INFO F 1401Z. ILS Z APCH IN USE.. LDG RWY 02R AND DPTG RWY 02L.. 1400Z. WIND RWY 02R TDZ 040/3KT MID 340/3KT END 010/6KT RWY 02L TDZ 020/3KT VIS RWY 02R TDZ 10KM END"}, {"kind": "DEP", "time": "2026-05-29 05:57 UTC", "text": "VVCR DEP ATIS S 0533Z VVCR INFO S 0533Z. ILS Z APCH IN USE.. LDG RWY 02R AND DPTG RWY 02L.. 0532Z. WIND RWY 02R TDZ 080/9KT MID 090/8KT END 100/8KT RWY 02L TDZ 080/8KT CAVOK T31 DP26 QNH 1009HPA TREND TEMPO FM0630 VIS 4000M MOD TSRA. ADZ ON INITIAL CTC YOU HAVE INFO S."}]}, {"icao": "VVCT", "name": "Can Tho Intl", "metar": "METAR VVCT 192100Z 21004KT CAVOK 26/25 Q1009 NOSIG", "speci": null, "taf": "TAF VVCT 182300Z 1900/1924 23007KT 9999 SCT015 TEMPO 1907/1912 5000 TSRA BKN013 FEW015CB", "raw": "METAR VVCT 192100Z 21004KT CAVOK 26/25 Q1009 NOSIG", "fltcat": "VFR", "wind": "210° @ 4 kt", "vis": "CAVOK", "clouds": "NSC", "temp": 26, "dewp": 25, "qnh": "1009 hPa"}, {"icao": "VVDB", "name": "Dien Bien Phu", "metar": "METAR VVDB 192100Z AUTO 16003KT 130V230 9999 // FEW005/// BKN021/// OVC028/// 23/23 Q1007 RE//", "speci": null, "taf": "TAF VVDB 192000Z 1921/2006 VRB02KT SCT015 BKN025 TEMPO 1922/2004 4000 -RA BR BKN008", "raw": "METAR VVDB 192100Z AUTO 16003KT 130V230 9999 // FEW005/// BKN021/// OVC028/// 23/23 Q1007 RE//", "fltcat": "MVFR", "wind": "160° @ 3 kt", "vis": ">10 km", "clouds": "FEW005 BKN021 OVC028", "temp": 23, "dewp": 23, "qnh": "1007 hPa"}, {"icao": "VVDH", "name": "Dong Hoi", "metar": "METAR VVDH 192100Z AUTO VRB02KT 9999 BKN110/// 29/23 Q1005", "speci": null, "taf": "TAF VVDH 192000Z 1921/2006 21006KT 9999 FEW030", "raw": "METAR VVDH 192100Z AUTO VRB02KT 9999 BKN110/// 29/23 Q1005", "fltcat": "VFR", "wind": "VRB @ 2 kt", "vis": ">10 km", "clouds": "BKN110", "temp": 29, "dewp": 23, "qnh": "1005 hPa"}, {"icao": "VVDN", "name": "Da Nang Intl", "metar": "METAR VVDN 192100Z 23002KT 9999 FEW020 28/22 Q1006 NOSIG", "speci": null, "taf": "TAF VVDN 182300Z 1900/1924 23008KT 9999 FEW020 BECMG 1905/1906 01010KT BECMG 1913/1914 24006KT", "raw": "METAR VVDN 192100Z 23002KT 9999 FEW020 28/22 Q1006 NOSIG", "fltcat": "VFR", "wind": "230° @ 2 kt", "vis": ">10 km", "clouds": "FEW020", "temp": 28, "dewp": 22, "qnh": "1006 hPa", "atis": [{"kind": "ARR", "time": "2026-07-19 18:01 UTC", "text": "VVDN ARR ATIS K 1602Z VVDN INFO K 1602Z. ILS VICTOR APPROACH 35L.. DPTG RWY 35R.. 1602Z. WIND 210/04KT CAVOK T30 DP25 QNH 1005HPA TREND NOSIG. ADZ ON INITIAL CTC YOU HAVE INFO. K."}, {"kind": "DEP", "time": "2026-07-19 18:34 UTC", "text": "VVDN DEP ATIS J 1833Z VVDN INFO J 1833Z. ILS VICTOR APPROACH 35L.. DPTG RWY 35R.. 1833Z. WIND 300/02KT CAVOK T30 DP22 QNH 1006HPA TREND NOSIG. ADZ ON INITIAL CTC YOU HAVE INFO. J."}]}, {"icao": "VVNB", "name": "Noi Bai — Ha Noi", "metar": "METAR VVNB 192100Z 33002KT CAVOK 27/26 Q1002 NOSIG", "speci": null, "taf": "TAF AMD VVNB 190140Z 1902/1924 32005KT 9999 FEW030 TEMPO 1904/1908 32015G25KT 3000 TSRA BKN010 FEW027CB", "raw": "METAR VVNB 192100Z 33002KT CAVOK 27/26 Q1002 NOSIG", "fltcat": "VFR", "wind": "330° @ 2 kt", "vis": "CAVOK", "clouds": "NSC", "temp": 27, "dewp": 26, "qnh": "1002 hPa", "atis": [{"kind": "ARR", "time": "2026-07-19 20:31 UTC", "text": "VVNB ARR ATIS B 2007Z VVNB INFO B 2007Z. ILS X RWY 11L. DPTG RWY 11R AND ARR RWY 11L .. 2007Z. WIND 320/3KT VIS 10KM CLD NSC T27 DP26 QNH 1002HPA TREND NOSIG. ADZ ON INITIAL CTC YOU HAVE INFO B."}, {"kind": "DEP", "time": "2026-07-19 08:39 UTC", "text": "VVNB DEP ATIS P 1300Z VVNB INFO P 1300Z. ILS X RWY 11L. DPTG RWY 11R AND ARR RWY 11L .. 1300Z. WIND 220/6KT VIS 10KM CLD FEW 1200FT T35 DP24 QNH 0999HPA TREND NOSIG. ADZ ON INITIAL CTC YOU HAVE INFO P."}]}, {"icao": "VVPB", "name": "Phu Bai — Hue", "metar": "METAR VVPB 192100Z 19004KT 9999 FEW020 29/19 Q1005 NOSIG", "speci": null, "taf": "TAF VVPB 182300Z 1900/1924 22008KT 9999 FEW020 BECMG 1906/1907 07010KT BECMG 1914/1915 26006KT", "raw": "METAR VVPB 192100Z 19004KT 9999 FEW020 29/19 Q1005 NOSIG", "fltcat": "VFR", "wind": "190° @ 4 kt", "vis": ">10 km", "clouds": "FEW020", "temp": 29, "dewp": 19, "qnh": "1005 hPa"}, {"icao": "VVPC", "name": "Phu Cat — Quy Nhon", "metar": "METAR VVPC 192100Z AUTO 00000KT 9999 NCD 29/23 Q1007", "speci": null, "taf": "TAF VVPC 182300Z 1900/1924 24010KT 9999 FEW020 TEMPO 1903/1908 24015G25KT", "raw": "METAR VVPC 192100Z AUTO 00000KT 9999 NCD 29/23 Q1007", "fltcat": "VFR", "wind": "000° @ 0 kt", "vis": ">10 km", "clouds": "—", "temp": 29, "dewp": 23, "qnh": "1007 hPa"}, {"icao": "VVPK", "name": "Pleiku", "metar": "METAR VVPK 192100Z AUTO 25008KT 220V290 9999 FEW006/// SCT011/// 22/21 Q1013", "speci": null, "taf": "TAF VVPK 182300Z 1900/1924 26012KT 9999 SCT004 BKN006 PROB40 TEMPO 1900/1902 4000 RA BR BECMG 1902/1903 SCT015 TEMPO 1908/1912 26015G25KT 4000 SHRA BKN010 FEW015CB BKN040", "raw": "METAR VVPK 192100Z AUTO 25008KT 220V290 9999 FEW006/// SCT011/// 22/21 Q1013", "fltcat": "VFR", "wind": "250° @ 8 kt", "vis": ">10 km", "clouds": "FEW006 SCT011", "temp": 22, "dewp": 21, "qnh": "1013 hPa"}, {"icao": "VVPQ", "name": "Phu Quoc Intl", "metar": "METAR VVPQ 192100Z 33001KT 9999 FEW017 26/26 Q1010 NOSIG", "speci": null, "taf": "TAF VVPQ 182300Z 1900/1924 23010KT 9999 SCT015 TEMPO 1910/1914 5000 TSRA BKN015 FEW017CB BKN040", "raw": "METAR VVPQ 192100Z 33001KT 9999 FEW017 26/26 Q1010 NOSIG", "fltcat": "VFR", "wind": "330° @ 1 kt", "vis": ">10 km", "clouds": "FEW017", "temp": 26, "dewp": 26, "qnh": "1010 hPa"}, {"icao": "VVTH", "name": "Dong Tac — Tuy Hoa", "metar": "METAR VVTH 192100Z AUTO VRB02KT CAVOK 27/23 Q1008", "speci": null, "taf": "TAF VVTH 192000Z 1921/2006 24010KT 9999 FEW020", "raw": "METAR VVTH 192100Z AUTO VRB02KT CAVOK 27/23 Q1008", "fltcat": "VFR", "wind": "VRB @ 2 kt", "vis": "CAVOK", "clouds": "NSC", "temp": 27, "dewp": 23, "qnh": "1008 hPa"}, {"icao": "VVTS", "name": "Tan Son Nhat — Ho Chi Minh City", "metar": "METAR VVTS 192100Z 23006KT 9999 FEW013 28/26 Q1009 NOSIG", "speci": null, "taf": "TAF VVTS 182300Z 1900/2006 24010KT 9999 SCT017 TEMPO 1906/1910 24015G25KT 4000 TSRA BKN015 FEW017CB", "raw": "METAR VVTS 192100Z 23006KT 9999 FEW013 28/26 Q1009 NOSIG", "fltcat": "VFR", "wind": "230° @ 6 kt", "vis": ">10 km", "clouds": "FEW013", "temp": 28, "dewp": 26, "qnh": "1009 hPa", "atis": [{"kind": "ARR", "time": "2026-07-19 17:26 UTC", "text": "VVTS ARR ATIS R 1600Z VVTS INFO R 1600Z. ILSW APCH IN RWY 25R.. LDG RWY 25R AND DEP RWY 25L.. 1600Z. WIND RWY 25R TDZ 280/6KT CAVOK T28 DP24 QNH 1008HPA TREND NOSIG. ADZ ON INITIAL CTC YOU HAVE INFO R."}, {"kind": "DEP", "time": "2026-07-19 13:16 UTC", "text": "VVTS DEP ATIS O 1430Z VVTS INFO O 1430Z. ILSW APCH IN RWY 25R.. LDG RWY 25R AND DEP RWY 25L.. 1430Z. WIND RWY 25R TDZ 290/5KT END 250/4KT CAVOK T28 DP25 QNH 1009HPA TREND NOSIG. ADZ ON INITIAL CTC YOU HAVE INFO O."}]}, {"icao": "VVTX", "name": "Tho Xuan — Thanh Hoa", "metar": "METAR VVTX 192100Z AUTO 27003KT CAVOK 27/24 Q1002 NOSIG", "speci": null, "taf": "TAF VVTX 192000Z 1921/2006 VRB02KT 9999 FEW030", "raw": "METAR VVTX 192100Z AUTO 27003KT CAVOK 27/24 Q1002 NOSIG", "fltcat": "VFR", "wind": "270° @ 3 kt", "vis": "CAVOK", "clouds": "NSC", "temp": 27, "dewp": 24, "qnh": "1002 hPa"}, {"icao": "VVVD", "name": "Van Don — Quang Ninh", "metar": "METAR VVVD 192100Z AUTO 16002KT 9999 FEW060/// 28/26 Q1003", "speci": null, "taf": "TAF VVVD 182300Z 1900/1924 17005KT 9999 FEW030 TEMPO 1909/1912 4000 TSRA SCT012 FEW027CB", "raw": "METAR VVVD 192100Z AUTO 16002KT 9999 FEW060/// 28/26 Q1003", "fltcat": "VFR", "wind": "160° @ 2 kt", "vis": ">10 km", "clouds": "FEW060", "temp": 28, "dewp": 26, "qnh": "1003 hPa"}, {"icao": "VVVH", "name": "Vinh", "metar": "METAR VVVH 192100Z 28003KT CAVOK 29/20 Q1003 NOSIG", "speci": null, "taf": "TAF VVVH 182300Z 1900/1924 24006KT 9999 FEW030", "raw": "METAR VVVH 192100Z 28003KT CAVOK 29/20 Q1003 NOSIG", "fltcat": "VFR", "wind": "280° @ 3 kt", "vis": "CAVOK", "clouds": "NSC", "temp": 29, "dewp": 20, "qnh": "1003 hPa"}]}