{"updated": "2026-07-13T06:04:06+00:00", "source": "VN MET", "stations": [{"icao": "VVBM", "name": "Buon Ma Thuot", "metar": "METAR VVBM 130600Z 25011KT 210V290 8000 -SHRA SCT013 FEW015CB SCT040 27/23 Q1008 NOSIG", "speci": null, "taf": "TAF VVBM 130500Z 1306/1406 26012KT 9999 SCT015 SCT040 TEMPO 1306/1311 26015G26KT 5000 TSRA BKN010 FEW015CB BKN040 TEMPO 1322/1402 5000 RA BR BKN008 BKN040", "raw": "METAR VVBM 130600Z 25011KT 210V290 8000 -SHRA SCT013 FEW015CB SCT040 27/23 Q1008 NOSIG", "fltcat": "MVFR", "wind": "250° @ 11 kt", "vis": "8.0 km", "clouds": "SCT013 FEW015 SCT040", "temp": 27, "dewp": 23, "qnh": "1008 hPa"}, {"icao": "VVCA", "name": "Chu Lai", "metar": "METAR VVCA 130600Z 07010KT 040V100 9999 FEW030 BKN060 34/24 Q1001 NOSIG", "speci": null, "taf": "TAF VVCA 130500Z 1306/1315 06010KT 9999 FEW020 TEMPO 1309/1312 TS SCT013 FEW017CB BECMG 1312/1313 16008KT", "raw": "METAR VVCA 130600Z 07010KT 040V100 9999 FEW030 BKN060 34/24 Q1001 NOSIG", "fltcat": "VFR", "wind": "070° @ 10 kt", "vis": ">10 km", "clouds": "FEW030 BKN060", "temp": 34, "dewp": 24, "qnh": "1001 hPa"}, {"icao": "VVCI", "name": "Cat Bi — Hai Phong", "metar": "METAR VVCI 130600Z 13006KT 110V170 9999 FEW027TCU 33/26 Q1001 NOSIG", "speci": null, "taf": "TAF VVCI 130500Z 1306/1406 10006KT 9999 FEW030 TEMPO 1306/1310 3500 TSRA SCT015 FEW027CB TEMPO 1320/1324 4000 SHRA SCT012 FEW025TCU", "raw": "METAR VVCI 130600Z 13006KT 110V170 9999 FEW027TCU 33/26 Q1001 NOSIG", "fltcat": "VFR", "wind": "130° @ 6 kt", "vis": ">10 km", "clouds": "FEW027", "temp": 33, "dewp": 26, "qnh": "1001 hPa"}, {"icao": "VVCR", "name": "Cam Ranh — Nha Trang", "metar": "METAR VVCR 130600Z VRB04KT CAVOK 34/23 Q1005 NOSIG", "speci": null, "taf": "TAF VVCR 130500Z 1306/1406 20016KT 9999 FEW020", "raw": "METAR VVCR 130600Z VRB04KT CAVOK 34/23 Q1005 NOSIG", "fltcat": "VFR", "wind": "VRB @ 4 kt", "vis": "CAVOK", "clouds": "NSC", "temp": 34, "dewp": 23, "qnh": "1005 hPa", "atis": [{"kind": "ARR", "time": "2026-07-12 04:42 UTC", "text": "VVCR ARR ATIS F 0501Z VVCR INFO F 0501Z. ILS YANKEE APPROACH IN USE. LDG RWY 20L AND DPTG RWY 20R.. 0501Z. WIND RWY 20L TDZ 150/9KT MAX15 MNM6 MID 130/11KT END 120/10KT RWY 20R TDZ 130/9KT CAVOK T35 DP24 QNH 1010HPA TREND NOSIG. ADZ ON INITIAL CTC YOU HAVE INFO F."}, {"kind": "DEP", "time": "2026-05-29 05:57 UTC", "text": "VVCR DEP ATIS S 0533Z VVCR INFO S 0533Z. ILS Z APCH IN USE.. LDG RWY 02R AND DPTG RWY 02L.. 0532Z. WIND RWY 02R TDZ 080/9KT MID 090/8KT END 100/8KT RWY 02L TDZ 080/8KT CAVOK T31 DP26 QNH 1009HPA TREND TEMPO FM0630 VIS 4000M MOD TSRA. ADZ ON INITIAL CTC YOU HAVE INFO S."}]}, {"icao": "VVCS", "name": "Con Dao", "metar": "METAR VVCS 130600Z 28009KT 250V320 6000 RA VCTS BKN015 FEW017CB BKN040 23/23 Q1009 NOSIG", "speci": null, "taf": "TAF VVCS 130500Z 1306/1315 20010KT 9999 SCT017 SCT040 TEMPO 1306/1310 19015G27KT 3000 TSRA SCT015 FEW017CB BKN040", "raw": "METAR VVCS 130600Z 28009KT 250V320 6000 RA VCTS BKN015 FEW017CB BKN040 23/23 Q1009 NOSIG", "fltcat": "MVFR", "wind": "280° @ 9 kt", "vis": "6.0 km", "clouds": "BKN015 FEW017 BKN040", "temp": 23, "dewp": 23, "qnh": "1009 hPa"}, {"icao": "VVCT", "name": "Can Tho Intl", "metar": "METAR VVCT 130600Z 27014KT 6000 -SHRA SCT013 FEW015TCU BKN050 26/25 Q1008 NOSIG", "speci": null, "taf": "TAF VVCT 130500Z 1306/1406 24010KT 9999 SCT015 SCT040 TEMPO 1306/1310 24015G26KT 4000 TSRA BKN015 FEW017CB TEMPO 1400/1404 5000 TSRA SCT015 FEW017CB", "raw": "METAR VVCT 130600Z 27014KT 6000 -SHRA SCT013 FEW015TCU BKN050 26/25 Q1008 NOSIG", "fltcat": "MVFR", "wind": "270° @ 14 kt", "vis": "6.0 km", "clouds": "SCT013 FEW015 BKN050", "temp": 26, "dewp": 25, "qnh": "1008 hPa"}, {"icao": "VVDB", "name": "Dien Bien Phu", "metar": "METAR VVDB 130600Z 10004KT 070V140 9999 FEW024 BKN076 30/25 Q1004 NOSIG", "speci": null, "taf": "TAF VVDB 130500Z 1306/1315 VRB02KT 9999 FEW025 TEMPO 1307/1311 3500 TSRA SCT012 FEW027CB", "raw": "METAR VVDB 130600Z 10004KT 070V140 9999 FEW024 BKN076 30/25 Q1004 NOSIG", "fltcat": "VFR", "wind": "100° @ 4 kt", "vis": ">10 km", "clouds": "FEW024 BKN076", "temp": 30, "dewp": 25, "qnh": "1004 hPa"}, {"icao": "VVDH", "name": "Dong Hoi", "metar": "METAR VVDH 130600Z 21005KT 170V250 9999 SCT030 BKN035 31/25 Q1002 NOSIG", "speci": null, "taf": "TAF VVDH 130500Z 1306/1315 12005KT 9999 SCT020 TEMPO 1306/1310 4000 SHRA SCT010 FEW025TCU", "raw": "METAR VVDH 130600Z 21005KT 170V250 9999 SCT030 BKN035 31/25 Q1002 NOSIG", "fltcat": "VFR", "wind": "210° @ 5 kt", "vis": ">10 km", "clouds": "SCT030 BKN035", "temp": 31, "dewp": 25, "qnh": "1002 hPa"}, {"icao": "VVDN", "name": "Da Nang Intl", "metar": "METAR VVDN 130600Z 36005KT 330V040 9999 FEW020 SCT060 34/24 Q1002 NOSIG", "speci": null, "taf": "TAF VVDN 130500Z 1306/1406 36012KT 9999 FEW017 SCT060 BECMG 1307/1308 10011KT TEMPO 1308/1312 24015G25KT 4000 TSRA BKN013 FEW017CB BKN050 BECMG 1312/1313 23006KT", "raw": "METAR VVDN 130600Z 36005KT 330V040 9999 FEW020 SCT060 34/24 Q1002 NOSIG", "fltcat": "VFR", "wind": "360° @ 5 kt", "vis": ">10 km", "clouds": "FEW020 SCT060", "temp": 34, "dewp": 24, "qnh": "1002 hPa", "atis": [{"kind": "ARR", "time": "2026-07-13 04:53 UTC", "text": "VVDN ARR ATIS C 0432Z VVDN INFO C 0432Z. ILS VICTOR APPROACH 35L.. DPTG RWY 35R.. 0432Z. WIND 240/07KT CAVOK T34 DP22 QNH 1002HPA TREND NOSIG. WS ALL RWY. ADZ ON INITIAL CTC YOU HAVE INFO. C."}, {"kind": "DEP", "time": "2026-07-12 02:50 UTC", "text": "VVDN DEP ATIS N 0423Z VVDN INFO N 0423Z. ILS VICTOR APPROACH 35L.. DPTG RWY 35R.. 0423Z. WIND 010/02KT CAVOK T36 DP24 QNH 1008HPA TREND NOSIG. WS ALL RWY. ADZ ON INITIAL CTC YOU HAVE INFO. N."}]}, {"icao": "VVNB", "name": "Noi Bai — Ha Noi", "metar": "METAR VVNB 130600Z 03003KT 300V110 9999 FEW043 SCT068 34/27 Q1001 NOSIG", "speci": null, "taf": "TAF VVNB 130500Z 1306/1406 07006KT 9999 FEW025 TEMPO 1308/1312 3500 TSRA SCT010 FEW027CB TEMPO 1322/1401 4000 SHRA SCT012 FEW025TCU", "raw": "METAR VVNB 130600Z 03003KT 300V110 9999 FEW043 SCT068 34/27 Q1001 NOSIG", "fltcat": "VFR", "wind": "030° @ 3 kt", "vis": ">10 km", "clouds": "FEW043 SCT068", "temp": 34, "dewp": 27, "qnh": "1001 hPa", "atis": [{"kind": "ARR", "time": "2026-07-13 05:53 UTC", "text": "VVNB ARR ATIS Q 1241Z VVNB INFO Q 1241Z. ILS X RWY 11L. DPTG RWY 11R AND ARR RWY 11L .. 1241Z. WIND 340/9KT VIS 10KM FBL TSRA CLD FEW 4800FT T25 DP25 QNH 1006HPA TREND NOSIG. RWY CONDITION REPORT 5 5 5.. ADZ ON INITIAL CTC YOU HAVE INFO Q."}, {"kind": "DEP", "time": "2026-07-13 04:41 UTC", "text": "VVNB DEP ATIS N 1203Z VVNB INFO N 1203Z. ILS X RWY 11L. DPTG RWY 11R AND ARR RWY 11L .. 1201Z. WIND 260/18KT VIS 1100M HVY TSRA CLD OBSC VER VIS 700FT T26 DP25 QNH 1006HPA TREND BECMG TL1230 VIS 3000M MOD TSRA. RWY CONDITION REPORT 5 5 5.. ADZ ON INITIAL CTC YOU HAVE INFO N."}]}, {"icao": "VVPB", "name": "Phu Bai — Hue", "metar": "METAR VVPB 130600Z 29006KT 260V320 9999 FEW020 SCT060 35/21 Q1001 NOSIG", "speci": null, "taf": "TAF VVPB 130500Z 1306/1406 28008KT 9999 FEW020 SCT060 BECMG 1306/1307 08011KT TEMPO 1309/1313 24015G27KT 3000 TSRA BKN010 FEW015CB BKN050", "raw": "METAR VVPB 130600Z 29006KT 260V320 9999 FEW020 SCT060 35/21 Q1001 NOSIG", "fltcat": "VFR", "wind": "290° @ 6 kt", "vis": ">10 km", "clouds": "FEW020 SCT060", "temp": 35, "dewp": 21, "qnh": "1001 hPa"}, {"icao": "VVPC", "name": "Phu Cat — Quy Nhon", "metar": "METAR VVPC 130600Z 20008KT 170V230 9999 FEW030 BKN070 34/23 Q1003 NOSIG", "speci": null, "taf": "TAF VVPC 130500Z 1306/1406 24014KT 9999 FEW020 TEMPO 1306/1310 25016G26KT", "raw": "METAR VVPC 130600Z 20008KT 170V230 9999 FEW030 BKN070 34/23 Q1003 NOSIG", "fltcat": "VFR", "wind": "200° @ 8 kt", "vis": ">10 km", "clouds": "FEW030 BKN070", "temp": 34, "dewp": 23, "qnh": "1003 hPa"}, {"icao": "VVPK", "name": "Pleiku", "metar": "METAR VVPK 130600Z 27010KT 230V300 9999 SCT010 FEW020CB BKN040 25/23 Q1009 TEMPO FM0640 27015G25KT 4000 SHRA", "speci": null, "taf": "TAF VVPK 130500Z 1306/1406 27014KT 8000 SCT008 BKN012 TEMPO 1306/1312 27015G27KT 2000 +SHRA BKN005 BKN008 SCT015CB TEMPO 1312/1316 27015G27KT 3500 SHRA BKN006 BKN010 FEW015CB TEMPO 1322/1401 2000 RA BR BKN002 BKN005 TEMPO 1401/1403 3500 RA BR BKN003 BKN006", "raw": "METAR VVPK 130600Z 27010KT 230V300 9999 SCT010 FEW020CB BKN040 25/23 Q1009 TEMPO FM0640 27015G25KT 4000 SHRA", "fltcat": "VFR", "wind": "270° @ 10 kt", "vis": ">10 km", "clouds": "SCT010 FEW020 BKN040", "temp": 25, "dewp": 23, "qnh": "1009 hPa"}, {"icao": "VVPQ", "name": "Phu Quoc Intl", "metar": "METAR VVPQ 130600Z 32005KT 6000 -TSRA SCT015 FEW017CB SCT040 26/26 Q1008 TEMPO FM0605 TL0650 30015G28KT 3000 TSRA", "speci": null, "taf": "TAF VVPQ 130500Z 1306/1406 32010KT 9999 SCT017 SCT040 TEMPO 1306/1310 32015G28KT 4000 TSRA BKN015 SCT017CB TEMPO 1322/1402 30015G28KT 4000 TSRA BKN015 SCT017CB", "raw": "METAR VVPQ 130600Z 32005KT 6000 -TSRA SCT015 FEW017CB SCT040 26/26 Q1008 TEMPO FM0605 TL0650 30015G28KT 3000 TSRA", "fltcat": "MVFR", "wind": "320° @ 5 kt", "vis": "6.0 km", "clouds": "SCT015 FEW017 SCT040", "temp": 26, "dewp": 26, "qnh": "1008 hPa"}, {"icao": "VVRG", "name": "Rach Gia", "metar": "METAR VVRG 130600Z 25005KT 200V260 8000 -TSRA BKN013 FEW017CB BKN040 26/24 Q1008 NOSIG", "speci": null, "taf": "TAF VVRG 130500Z 1306/1315 26009KT 9999 SCT017 SCT040 TEMPO 1306/1310 26015G26KT 4000 TSRA BKN015 FEW017CB", "raw": "METAR VVRG 130600Z 25005KT 200V260 8000 -TSRA BKN013 FEW017CB BKN040 26/24 Q1008 NOSIG", "fltcat": "MVFR", "wind": "250° @ 5 kt", "vis": "8.0 km", "clouds": "BKN013 FEW017 BKN040", "temp": 26, "dewp": 24, "qnh": "1008 hPa"}, {"icao": "VVTH", "name": "Dong Tac — Tuy Hoa", "metar": "METAR VVTH 130600Z 22014KT 9999 FEW025 SCT050 31/25 Q1004 NOSIG", "speci": null, "taf": "TAF VVTH 130500Z 1306/1315 26014KT 9999 FEW020", "raw": "METAR VVTH 130600Z 22014KT 9999 FEW025 SCT050 31/25 Q1004 NOSIG", "fltcat": "VFR", "wind": "220° @ 14 kt", "vis": ">10 km", "clouds": "FEW025 SCT050", "temp": 31, "dewp": 25, "qnh": "1004 hPa"}, {"icao": "VVTS", "name": "Tan Son Nhat — Ho Chi Minh City", "metar": "METAR VVTS 130600Z 28011KT 8000 -SHRA SCT020 FEW023CB BKN036 28/27 Q1006 NOSIG", "speci": null, "taf": "TAF VVTS 130500Z 1306/1412 25008KT 9999 SCT017 SCT040 TEMPO 1307/1312 25015G26KT 3500 TSRA SCT015 FEW017CB BKN040", "raw": "METAR VVTS 130600Z 28011KT 8000 -SHRA SCT020 FEW023CB BKN036 28/27 Q1006 NOSIG", "fltcat": "MVFR", "wind": "280° @ 11 kt", "vis": "8.0 km", "clouds": "SCT020 FEW023 BKN036", "temp": 28, "dewp": 27, "qnh": "1006 hPa", "atis": [{"kind": "ARR", "time": "2026-07-13 03:37 UTC", "text": "VVTS ARR ATIS Q 1200Z VVTS INFO Q 1200Z. ILSW APCH IN RWY 25R.. LDG RWY 25R AND DEP RWY 25L.. 1200Z. WIND RWY 25R TDZ 210/6KT VRB BTN 180/ AND 240/ VIS 10KM CLD SCT 2000FT FEW CB 2300FT BKN 5000FT T30 DP25 QNH 1009HPA CB IN APCH TREND NOSIG. ADZ ON INITIAL CTC YOU HAVE INFO Q."}, {"kind": "DEP", "time": "2026-07-13 01:59 UTC", "text": "VVTS DEP ATIS P 1130Z VVTS INFO P 1130Z. ILSW APCH IN RWY 25R.. LDG RWY 25R AND DEP RWY 25L.. 1130Z. WIND RWY 25R TDZ 230/4KT END 190/4KT VIS 10KM CLD SCT 2000FT FEW CB 2300FT BKN 4900FT T30 DP24 QNH 1008HPA CB IN APCH TREND NOSIG. ADZ ON INITIAL CTC YOU HAVE INFO P."}]}, {"icao": "VVTX", "name": "Tho Xuan — Thanh Hoa", "metar": "METAR VVTX 130600Z VRB02KT 9999 FEW025CB BKN030 34/22 Q1000 TEMPO FM0620 3500 TSRA", "speci": null, "taf": "TAF VVTX 130500Z 1306/1315 VRB03KT 9999 SCT025 TEMPO 1306/1310 3000 TSRA SCT010 FEW027CB", "raw": "METAR VVTX 130600Z VRB02KT 9999 FEW025CB BKN030 34/22 Q1000 TEMPO FM0620 3500 TSRA", "fltcat": "MVFR", "wind": "VRB @ 2 kt", "vis": ">10 km", "clouds": "FEW025 BKN030", "temp": 34, "dewp": 22, "qnh": "1000 hPa"}, {"icao": "VVVD", "name": "Van Don — Quang Ninh", "metar": "METAR VVVD 130600Z VRB04KT 9999 SCT030 33/27 Q1002 NOSIG", "speci": null, "taf": "TAF VVVD 130500Z 1306/1406 06005KT 9999 FEW025 TEMPO 1307/1312 3500 TSRA SCT015 FEW027CB TEMPO 1320/1324 4000 SHRA SCT012 FEW025TCU", "raw": "METAR VVVD 130600Z VRB04KT 9999 SCT030 33/27 Q1002 NOSIG", "fltcat": "VFR", "wind": "VRB @ 4 kt", "vis": ">10 km", "clouds": "SCT030", "temp": 33, "dewp": 27, "qnh": "1002 hPa"}, {"icao": "VVVH", "name": "Vinh", "metar": "METAR VVVH 130600Z 24003KT 180V320 9999 FEW020 SCT023 BKN033 32/25 Q1001 NOSIG", "speci": null, "taf": "TAF VVVH 130500Z 1306/1406 23006KT 9999 SCT020 TEMPO 1306/1310 3000 TSRA BKN012 FEW027CB TEMPO 1312/1316 4000 SHRA SCT012 FEW025TCU", "raw": "METAR VVVH 130600Z 24003KT 180V320 9999 FEW020 SCT023 BKN033 32/25 Q1001 NOSIG", "fltcat": "VFR", "wind": "240° @ 3 kt", "vis": ">10 km", "clouds": "FEW020 SCT023 BKN033", "temp": 32, "dewp": 25, "qnh": "1001 hPa"}]}