{"updated": "2026-07-16T12:33:35+00:00", "source": "VN MET", "stations": [{"icao": "VVBM", "name": "Buon Ma Thuot", "metar": "METAR VVBM 161200Z 25003KT 9999 SCT015 SCT040 25/22 Q1012 NOSIG", "speci": null, "taf": "TAF VVBM 161100Z 1612/1712 VRB02KT 9999 SCT013 SCT040 BECMG 1702/1703 26010KT TEMPO 1707/1711 5000 TSRA SCT010 FEW013CB BKN040", "raw": "METAR VVBM 161200Z 25003KT 9999 SCT015 SCT040 25/22 Q1012 NOSIG", "fltcat": "VFR", "wind": "250° @ 3 kt", "vis": ">10 km", "clouds": "SCT015 SCT040", "temp": 25, "dewp": 22, "qnh": "1012 hPa"}, {"icao": "VVCA", "name": "Chu Lai", "metar": "METAR VVCA 161230Z AUTO 13003KT 9999 OVC150/// 31/25 Q1005", "speci": null, "taf": "TAF VVCA 152300Z 1600/1609 14008KT 9999 FEW020", "raw": "METAR VVCA 161230Z AUTO 13003KT 9999 OVC150/// 31/25 Q1005", "fltcat": "VFR", "wind": "130° @ 3 kt", "vis": ">10 km", "clouds": "OVC150", "temp": 31, "dewp": 25, "qnh": "1005 hPa"}, {"icao": "VVCI", "name": "Cat Bi — Hai Phong", "metar": "METAR VVCI 161230Z 23004KT CAVOK 31/25 Q1001 NOSIG", "speci": null, "taf": "TAF VVCI 161100Z 1612/1712 12006KT 9999 FEW020 TEMPO 1621/1624 4000 SHRA BKN015 FEW025TCU", "raw": "METAR VVCI 161230Z 23004KT CAVOK 31/25 Q1001 NOSIG", "fltcat": "VFR", "wind": "230° @ 4 kt", "vis": "CAVOK", "clouds": "NSC", "temp": 31, "dewp": 25, "qnh": "1001 hPa"}, {"icao": "VVCR", "name": "Cam Ranh — Nha Trang", "metar": "METAR VVCR 161230Z VRB01KT 9999 FEW017 SCT060 30/25 Q1009 NOSIG", "speci": null, "taf": "TAF VVCR 161100Z 1612/1712 33005KT 9999 FEW017 SCT070 BECMG 1702/1703 10010KT TEMPO 1709/1712 TS SCT013 FEW017CB SCT070", "raw": "METAR VVCR 161230Z VRB01KT 9999 FEW017 SCT060 30/25 Q1009 NOSIG", "fltcat": "VFR", "wind": "VRB @ 1 kt", "vis": ">10 km", "clouds": "FEW017 SCT060", "temp": 30, "dewp": 25, "qnh": "1009 hPa", "atis": [{"kind": "ARR", "time": "2026-07-13 09:29 UTC", "text": "VVCR ARR ATIS W 1330Z VVCR INFO W 1330Z. ILS YANKEE APPROACH IN USE. LDG RWY 20L AND DPTG RWY 20R.. 1330Z. WIND RWY 20L TDZ 330/3KT VRB BTN 260/ AND 360/ MID 310/3KT VRB BTN 280/ AND 340/ END 320/3KT RWY 20R TDZ 320/1KT CAVOK T29 DP25 QNH 1010HPA TREND NOSIG. ADZ ON INITIAL CTC YOU HAVE INFO W."}, {"kind": "DEP", "time": "2026-05-29 05:57 UTC", "text": "VVCR DEP ATIS S 0533Z VVCR INFO S 0533Z. ILS Z APCH IN USE.. LDG RWY 02R AND DPTG RWY 02L.. 0532Z. WIND RWY 02R TDZ 080/9KT MID 090/8KT END 100/8KT RWY 02L TDZ 080/8KT CAVOK T31 DP26 QNH 1009HPA TREND TEMPO FM0630 VIS 4000M MOD TSRA. ADZ ON INITIAL CTC YOU HAVE INFO S."}]}, {"icao": "VVCT", "name": "Can Tho Intl", "metar": "METAR VVCT 161230Z 22004KT 9999 FEW015 SCT040 27/25 Q1011 NOSIG", "speci": null, "taf": "TAF VVCT 161100Z 1612/1712 VRB03KT 9999 SCT013 BKN040 BECMG 1704/1705 27010KT TEMPO 1707/1710 5000 SHRA SCT015 FEW017CB", "raw": "METAR VVCT 161230Z 22004KT 9999 FEW015 SCT040 27/25 Q1011 NOSIG", "fltcat": "VFR", "wind": "220° @ 4 kt", "vis": ">10 km", "clouds": "FEW015 SCT040", "temp": 27, "dewp": 25, "qnh": "1011 hPa"}, {"icao": "VVDB", "name": "Dien Bien Phu", "metar": "METAR VVDB 161230Z AUTO 00000KT 9000 // BKN023/// OVC034/// 25/24 Q1006 RE//", "speci": null, "taf": "TAF VVDB 152300Z 1600/1609 21005KT 9999 SCT030 TEMPO 1607/1609 4000 TSRA SCT015 FEW027CB", "raw": "METAR VVDB 161230Z AUTO 00000KT 9000 // BKN023/// OVC034/// 25/24 Q1006 RE//", "fltcat": "MVFR", "wind": "000° @ 0 kt", "vis": "9.0 km", "clouds": "BKN023 OVC034", "temp": 25, "dewp": 24, "qnh": "1006 hPa"}, {"icao": "VVDH", "name": "Dong Hoi", "metar": "METAR VVDH 161200Z 17003KT 130V200 CAVOK 31/24 Q1004 NOSIG", "speci": null, "taf": "TAF VVDH 152300Z 1600/1609 21008KT 9999 FEW030", "raw": "METAR VVDH 161200Z 17003KT 130V200 CAVOK 31/24 Q1004 NOSIG", "fltcat": "VFR", "wind": "170° @ 3 kt", "vis": "CAVOK", "clouds": "NSC", "temp": 31, "dewp": 24, "qnh": "1004 hPa"}, {"icao": "VVDN", "name": "Da Nang Intl", "metar": "METAR VVDN 161230Z 30003KT 9999 FEW020 SCT070 31/27 Q1006 NOSIG", "speci": null, "taf": "TAF VVDN 161100Z 1612/1712 24005KT 9999 FEW020 SCT070 PROB30 TEMPO 1617/1621 35015KT 4500 TSRA BKN012 FEW015CB BKN060 TEMPO 1709/1712 TS SCT013 FEW017CB SCT070", "raw": "METAR VVDN 161230Z 30003KT 9999 FEW020 SCT070 31/27 Q1006 NOSIG", "fltcat": "VFR", "wind": "300° @ 3 kt", "vis": ">10 km", "clouds": "FEW020 SCT070", "temp": 31, "dewp": 27, "qnh": "1006 hPa", "atis": [{"kind": "ARR", "time": "2026-07-16 11:15 UTC", "text": "VVDN ARR ATIS E 1402Z VVDN INFO E 1402Z. ILS VICTOR APPROACH 35L.. DPTG RWY 35R.. 1402Z. WIND VRB/01KT CAVOK T31 DP25 QNH 1006HPA TREND NOSIG. ADZ ON INITIAL CTC YOU HAVE INFO. E."}, {"kind": "DEP", "time": "2026-07-12 02:50 UTC", "text": "VVDN DEP ATIS N 0423Z VVDN INFO N 0423Z. ILS VICTOR APPROACH 35L.. DPTG RWY 35R.. 0423Z. WIND 010/02KT CAVOK T36 DP24 QNH 1008HPA TREND NOSIG. WS ALL RWY. ADZ ON INITIAL CTC YOU HAVE INFO. N."}]}, {"icao": "VVNB", "name": "Noi Bai — Ha Noi", "metar": "METAR VVNB 161230Z 09003KT 040V120 8000 NSC 29/27 Q1000 NOSIG", "speci": null, "taf": "TAF VVNB 161100Z 1612/1712 14005KT 9999 FEW020 PROB30 TEMPO 1621/1701 3500 TSRA SCT015 FEW027CB", "raw": "METAR VVNB 161230Z 09003KT 040V120 8000 NSC 29/27 Q1000 NOSIG", "fltcat": "MVFR", "wind": "090° @ 3 kt", "vis": "8.0 km", "clouds": "NSC", "temp": 29, "dewp": 27, "qnh": "1000 hPa", "atis": [{"kind": "ARR", "time": "2026-07-16 11:03 UTC", "text": "VVNB ARR ATIS Q 1400Z VVNB INFO Q 1400Z. ILS X RWY 11L. DPTG RWY 11R AND ARR RWY 11L .. 1400Z. WIND 200/6KT CAVOK T31 DP25 QNH 1001HPA TREND NOSIG. ADZ ON INITIAL CTC YOU HAVE INFO Q."}, {"kind": "DEP", "time": "2026-07-16 02:01 UTC", "text": "VVNB DEP ATIS K 1100Z VVNB INFO K 1100Z. ILS X RWY 11L. DPTG RWY 11R AND ARR RWY 11L .. 1100Z. WIND 200/6KT CAVOK T34 DP25 QNH 1001HPA TREND NOSIG. ADZ ON INITIAL CTC YOU HAVE INFO K."}]}, {"icao": "VVPB", "name": "Phu Bai — Hue", "metar": "METAR VVPB 161230Z 10005KT 9999 FEW020 30/25 Q1006 NOSIG", "speci": null, "taf": "TAF VVPB 161100Z 1612/1712 22007KT 9999 FEW020 SCT060 PROB40 TEMPO 1617/1621 34015KT 4000 TSRA BKN012 FEW015CB BKN050 TEMPO 1708/1712 TS SCT013 FEW017CB SCT060", "raw": "METAR VVPB 161230Z 10005KT 9999 FEW020 30/25 Q1006 NOSIG", "fltcat": "VFR", "wind": "100° @ 5 kt", "vis": ">10 km", "clouds": "FEW020", "temp": 30, "dewp": 25, "qnh": "1006 hPa"}, {"icao": "VVPC", "name": "Phu Cat — Quy Nhon", "metar": "METAR VVPC 161230Z 20001KT 9999 FEW025 BKN070 30/23 Q1008 NOSIG", "speci": null, "taf": "TAF VVPC 161100Z 1612/1712 22006KT 9999 FEW020", "raw": "METAR VVPC 161230Z 20001KT 9999 FEW025 BKN070 30/23 Q1008 NOSIG", "fltcat": "VFR", "wind": "200° @ 1 kt", "vis": ">10 km", "clouds": "FEW025 BKN070", "temp": 30, "dewp": 23, "qnh": "1008 hPa"}, {"icao": "VVPK", "name": "Pleiku", "metar": "METAR VVPK 161230Z 25006KT 9999 FEW011 23/22 Q1014 NOSIG", "speci": null, "taf": "TAF VVPK 161100Z 1612/1712 26008KT 9999 SCT015 SCT050 TEMPO 1612/1615 4000 SHRA BKN010 FEW015CB BKN040 TEMPO 1622/1701 2000 RA BR BKN002 BKN004 TEMPO 1701/1703 4000 RA BR BKN004 BKN008", "raw": "METAR VVPK 161230Z 25006KT 9999 FEW011 23/22 Q1014 NOSIG", "fltcat": "VFR", "wind": "250° @ 6 kt", "vis": ">10 km", "clouds": "FEW011", "temp": 23, "dewp": 22, "qnh": "1014 hPa"}, {"icao": "VVPQ", "name": "Phu Quoc Intl", "metar": "METAR VVPQ 161230Z 36003KT 9999 SCT015 27/27 Q1011 NOSIG", "speci": null, "taf": "TAF VVPQ 161100Z 1612/1712 25005KT 9999 SCT017 SCT040 TEMPO 1706/1709 5000 SHRA SCT015 FEW017CB", "raw": "METAR VVPQ 161230Z 36003KT 9999 SCT015 27/27 Q1011 NOSIG", "fltcat": "VFR", "wind": "360° @ 3 kt", "vis": ">10 km", "clouds": "SCT015", "temp": 27, "dewp": 27, "qnh": "1011 hPa"}, {"icao": "VVTH", "name": "Dong Tac — Tuy Hoa", "metar": "METAR VVTH 161230Z VRB02KT CAVOK 30/23 Q1008 NOSIG", "speci": null, "taf": "TAF VVTH 152300Z 1600/1609 24014KT 9999 FEW020", "raw": "METAR VVTH 161230Z VRB02KT CAVOK 30/23 Q1008 NOSIG", "fltcat": "VFR", "wind": "VRB @ 2 kt", "vis": "CAVOK", "clouds": "NSC", "temp": 30, "dewp": 23, "qnh": "1008 hPa"}, {"icao": "VVTS", "name": "Tan Son Nhat — Ho Chi Minh City", "metar": "METAR COR VVTS 161230Z 27012G27KT 240V320 9999 SCT022 FEW026CB 31/25 Q1011 TEMPO TL1300 26015G30KT 1000 +TSRA", "speci": null, "taf": "TAF VVTS 161100Z 1612/1718 25008KT 9999 SCT017 TEMPO 1612/1616 25015G26KT 3500 TSRA SCT013 SCT015CB TEMPO 1709/1713 5000 TSRA SCT015 FEW017CB", "raw": "METAR COR VVTS 161230Z 27012G27KT 240V320 9999 SCT022 FEW026CB 31/25 Q1011 TEMPO TL1300 26015G30KT 1000 +TSRA", "fltcat": "VFR", "wind": "270° @ 12 kt G27", "vis": ">10 km", "clouds": "SCT022 FEW026", "temp": 31, "dewp": 25, "qnh": "1011 hPa", "atis": [{"kind": "ARR", "time": "2026-07-16 11:44 UTC", "text": "VVTS ARR ATIS Q 1400Z VVTS INFO Q 1400Z. ILSW APCH IN RWY 25R.. LDG RWY 25R AND DEP RWY 25L.. 1400Z. WIND RWY 25R TDZ 260/5KT CAVOK T31 DP26 QNH 1008HPA TREND NOSIG. ADZ ON INITIAL CTC YOU HAVE INFO Q."}, {"kind": "DEP", "time": "2026-07-15 17:12 UTC", "text": "VVTS DEP ATIS E 0800Z VVTS INFO E 0800Z. ILSW APCH IN RWY 25R.. LDG RWY 25R AND DEP RWY 25L.. 0800Z. WIND RWY 25R TDZ 290/9KT VRB BTN 240/ AND 330/ VIS 10KM CLD FEW 4800FT T35 DP25 QNH 1006HPA TREND TEMPO FM0945 280/16KT MAX28 VIS 3000M MOD TSRA CLD BKN 1500FT FEW CB 1700FT. ADZ ON INITIAL CTC YOU HAVE INFO E."}]}, {"icao": "VVTX", "name": "Tho Xuan — Thanh Hoa", "metar": "METAR VVTX 161230Z 19002KT CAVOK 30/24 Q1001 NOSIG", "speci": null, "taf": "TAF VVTX 152300Z 1600/1609 24005KT 9999 FEW030", "raw": "METAR VVTX 161230Z 19002KT CAVOK 30/24 Q1001 NOSIG", "fltcat": "VFR", "wind": "190° @ 2 kt", "vis": "CAVOK", "clouds": "NSC", "temp": 30, "dewp": 24, "qnh": "1001 hPa"}, {"icao": "VVVD", "name": "Van Don — Quang Ninh", "metar": "METAR VVVD 161230Z AUTO VRB01KT 9999 FEW062/// 29/27 Q1002", "speci": null, "taf": "TAF VVVD 161100Z 1612/1712 04005KT 9999 FEW020 TEMPO 1621/1624 3500 TSRA SCT015 FEW027CB", "raw": "METAR VVVD 161230Z AUTO VRB01KT 9999 FEW062/// 29/27 Q1002", "fltcat": "VFR", "wind": "VRB @ 1 kt", "vis": ">10 km", "clouds": "FEW062", "temp": 29, "dewp": 27, "qnh": "1002 hPa"}, {"icao": "VVVH", "name": "Vinh", "metar": "METAR VVVH 161230Z 23007KT 180V280 CAVOK 32/21 Q1002 NOSIG", "speci": null, "taf": "TAF VVVH 161100Z 1612/1712 23010KT 9999 FEW030", "raw": "METAR VVVH 161230Z 23007KT 180V280 CAVOK 32/21 Q1002 NOSIG", "fltcat": "VFR", "wind": "230° @ 7 kt", "vis": "CAVOK", "clouds": "NSC", "temp": 32, "dewp": 21, "qnh": "1002 hPa"}]}