{"updated": "2026-07-18T16:03:46+00:00", "source": "VN MET", "stations": [{"icao": "VVBM", "name": "Buon Ma Thuot", "metar": "METAR VVBM 181600Z 33003KT 270V020 9999 SCT013 23/22 Q1012 NOSIG", "speci": null, "taf": "TAF VVBM 172300Z 1800/1824 23008KT 9999 SCT015 TEMPO 1807/1811 5000 TSRA SCT013 FEW015CB", "raw": "METAR VVBM 181600Z 33003KT 270V020 9999 SCT013 23/22 Q1012 NOSIG", "fltcat": "VFR", "wind": "330° @ 3 kt", "vis": ">10 km", "clouds": "SCT013", "temp": 23, "dewp": 22, "qnh": "1012 hPa"}, {"icao": "VVCA", "name": "Chu Lai", "metar": "METAR VVCA 181600Z AUTO VRB02KT 9999 NCD 29/23 Q1005", "speci": null, "taf": "TAF VVCA 172300Z 1800/1809 19007KT 9999 FEW020 BECMG 1803/1804 08010KT", "raw": "METAR VVCA 181600Z AUTO VRB02KT 9999 NCD 29/23 Q1005", "fltcat": "VFR", "wind": "VRB @ 2 kt", "vis": ">10 km", "clouds": "—", "temp": 29, "dewp": 23, "qnh": "1005 hPa"}, {"icao": "VVCI", "name": "Cat Bi — Hai Phong", "metar": "METAR VVCI 181600Z 19004KT CAVOK 31/27 Q1002 NOSIG", "speci": null, "taf": "TAF VVCI 172300Z 1800/1824 21006KT 9999 FEW030 TEMPO 1809/1814 3500 SHRA SCT012 FEW025TCU TEMPO 1820/1824 4000 SHRA SCT015 FEW025TCU", "raw": "METAR VVCI 181600Z 19004KT CAVOK 31/27 Q1002 NOSIG", "fltcat": "VFR", "wind": "190° @ 4 kt", "vis": "CAVOK", "clouds": "NSC", "temp": 31, "dewp": 27, "qnh": "1002 hPa"}, {"icao": "VVCR", "name": "Cam Ranh — Nha Trang", "metar": "METAR VVCR 181600Z 21005KT CAVOK 30/25 Q1008 NOSIG", "speci": null, "taf": "TAF VVCR 172300Z 1800/1824 19008KT 9999 FEW017 BECMG 1803/1804 10010KT BECMG 1812/1813 20007KT", "raw": "METAR VVCR 181600Z 21005KT CAVOK 30/25 Q1008 NOSIG", "fltcat": "VFR", "wind": "210° @ 5 kt", "vis": "CAVOK", "clouds": "NSC", "temp": 30, "dewp": 25, "qnh": "1008 hPa", "atis": [{"kind": "ARR", "time": "2026-07-17 14:03 UTC", "text": "VVCR ARR ATIS F 1401Z VVCR INFO F 1401Z. ILS Z APCH IN USE.. LDG RWY 02R AND DPTG RWY 02L.. 1400Z. WIND RWY 02R TDZ 040/3KT MID 340/3KT END 010/6KT RWY 02L TDZ 020/3KT VIS RWY 02R TDZ 10KM END"}, {"kind": "DEP", "time": "2026-05-29 05:57 UTC", "text": "VVCR DEP ATIS S 0533Z VVCR INFO S 0533Z. ILS Z APCH IN USE.. LDG RWY 02R AND DPTG RWY 02L.. 0532Z. WIND RWY 02R TDZ 080/9KT MID 090/8KT END 100/8KT RWY 02L TDZ 080/8KT CAVOK T31 DP26 QNH 1009HPA TREND TEMPO FM0630 VIS 4000M MOD TSRA. ADZ ON INITIAL CTC YOU HAVE INFO S."}]}, {"icao": "VVCT", "name": "Can Tho Intl", "metar": "METAR VVCT 181600Z 21005KT 9999 SCT013 BKN040 27/25 Q1011 NOSIG", "speci": null, "taf": "TAF VVCT 172300Z 1800/1824 20008KT 9999 SCT015 TEMPO 1806/1810 5000 TSRA SCT013 FEW015CB", "raw": "METAR VVCT 181600Z 21005KT 9999 SCT013 BKN040 27/25 Q1011 NOSIG", "fltcat": "VFR", "wind": "210° @ 5 kt", "vis": ">10 km", "clouds": "SCT013 BKN040", "temp": 27, "dewp": 25, "qnh": "1011 hPa"}, {"icao": "VVDB", "name": "Dien Bien Phu", "metar": "METAR VVDB 181600Z AUTO 34001KT 9999 // FEW008/// BKN022/// OVC027/// 24/23 Q1008 RE//", "speci": null, "taf": "TAF VVDB 172300Z 1800/1809 18005KT 6000 SCT020 TEMPO 1800/1803 4000 SHRA SCT012 FEW025TCU TEMPO 1806/1809 3500 SHRA SCT010 FEW025TCU", "raw": "METAR VVDB 181600Z AUTO 34001KT 9999 // FEW008/// BKN022/// OVC027/// 24/23 Q1008 RE//", "fltcat": "MVFR", "wind": "340° @ 1 kt", "vis": ">10 km", "clouds": "FEW008 BKN022 OVC027", "temp": 24, "dewp": 23, "qnh": "1008 hPa"}, {"icao": "VVDH", "name": "Dong Hoi", "metar": "METAR VVDH 181600Z AUTO 20005KT 160V220 9999 FEW056/// 31/23 Q1006", "speci": null, "taf": "TAF VVDH 172300Z 1800/1809 26010KT 9999 FEW030", "raw": "METAR VVDH 181600Z AUTO 20005KT 160V220 9999 FEW056/// 31/23 Q1006", "fltcat": "VFR", "wind": "200° @ 5 kt", "vis": ">10 km", "clouds": "FEW056", "temp": 31, "dewp": 23, "qnh": "1006 hPa"}, {"icao": "VVDN", "name": "Da Nang Intl", "metar": "METAR VVDN 181600Z 21003KT 180V250 9999 FEW020 30/24 Q1007 NOSIG", "speci": null, "taf": "TAF VVDN 172300Z 1800/1824 22008KT 9999 FEW020 BECMG 1804/1805 36010KT BECMG 1809/1810 12008KT", "raw": "METAR VVDN 181600Z 21003KT 180V250 9999 FEW020 30/24 Q1007 NOSIG", "fltcat": "VFR", "wind": "210° @ 3 kt", "vis": ">10 km", "clouds": "FEW020", "temp": 30, "dewp": 24, "qnh": "1007 hPa", "atis": [{"kind": "ARR", "time": "2026-07-18 11:37 UTC", "text": "VVDN ARR ATIS Q 0633Z VVDN INFO Q 0633Z. ILS VICTOR APPROACH 35L.. DPTG RWY 35R.. 0633Z. WIND 080/06KT VIS 10KM CLD SCT 6400FT T37 DP24 QNH 1003HPA TREND NOSIG. ADZ ON INITIAL CTC YOU HAVE INFO. Q."}, {"kind": "DEP", "time": "2026-07-18 08:03 UTC", "text": "VVDN DEP ATIS M 0536Z VVDN INFO M 0536Z. ILS VICTOR APPROACH 35L.. DPTG RWY 35R.. 0536Z. WIND 040/01KT VIS 10KM CLD FEW 6600FT T39 DP24 QNH 1003HPA TREND NOSIG. ADZ ON INITIAL CTC YOU HAVE INFO. M."}]}, {"icao": "VVNB", "name": "Noi Bai — Ha Noi", "metar": "METAR VVNB 181600Z 32003KT CAVOK 31/26 Q1002 NOSIG", "speci": null, "taf": "TAF VVNB 172300Z 1800/1824 22006KT 9999 FEW030 TEMPO 1806/1809 4000 SHRA SCT015 FEW025TCU PROB40 TEMPO 1812/1816 3000 TSRA SCT010 FEW027CB TEMPO 1820/1824 3500 SHRA SCT012 FEW025TCU", "raw": "METAR VVNB 181600Z 32003KT CAVOK 31/26 Q1002 NOSIG", "fltcat": "VFR", "wind": "320° @ 3 kt", "vis": "CAVOK", "clouds": "NSC", "temp": 31, "dewp": 26, "qnh": "1002 hPa", "atis": [{"kind": "ARR", "time": "2026-07-18 15:30 UTC", "text": "VVNB ARR ATIS E 0730Z VVNB INFO E 0730Z. ILS X RWY 11L. DPTG RWY 11R AND ARR RWY 11L .. 0730Z. WIND 310/6KT VIS 10KM CLD FEW 300FT T37 DP25 QNH 0998HPA TREND NOSIG. ADZ ON INITIAL CTC YOU HAVE INFO E."}, {"kind": "DEP", "time": "2026-07-18 09:51 UTC", "text": "VVNB DEP ATIS B 0608Z VVNB INFO B 0608Z. ILS X RWY 11L. DPTG RWY 11R AND ARR RWY 11L .. 0608Z. WIND VRB1KT CAVOK T37 DP26 QNH 0999HPA TREND NOSIG. ADZ ON INITIAL CTC YOU HAVE INFO B."}]}, {"icao": "VVPB", "name": "Phu Bai — Hue", "metar": "METAR VVPB 181600Z 27003KT 9999 FEW020 29/25 Q1006 NOSIG", "speci": null, "taf": "TAF VVPB 172300Z 1800/1824 21008KT 9999 FEW020 BECMG 1805/1806 08010KT BECMG 1812/1813 22007KT", "raw": "METAR VVPB 181600Z 27003KT 9999 FEW020 29/25 Q1006 NOSIG", "fltcat": "VFR", "wind": "270° @ 3 kt", "vis": ">10 km", "clouds": "FEW020", "temp": 29, "dewp": 25, "qnh": "1006 hPa"}, {"icao": "VVPC", "name": "Phu Cat — Quy Nhon", "metar": "METAR VVPC 181600Z 25004KT 220V280 9999 FEW020 30/22 Q1007 NOSIG", "speci": null, "taf": "TAF VVPC 172300Z 1800/1824 24010KT 9999 FEW020", "raw": "METAR VVPC 181600Z 25004KT 220V280 9999 FEW020 30/22 Q1007 NOSIG", "fltcat": "VFR", "wind": "250° @ 4 kt", "vis": ">10 km", "clouds": "FEW020", "temp": 30, "dewp": 22, "qnh": "1007 hPa"}, {"icao": "VVPK", "name": "Pleiku", "metar": "METAR VVPK 181600Z AUTO 33004KT 9999 BKN150/// 22/21 Q1014", "speci": null, "taf": "TAF VVPK 172300Z 1800/1824 26010KT 2000 BR BKN002 BKN005 BECMG 1800/1801 4000 BR BKN004 BKN008 BECMG 1801/1802 8000 NSW SCT010", "raw": "METAR VVPK 181600Z AUTO 33004KT 9999 BKN150/// 22/21 Q1014", "fltcat": "VFR", "wind": "330° @ 4 kt", "vis": ">10 km", "clouds": "BKN150", "temp": 22, "dewp": 21, "qnh": "1014 hPa"}, {"icao": "VVPQ", "name": "Phu Quoc Intl", "metar": "METAR VVPQ 181600Z 23011KT 9999 SCT015 29/28 Q1011 NOSIG", "speci": null, "taf": "TAF VVPQ 172300Z 1800/1824 25009KT 9999 SCT015 TEMPO 1802/1806 5000 TSRA SCT013 FEW015CB", "raw": "METAR VVPQ 181600Z 23011KT 9999 SCT015 29/28 Q1011 NOSIG", "fltcat": "VFR", "wind": "230° @ 11 kt", "vis": ">10 km", "clouds": "SCT015", "temp": 29, "dewp": 28, "qnh": "1011 hPa"}, {"icao": "VVTH", "name": "Dong Tac — Tuy Hoa", "metar": "METAR VVTH 181600Z AUTO 26004KT 210V300 CAVOK 30/24 Q1008", "speci": null, "taf": "TAF VVTH 172300Z 1800/1809 24012KT 9999 FEW020", "raw": "METAR VVTH 181600Z AUTO 26004KT 210V300 CAVOK 30/24 Q1008", "fltcat": "VFR", "wind": "260° @ 4 kt", "vis": "CAVOK", "clouds": "NSC", "temp": 30, "dewp": 24, "qnh": "1008 hPa"}, {"icao": "VVTS", "name": "Tan Son Nhat — Ho Chi Minh City", "metar": "METAR VVTS 181600Z 22004KT 9999 FEW028 BKN042 28/26 Q1010 NOSIG", "speci": null, "taf": "TAF VVTS 172300Z 1800/1906 26010KT 9999 SCT017 TEMPO 1808/1812 26015G26KT 4000 TSRA SCT015 FEW017CB", "raw": "METAR VVTS 181600Z 22004KT 9999 FEW028 BKN042 28/26 Q1010 NOSIG", "fltcat": "VFR", "wind": "220° @ 4 kt", "vis": ">10 km", "clouds": "FEW028 BKN042", "temp": 28, "dewp": 26, "qnh": "1010 hPa", "atis": [{"kind": "ARR", "time": "2026-07-18 14:27 UTC", "text": "VVTS ARR ATIS A 0730Z VVTS INFO A 0730Z. ILSW APCH IN RWY 25R.. LDG RWY 25R AND DEP RWY 25L.. 0730Z. WIND RWY 25R TDZ 290/10KT VIS 10KM CLD SCT 2300FT SCT 4800FT T32 DP25 QNH 1005HPA TREND NOSIG. ADZ ON INITIAL CTC YOU HAVE INFO A."}, {"kind": "DEP", "time": "2026-07-18 06:13 UTC", "text": "VVTS DEP ATIS V 0500Z VVTS INFO V 0500Z. ILSW APCH IN RWY 25R.. LDG RWY 25R AND DEP RWY 25L.. 0500Z. WIND RWY 25L TDZ 270/12KT MAX17 MNM8 MID 270/12KT MAX17 MNM9 END 280/12KT MAX18 MNM8 VRB BTN 250/ AND 310/ RWY 25R TDZ 270/12KT MAX17 MNM8 VIS RWY 25R TDZ 10KM CLD RWY 25R BKN 2500FT FEW CB 2700FT T34 DP26 QNH 1007HPA CB IN APCH TREND NOSIG. ADZ ON INITIAL CTC YOU HAVE INFO V."}]}, {"icao": "VVTX", "name": "Tho Xuan — Thanh Hoa", "metar": "METAR VVTX 181530Z VRB01KT 9999 SCT030 29/22 Q1003 NOSIG", "speci": null, "taf": "TAF VVTX 172300Z 1800/1809 23006KT 9999 FEW030", "raw": "METAR VVTX 181530Z VRB01KT 9999 SCT030 29/22 Q1003 NOSIG", "fltcat": "VFR", "wind": "VRB @ 1 kt", "vis": ">10 km", "clouds": "SCT030", "temp": 29, "dewp": 22, "qnh": "1003 hPa"}, {"icao": "VVVD", "name": "Van Don — Quang Ninh", "metar": "METAR VVVD 181600Z AUTO VRB03KT 9999 SCT058/// 30/27 Q1003", "speci": null, "taf": "TAF VVVD 172300Z 1800/1824 20006KT 9999 FEW030 TEMPO 1810/1814 3500 SHRA SCT012 FEW025TCU TEMPO 1819/1824 4000 SHRA SCT015 FEW025TCU", "raw": "METAR VVVD 181600Z AUTO VRB03KT 9999 SCT058/// 30/27 Q1003", "fltcat": "VFR", "wind": "VRB @ 3 kt", "vis": ">10 km", "clouds": "SCT058", "temp": 30, "dewp": 27, "qnh": "1003 hPa"}, {"icao": "VVVH", "name": "Vinh", "metar": "METAR VVVH 181600Z 25009KT 210V300 CAVOK 32/20 Q1004 NOSIG", "speci": null, "taf": "TAF VVVH 172300Z 1800/1824 26010KT 9999 FEW030", "raw": "METAR VVVH 181600Z 25009KT 210V300 CAVOK 32/20 Q1004 NOSIG", "fltcat": "VFR", "wind": "250° @ 9 kt", "vis": "CAVOK", "clouds": "NSC", "temp": 32, "dewp": 20, "qnh": "1004 hPa"}]}