{"updated": "2026-07-13T04:07:06+00:00", "source": "VN MET", "stations": [{"icao": "VVBM", "name": "Buon Ma Thuot", "metar": "METAR VVBM 130400Z 25013G23KT 220V280 9999 SCT013 FEW015CB SCT040 29/22 Q1009 NOSIG", "speci": null, "taf": "TAF VVBM 122300Z 1300/1324 24009KT 9999 SCT012 SCT040 TEMPO 1305/1308 5000 TSRA SCT010 FEW013CB BKN040 TEMPO 1308/1313 24015G28KT 3000 TSRA BKN010 SCT013CB BKN040", "raw": "METAR VVBM 130400Z 25013G23KT 220V280 9999 SCT013 FEW015CB SCT040 29/22 Q1009 NOSIG", "fltcat": "VFR", "wind": "250° @ 13 kt G23", "vis": ">10 km", "clouds": "SCT013 FEW015 SCT040", "temp": 29, "dewp": 22, "qnh": "1009 hPa"}, {"icao": "VVCA", "name": "Chu Lai", "metar": "METAR VVCA 130400Z 04007KT 010V080 9999 FEW030 35/23 Q1002 NOSIG", "speci": null, "taf": "TAF VVCA 130200Z 1303/1312 05010KT 9999 FEW020", "raw": "METAR VVCA 130400Z 04007KT 010V080 9999 FEW030 35/23 Q1002 NOSIG", "fltcat": "VFR", "wind": "040° @ 7 kt", "vis": ">10 km", "clouds": "FEW030", "temp": 35, "dewp": 23, "qnh": "1002 hPa"}, {"icao": "VVCI", "name": "Cat Bi — Hai Phong", "metar": "METAR VVCI 130400Z 15004KT 050V200 9999 FEW030 34/26 Q1002 NOSIG", "speci": null, "taf": "TAF AMD VVCI 130200Z 1302/1324 12005KT 9999 FEW030 TEMPO 1307/1311 4000 TSRA SCT010 FEW027CB", "raw": "METAR VVCI 130400Z 15004KT 050V200 9999 FEW030 34/26 Q1002 NOSIG", "fltcat": "VFR", "wind": "150° @ 4 kt", "vis": ">10 km", "clouds": "FEW030", "temp": 34, "dewp": 26, "qnh": "1002 hPa"}, {"icao": "VVCR", "name": "Cam Ranh — Nha Trang", "metar": "METAR VVCR 130400Z 21015KT CAVOK 31/24 Q1007 NOSIG", "speci": null, "taf": "TAF VVCR 122300Z 1300/1324 20014KT 9999 FEW017", "raw": "METAR VVCR 130400Z 21015KT CAVOK 31/24 Q1007 NOSIG", "fltcat": "VFR", "wind": "210° @ 15 kt", "vis": "CAVOK", "clouds": "NSC", "temp": 31, "dewp": 24, "qnh": "1007 hPa", "atis": [{"kind": "ARR", "time": "2026-07-12 04:42 UTC", "text": "VVCR ARR ATIS F 0501Z VVCR INFO F 0501Z. ILS YANKEE APPROACH IN USE. LDG RWY 20L AND DPTG RWY 20R.. 0501Z. WIND RWY 20L TDZ 150/9KT MAX15 MNM6 MID 130/11KT END 120/10KT RWY 20R TDZ 130/9KT CAVOK T35 DP24 QNH 1010HPA TREND NOSIG. ADZ ON INITIAL CTC YOU HAVE INFO F."}, {"kind": "DEP", "time": "2026-05-29 05:57 UTC", "text": "VVCR DEP ATIS S 0533Z VVCR INFO S 0533Z. ILS Z APCH IN USE.. LDG RWY 02R AND DPTG RWY 02L.. 0532Z. WIND RWY 02R TDZ 080/9KT MID 090/8KT END 100/8KT RWY 02L TDZ 080/8KT CAVOK T31 DP26 QNH 1009HPA TREND TEMPO FM0630 VIS 4000M MOD TSRA. ADZ ON INITIAL CTC YOU HAVE INFO S."}]}, {"icao": "VVCS", "name": "Con Dao", "metar": "METAR VVCS 130400Z 19008KT 130V230 9999 SCT017 31/26 Q1008 NOSIG", "speci": null, "taf": "TAF VVCS 130200Z 1303/1312 20010KT 9999 SCT017 SCT040 TEMPO 1305/1310 21015G27KT 2000 +TSRA SCT015 SCT017CB BKN040", "raw": "METAR VVCS 130400Z 19008KT 130V230 9999 SCT017 31/26 Q1008 NOSIG", "fltcat": "VFR", "wind": "190° @ 8 kt", "vis": ">10 km", "clouds": "SCT017", "temp": 31, "dewp": 26, "qnh": "1008 hPa"}, {"icao": "VVCT", "name": "Can Tho Intl", "metar": "METAR VVCT 130400Z 25009KT 9999 SCT013 BKN050 29/25 Q1009 NOSIG", "speci": null, "taf": "TAF VVCT 122300Z 1300/1324 23009KT 9999 SCT013 SCT040 TEMPO 1300/1304 5000 TSRA SCT013 FEW015CB BKN040 TEMPO 1304/1308 23015G26KT 3000 TSRA SCT013 SCT015CB BKN040 TEMPO 1308/1312 5000 TSRA SCT013 FEW015CB BKN040", "raw": "METAR VVCT 130400Z 25009KT 9999 SCT013 BKN050 29/25 Q1009 NOSIG", "fltcat": "VFR", "wind": "250° @ 9 kt", "vis": ">10 km", "clouds": "SCT013 BKN050", "temp": 29, "dewp": 25, "qnh": "1009 hPa"}, {"icao": "VVDB", "name": "Dien Bien Phu", "metar": "METAR VVDB 130400Z VRB02KT 9999 FEW025 29/22 Q1005 NOSIG", "speci": null, "taf": "TAF VVDB 130200Z 1303/1312 VRB02KT 9999 SCT025 TEMPO 1306/1310 3500 TSRA SCT015 FEW027CB", "raw": "METAR VVDB 130400Z VRB02KT 9999 FEW025 29/22 Q1005 NOSIG", "fltcat": "VFR", "wind": "VRB @ 2 kt", "vis": ">10 km", "clouds": "FEW025", "temp": 29, "dewp": 22, "qnh": "1005 hPa"}, {"icao": "VVDH", "name": "Dong Hoi", "metar": "METAR VVDH 130400Z 19005KT 150V230 9999 FEW028 SCT034 31/26 Q1003 NOSIG", "speci": null, "taf": "TAF VVDH 130200Z 1303/1312 22008KT 9999 FEW025 TEMPO 1303/1309 2500 +TSRA BKN010 FEW027CB", "raw": "METAR VVDH 130400Z 19005KT 150V230 9999 FEW028 SCT034 31/26 Q1003 NOSIG", "fltcat": "VFR", "wind": "190° @ 5 kt", "vis": ">10 km", "clouds": "FEW028 SCT034", "temp": 31, "dewp": 26, "qnh": "1003 hPa"}, {"icao": "VVDN", "name": "Da Nang Intl", "metar": "METAR VVDN 130400Z 23009KT 9999 FEW020 SCT060 34/22 Q1003 NOSIG", "speci": null, "taf": "TAF VVDN 122300Z 1300/1324 22008KT 9999 FEW017 SCT060 PROB40 TEMPO 1309/1313 24015G25KT 4500 TSRA BKN013 FEW015CB BKN050", "raw": "METAR VVDN 130400Z 23009KT 9999 FEW020 SCT060 34/22 Q1003 NOSIG", "fltcat": "VFR", "wind": "230° @ 9 kt", "vis": ">10 km", "clouds": "FEW020 SCT060", "temp": 34, "dewp": 22, "qnh": "1003 hPa", "atis": [{"kind": "ARR", "time": "2026-07-13 03:56 UTC", "text": "VVDN ARR ATIS E 1203Z VVDN INFO E 1203Z. ILS VICTOR APPROACH 35L.. DPTG RWY 35R.. 1203Z. WIND 160/04KT VIS 10KM CLD FEW 5700FT T31 DP25 QNH 1008HPA TREND NOSIG. ADZ ON INITIAL CTC YOU HAVE INFO. E."}, {"kind": "DEP", "time": "2026-07-12 02:50 UTC", "text": "VVDN DEP ATIS N 0423Z VVDN INFO N 0423Z. ILS VICTOR APPROACH 35L.. DPTG RWY 35R.. 0423Z. WIND 010/02KT CAVOK T36 DP24 QNH 1008HPA TREND NOSIG. WS ALL RWY. ADZ ON INITIAL CTC YOU HAVE INFO. N."}]}, {"icao": "VVNB", "name": "Noi Bai — Ha Noi", "metar": "METAR VVNB 130400Z VRB03KT CAVOK 33/26 Q1002 NOSIG", "speci": null, "taf": "TAF AMD VVNB 130200Z 1302/1403 08006KT 9000 FEW025 TEMPO 1308/1312 3500 TSRA SCT010 FEW027CB", "raw": "METAR VVNB 130400Z VRB03KT CAVOK 33/26 Q1002 NOSIG", "fltcat": "VFR", "wind": "VRB @ 3 kt", "vis": "CAVOK", "clouds": "NSC", "temp": 33, "dewp": 26, "qnh": "1002 hPa", "atis": [{"kind": "ARR", "time": "2026-07-13 00:23 UTC", "text": "VVNB ARR ATIS I 1101Z VVNB INFO I 1101Z. ILS X RWY 11L. DPTG RWY 11R AND ARR RWY 11L .. 1101Z. WIND 150/6KT VIS 10KM CLD FEW TCU 2500FT RWY 11L FEW 1300FT T36 DP25 QNH 1003HPA TREND TEMPO FM1145 230/15KT MAX25 VIS 3000M MOD TSRA CLD FEW CB 2700FT. ADZ ON INITIAL CTC YOU HAVE INFO I."}, {"kind": "DEP", "time": "2026-07-12 20:27 UTC", "text": "VVNB DEP ATIS F 0930Z VVNB INFO F 0930Z. ILS X RWY 11L. DPTG RWY 11R AND ARR RWY 11L .. 0930Z. WIND 170/4KT CAVOK T36 DP25 QNH 1002HPA TREND NOSIG. ADZ ON INITIAL CTC YOU HAVE INFO F."}]}, {"icao": "VVNS", "name": "Na San — Son La", "metar": "METAR VVNS 130400Z /////KT 9999 SCT035 27/23 Q1007 NOSIG", "speci": null, "taf": null, "raw": "METAR VVNS 130400Z /////KT 9999 SCT035 27/23 Q1007 NOSIG", "fltcat": "VFR", "wind": "—", "vis": ">10 km", "clouds": "SCT035", "temp": 27, "dewp": 23, "qnh": "1007 hPa"}, {"icao": "VVPB", "name": "Phu Bai — Hue", "metar": "METAR VVPB 130400Z 28010KT 9999 FEW020 SCT060 34/21 Q1003 NOSIG", "speci": null, "taf": "TAF VVPB 122300Z 1300/1324 20008KT 9999 FEW017 SCT050 TEMPO 1308/1312 23015G25KT 4000 TSRA BKN013 FEW015CB BKN050", "raw": "METAR VVPB 130400Z 28010KT 9999 FEW020 SCT060 34/21 Q1003 NOSIG", "fltcat": "VFR", "wind": "280° @ 10 kt", "vis": ">10 km", "clouds": "FEW020 SCT060", "temp": 34, "dewp": 21, "qnh": "1003 hPa"}, {"icao": "VVPC", "name": "Phu Cat — Quy Nhon", "metar": "METAR VVPC 130400Z 24011KT 9999 FEW030 34/22 Q1004 TEMPO 24015G25KT", "speci": null, "taf": "TAF VVPC 122300Z 1300/1324 25010KT 9999 FEW017 TEMPO 1303/1309 25015G25KT", "raw": "METAR VVPC 130400Z 24011KT 9999 FEW030 34/22 Q1004 TEMPO 24015G25KT", "fltcat": "VFR", "wind": "240° @ 11 kt", "vis": ">10 km", "clouds": "FEW030", "temp": 34, "dewp": 22, "qnh": "1004 hPa"}, {"icao": "VVPK", "name": "Pleiku", "metar": "METAR VVPK 130400Z 28014KT 9999 SCT009 BKN014 24/22 Q1011 NOSIG", "speci": null, "taf": "TAF VVPK 122300Z 1300/1324 26015KT 8000 SCT005 BKN010 TEMPO 1300/1304 26015G25KT 4000 RA BR BKN003 BKN008 TEMPO 1309/1313 26017G27KT 3500 SHRA BKN004 BKN010 FEW015CB", "raw": "METAR VVPK 130400Z 28014KT 9999 SCT009 BKN014 24/22 Q1011 NOSIG", "fltcat": "MVFR", "wind": "280° @ 14 kt", "vis": ">10 km", "clouds": "SCT009 BKN014", "temp": 24, "dewp": 22, "qnh": "1011 hPa"}, {"icao": "VVPQ", "name": "Phu Quoc Intl", "metar": "METAR VVPQ 130400Z 32006KT 8000 -RA SCT015 FEW017CB SCT040 26/26 Q1009 NOSIG", "speci": null, "taf": "TAF VVPQ 122300Z 1300/1324 23012KT 9999 SCT013 SCT040 TEMPO 1300/1304 23015G28KT 5000 TSRA SCT013 FEW015CB BKN040 TEMPO 1304/1309 23015G28KT 3000 TSRA SCT013 SCT015CB BKN040 TEMPO 1322/1324 5000 TSRA SCT013 FEW015CB BKN040", "raw": "METAR VVPQ 130400Z 32006KT 8000 -RA SCT015 FEW017CB SCT040 26/26 Q1009 NOSIG", "fltcat": "MVFR", "wind": "320° @ 6 kt", "vis": "8.0 km", "clouds": "SCT015 FEW017 SCT040", "temp": 26, "dewp": 26, "qnh": "1009 hPa"}, {"icao": "VVRG", "name": "Rach Gia", "metar": "METAR VVRG 130400Z 27004KT 220V320 8000 -RA SCT013 FEW017CB BKN040 27/25 Q1008 NOSIG", "speci": null, "taf": "TAF VVRG 130200Z 1303/1312 23010KT 9999 SCT017 SCT040 TEMPO 1303/1307 5000 TSRA SCT015 FEW017CB", "raw": "METAR VVRG 130400Z 27004KT 220V320 8000 -RA SCT013 FEW017CB BKN040 27/25 Q1008 NOSIG", "fltcat": "MVFR", "wind": "270° @ 4 kt", "vis": "8.0 km", "clouds": "SCT013 FEW017 BKN040", "temp": 27, "dewp": 25, "qnh": "1008 hPa"}, {"icao": "VVTH", "name": "Dong Tac — Tuy Hoa", "metar": "METAR VVTH 130400Z 23008KT 190V280 9999 FEW020 33/23 Q1005 NOSIG", "speci": null, "taf": "TAF VVTH 130200Z 1303/1312 25014KT 9999 FEW020 TEMPO 1303/1306 25016G26KT", "raw": "METAR VVTH 130400Z 23008KT 190V280 9999 FEW020 33/23 Q1005 NOSIG", "fltcat": "VFR", "wind": "230° @ 8 kt", "vis": ">10 km", "clouds": "FEW020", "temp": 33, "dewp": 23, "qnh": "1005 hPa"}, {"icao": "VVTS", "name": "Tan Son Nhat — Ho Chi Minh City", "metar": "METAR VVTS 130400Z 24013KT 210V270 9999 SCT025 32/26 Q1008 NOSIG", "speci": null, "taf": "TAF VVTS 122300Z 1300/1406 22010KT 9999 SCT017 TEMPO 1304/1307 22015G28KT 4000 TSRA SCT015 SCT017CB TEMPO 1307/1311 5000 SHRA SCT015 FEW017CB", "raw": "METAR VVTS 130400Z 24013KT 210V270 9999 SCT025 32/26 Q1008 NOSIG", "fltcat": "VFR", "wind": "240° @ 13 kt", "vis": ">10 km", "clouds": "SCT025", "temp": 32, "dewp": 26, "qnh": "1008 hPa", "atis": [{"kind": "ARR", "time": "2026-07-13 03:37 UTC", "text": "VVTS ARR ATIS Q 1200Z VVTS INFO Q 1200Z. ILSW APCH IN RWY 25R.. LDG RWY 25R AND DEP RWY 25L.. 1200Z. WIND RWY 25R TDZ 210/6KT VRB BTN 180/ AND 240/ VIS 10KM CLD SCT 2000FT FEW CB 2300FT BKN 5000FT T30 DP25 QNH 1009HPA CB IN APCH TREND NOSIG. ADZ ON INITIAL CTC YOU HAVE INFO Q."}, {"kind": "DEP", "time": "2026-07-13 01:59 UTC", "text": "VVTS DEP ATIS P 1130Z VVTS INFO P 1130Z. ILSW APCH IN RWY 25R.. LDG RWY 25R AND DEP RWY 25L.. 1130Z. WIND RWY 25R TDZ 230/4KT END 190/4KT VIS 10KM CLD SCT 2000FT FEW CB 2300FT BKN 4900FT T30 DP24 QNH 1008HPA CB IN APCH TREND NOSIG. ADZ ON INITIAL CTC YOU HAVE INFO P."}]}, {"icao": "VVTX", "name": "Tho Xuan — Thanh Hoa", "metar": "METAR VVTX 130400Z 36004KT 340V040 9999 FEW025 32/23 Q1001 NOSIG", "speci": null, "taf": "TAF VVTX 130200Z 1303/1312 34005KT 9999 SCT020 TEMPO 1305/1310 3500 TSRA BKN015 FEW027CB", "raw": "METAR VVTX 130400Z 36004KT 340V040 9999 FEW025 32/23 Q1001 NOSIG", "fltcat": "VFR", "wind": "360° @ 4 kt", "vis": ">10 km", "clouds": "FEW025", "temp": 32, "dewp": 23, "qnh": "1001 hPa"}, {"icao": "VVVD", "name": "Van Don — Quang Ninh", "metar": "METAR VVVD 130400Z VRB03KT 9999 FEW020 33/28 Q1003 NOSIG", "speci": null, "taf": "TAF VVVD 122300Z 1300/1324 09005KT 9999 FEW020 TEMPO 1303/1307 4000 TSRA SCT010 FEW027CB", "raw": "METAR VVVD 130400Z VRB03KT 9999 FEW020 33/28 Q1003 NOSIG", "fltcat": "VFR", "wind": "VRB @ 3 kt", "vis": ">10 km", "clouds": "FEW020", "temp": 33, "dewp": 28, "qnh": "1003 hPa"}, {"icao": "VVVH", "name": "Vinh", "metar": "METAR VVVH 130400Z 23005KT 180V280 9999 FEW019 BKN046 29/25 Q1002 NOSIG", "speci": null, "taf": "TAF VVVH 122300Z 1300/1324 24005KT 9999 FEW030 TEMPO 1300/1304 4000 TSRA SCT010 FEW027CB TEMPO 1308/1312 3000 TSRA SCT010 FEW027CB", "raw": "METAR VVVH 130400Z 23005KT 180V280 9999 FEW019 BKN046 29/25 Q1002 NOSIG", "fltcat": "VFR", "wind": "230° @ 5 kt", "vis": ">10 km", "clouds": "FEW019 BKN046", "temp": 29, "dewp": 25, "qnh": "1002 hPa"}]}