{"updated": "2026-07-11T08:38:53+00:00", "source": "VN MET", "stations": [{"icao": "VVBM", "name": "Buon Ma Thuot", "metar": "METAR VVBM 110830Z 29020G32KT 260V320 3000 TSRA BKN012 SCT015CB BKN040 24/22 Q1006 TEMPO TL0850 27020G32KT 1000 +TSRA", "speci": null, "taf": "TAF VVBM 110500Z 1106/1206 27010KT 9999 SCT013 SCT040 TEMPO 1106/1109 27015G26KT 5000 TSRA BKN013 FEW015CB BKN040 TEMPO 1109/1112 27015G26KT 3000 TSRA BKN013 SCT015CB BKN040", "raw": "METAR VVBM 110830Z 29020G32KT 260V320 3000 TSRA BKN012 SCT015CB BKN040 24/22 Q1006 TEMPO TL0850 27020G32KT 1000 +TSRA", "fltcat": "IFR", "wind": "290° @ 20 kt G32", "vis": "3.0 km", "clouds": "BKN012 SCT015 BKN040", "temp": 24, "dewp": 22, "qnh": "1006 hPa"}, {"icao": "VVCA", "name": "Chu Lai", "metar": "METAR VVCA 110830Z 04007KT 020V080 9999 SCT046 SCT082 35/23 Q0997 NOSIG", "speci": null, "taf": "TAF VVCA 110500Z 1106/1115 16007KT 9999 FEW020", "raw": "METAR VVCA 110830Z 04007KT 020V080 9999 SCT046 SCT082 35/23 Q0997 NOSIG", "fltcat": "VFR", "wind": "040° @ 7 kt", "vis": ">10 km", "clouds": "SCT046 SCT082", "temp": 35, "dewp": 23, "qnh": "997 hPa"}, {"icao": "VVCI", "name": "Cat Bi — Hai Phong", "metar": "METAR VVCI 110830Z 12005KT 9999 FEW029 SCT041 30/27 Q0996 NOSIG", "speci": null, "taf": "TAF VVCI 110500Z 1106/1206 12005KT 9999 SCT015 BKN030 TEMPO 1106/1110 4000 TSRA SCT010 FEW027CB BKN030 TEMPO 1112/1117 3000 TSRA SCT012 FEW027CB BKN030 TEMPO 1121/1201 4000 TSRA SCT010 FEW027CB BKN030", "raw": "METAR VVCI 110830Z 12005KT 9999 FEW029 SCT041 30/27 Q0996 NOSIG", "fltcat": "VFR", "wind": "120° @ 5 kt", "vis": ">10 km", "clouds": "FEW029 SCT041", "temp": 30, "dewp": 27, "qnh": "996 hPa"}, {"icao": "VVCR", "name": "Cam Ranh — Nha Trang", "metar": "METAR VVCR 110830Z 19012KT 9999 FEW020 35/25 Q1001 NOSIG", "speci": null, "taf": "TAF VVCR 110500Z 1106/1206 18010KT 9999 FEW020", "raw": "METAR VVCR 110830Z 19012KT 9999 FEW020 35/25 Q1001 NOSIG", "fltcat": "VFR", "wind": "190° @ 12 kt", "vis": ">10 km", "clouds": "FEW020", "temp": 35, "dewp": 25, "qnh": "1001 hPa", "atis": [{"kind": "ARR", "time": "2026-07-10 21:26 UTC", "text": "VVCR ARR ATIS J 1800Z VVCR INFO J 1800Z. ILS YANKEE APPROACH IN USE. LDG RWY 20L AND DPTG RWY 20R.. 1800Z. WIND RWY 20L TDZ 230/3KT MID 230/4KT END 260/4KT RWY 20R TDZ 210/3KT CAVOK T29 DP25 QNH 1011HPA TREND NOSIG. ADZ ON INITIAL CTC YOU HAVE INFO J."}, {"kind": "DEP", "time": "2026-05-29 05:57 UTC", "text": "VVCR DEP ATIS S 0533Z VVCR INFO S 0533Z. ILS Z APCH IN USE.. LDG RWY 02R AND DPTG RWY 02L.. 0532Z. WIND RWY 02R TDZ 080/9KT MID 090/8KT END 100/8KT RWY 02L TDZ 080/8KT CAVOK T31 DP26 QNH 1009HPA TREND TEMPO FM0630 VIS 4000M MOD TSRA. ADZ ON INITIAL CTC YOU HAVE INFO S."}]}, {"icao": "VVCS", "name": "Con Dao", "metar": "METAR VVCS 110830Z 26009G19KT 200V350 9999 FEW017 30/24 Q1005 NOSIG", "speci": null, "taf": "TAF VVCS 110500Z 1106/1115 27009KT 9999 SCT017 TEMPO 1106/1109 27015G26KT", "raw": "METAR VVCS 110830Z 26009G19KT 200V350 9999 FEW017 30/24 Q1005 NOSIG", "fltcat": "VFR", "wind": "260° @ 9 kt G19", "vis": ">10 km", "clouds": "FEW017", "temp": 30, "dewp": 24, "qnh": "1005 hPa"}, {"icao": "VVCT", "name": "Can Tho Intl", "metar": "METAR VVCT 110830Z 26010KT 230V300 9999 BKN015 32/25 Q1004 NOSIG", "speci": null, "taf": "TAF VVCT 110500Z 1106/1206 25012KT 9999 SCT015 SCT040 TEMPO 1106/1110 25015G26KT 5000 TSRA BKN015 FEW017CB BKN040", "raw": "METAR VVCT 110830Z 26010KT 230V300 9999 BKN015 32/25 Q1004 NOSIG", "fltcat": "MVFR", "wind": "260° @ 10 kt", "vis": ">10 km", "clouds": "BKN015", "temp": 32, "dewp": 25, "qnh": "1004 hPa"}, {"icao": "VVDB", "name": "Dien Bien Phu", "metar": "METAR VVDB 110830Z 18006KT 9999 FEW034 SCT046 30/25 Q0999 NOSIG", "speci": null, "taf": "TAF VVDB 110500Z 1106/1115 16005KT 9999 SCT025 TEMPO 1109/1113 4800 SHRA SCT010 FEW025TCU", "raw": "METAR VVDB 110830Z 18006KT 9999 FEW034 SCT046 30/25 Q0999 NOSIG", "fltcat": "VFR", "wind": "180° @ 6 kt", "vis": ">10 km", "clouds": "FEW034 SCT046", "temp": 30, "dewp": 25, "qnh": "999 hPa"}, {"icao": "VVDH", "name": "Dong Hoi", "metar": "METAR VVDH 110830Z 25009KT 190V310 CAVOK 34/23 Q0998 NOSIG", "speci": null, "taf": "TAF VVDH 110500Z 1106/1115 22015KT 9999 FEW035 TEMPO 1106/1112 24017G27KT", "raw": "METAR VVDH 110830Z 25009KT 190V310 CAVOK 34/23 Q0998 NOSIG", "fltcat": "VFR", "wind": "250° @ 9 kt", "vis": "CAVOK", "clouds": "NSC", "temp": 34, "dewp": 23, "qnh": "998 hPa"}, {"icao": "VVDN", "name": "Da Nang Intl", "metar": "METAR VVDN 110830Z 12006KT 9999 SCT020 BKN055 33/23 Q0998 NOSIG", "speci": null, "taf": "TAF VVDN 110500Z 1106/1206 21010KT 9999 FEW020 BECMG 1106/1107 02010KT BECMG 1111/1112 23007KT", "raw": "METAR VVDN 110830Z 12006KT 9999 SCT020 BKN055 33/23 Q0998 NOSIG", "fltcat": "VFR", "wind": "120° @ 6 kt", "vis": ">10 km", "clouds": "SCT020 BKN055", "temp": 33, "dewp": 23, "qnh": "998 hPa", "atis": [{"kind": "ARR", "time": "2026-07-10 17:26 UTC", "text": "VVDN ARR ATIS O 1632Z VVDN INFO O 1632Z. ILS VICTOR APPROACH 35L.. DPTG RWY 35R.. 1632Z. WIND 240/02KT CAVOK T29 DP25 QNH 1009HPA TREND NOSIG. ADZ ON INITIAL CTC YOU HAVE INFO. O."}, {"kind": "DEP", "time": "2026-07-09 06:26 UTC", "text": "VVDN DEP ATIS R 0503Z VVDN INFO R 0503Z. ILS VICTOR APPROACH 35L.. DPTG RWY 35R.. 0502Z. WIND 090/05KT VRB BTN 070/ AND 140/ CAVOK T37 DP23 QNH 1007HPA TREND NOSIG. ADZ ON INITIAL CTC YOU HAVE INFO. R."}]}, {"icao": "VVNB", "name": "Noi Bai — Ha Noi", "metar": "METAR VVNB 110830Z VRB03KT 9999 FEW030TCU SCT050 35/26 Q0996 TEMPO 4000 SHRA", "speci": null, "taf": "TAF VVNB 110500Z 1106/1206 05005KT 9999 SCT025 TEMPO 1106/1110 3000 TSRA SCT010 FEW027CB TEMPO 1112/1118 2500 +TSRA SCT012 FEW027CB TEMPO 1122/1202 4000 TSRA SCT010 FEW027CB", "raw": "METAR VVNB 110830Z VRB03KT 9999 FEW030TCU SCT050 35/26 Q0996 TEMPO 4000 SHRA", "fltcat": "VFR", "wind": "VRB @ 3 kt", "vis": ">10 km", "clouds": "FEW030 SCT050", "temp": 35, "dewp": 26, "qnh": "996 hPa", "atis": [{"kind": "ARR", "time": "2026-07-11 08:37 UTC", "text": "VVNB ARR ATIS J 2230Z VVNB INFO J 2230Z. ILS X RWY 11L. DPTG RWY 11R AND ARR RWY 11L .. 2230Z. WIND 070/5KT VIS 10KM CLD NSC T26 DP25 QNH 1006HPA TREND NOSIG. ADZ ON INITIAL CTC YOU HAVE INFO J."}, {"kind": "DEP", "time": "2026-07-11 04:33 UTC", "text": "VVNB DEP ATIS E 2040Z VVNB INFO E 2040Z. ILS W RWY 29L .. DEP 29L AND ARR 29L.. 2031Z. WIND 070/4KT VIS 10KM CLD 1600FT T26 DP25 QNH 1006HPA TREND NOSIG. ADZ ON INITIAL CTC YOU HAVE INFO E."}]}, {"icao": "VVPB", "name": "Phu Bai — Hue", "metar": "METAR VVPB 110830Z 27012KT 9999 FEW020 SCT070 34/20 Q0998 NOSIG", "speci": null, "taf": "TAF VVPB 110500Z 1106/1206 26014KT 9999 FEW020 SCT060 BECMG 1112/1113 26004KT", "raw": "METAR VVPB 110830Z 27012KT 9999 FEW020 SCT070 34/20 Q0998 NOSIG", "fltcat": "VFR", "wind": "270° @ 12 kt", "vis": ">10 km", "clouds": "FEW020 SCT070", "temp": 34, "dewp": 20, "qnh": "998 hPa"}, {"icao": "VVPC", "name": "Phu Cat — Quy Nhon", "metar": "METAR VVPC 110830Z 24011KT 210V270 9999 FEW025 32/22 Q1000 TEMPO 24015G25KT", "speci": null, "taf": "TAF VVPC 110500Z 1106/1206 26010KT 9999 FEW025 TEMPO 1106/1110 26015G25KT TEMPO 1202/1206 26015G25KT", "raw": "METAR VVPC 110830Z 24011KT 210V270 9999 FEW025 32/22 Q1000 TEMPO 24015G25KT", "fltcat": "VFR", "wind": "240° @ 11 kt", "vis": ">10 km", "clouds": "FEW025", "temp": 32, "dewp": 22, "qnh": "1000 hPa"}, {"icao": "VVPK", "name": "Pleiku", "metar": "METAR VVPK 110830Z 27013KT 230V300 9999 -RA SCT005 SCT017TCU BKN035 23/21 Q1007 TEMPO 27015G25KT 3000 SHRA", "speci": null, "taf": "TAF VVPK 110500Z 1106/1206 27012KT 8000 SCT007 BKN015 TEMPO 1106/1112 27015G25KT 4000 RA BR BKN005 BKN010 TEMPO 1122/1203 26015G25KT 3500 RA BR BKN005 BKN010 TEMPO 1203/1206 27016G26KT", "raw": "METAR VVPK 110830Z 27013KT 230V300 9999 -RA SCT005 SCT017TCU BKN035 23/21 Q1007 TEMPO 27015G25KT 3000 SHRA", "fltcat": "VFR", "wind": "270° @ 13 kt", "vis": ">10 km", "clouds": "SCT005 SCT017 BKN035", "temp": 23, "dewp": 21, "qnh": "1007 hPa"}, {"icao": "VVPQ", "name": "Phu Quoc Intl", "metar": "METAR VVPQ 110830Z 26017KT 9999 SCT015 32/29 Q1005 NOSIG", "speci": null, "taf": "TAF VVPQ 110500Z 1106/1206 27014KT 9999 SCT015 TEMPO 1106/1109 27016G28KT", "raw": "METAR VVPQ 110830Z 26017KT 9999 SCT015 32/29 Q1005 NOSIG", "fltcat": "VFR", "wind": "260° @ 17 kt", "vis": ">10 km", "clouds": "SCT015", "temp": 32, "dewp": 29, "qnh": "1005 hPa"}, {"icao": "VVRG", "name": "Rach Gia", "metar": "METAR VVRG 110800Z 25014KT 220V290 9999 SCT020 32/25 Q1005 NOSIG", "speci": null, "taf": "TAF VVRG 110500Z 1106/1115 25012KT 9999 SCT015 TEMPO 1106/1110 25015G26KT TS SCT015 FEW017CB", "raw": "METAR VVRG 110800Z 25014KT 220V290 9999 SCT020 32/25 Q1005 NOSIG", "fltcat": "VFR", "wind": "250° @ 14 kt", "vis": ">10 km", "clouds": "SCT020", "temp": 32, "dewp": 25, "qnh": "1005 hPa"}, {"icao": "VVTH", "name": "Dong Tac — Tuy Hoa", "metar": "METAR VVTH 110830Z 23017KT 9999 FEW017TCU BKN057 33/22 Q1001 TEMPO 23017G27KT", "speci": null, "taf": "TAF VVTH 110500Z 1106/1115 24016KT 9999 FEW015 SCT050 TEMPO 1106/1111 24020G30KT", "raw": "METAR VVTH 110830Z 23017KT 9999 FEW017TCU BKN057 33/22 Q1001 TEMPO 23017G27KT", "fltcat": "VFR", "wind": "230° @ 17 kt", "vis": ">10 km", "clouds": "FEW017 BKN057", "temp": 33, "dewp": 22, "qnh": "1001 hPa"}, {"icao": "VVTS", "name": "Tan Son Nhat — Ho Chi Minh City", "metar": "METAR VVTS 110830Z 25015KT 230V290 9999 SCT022 SCT046 33/25 Q1003 NOSIG", "speci": null, "taf": "TAF VVTS 110500Z 1106/1212 26014KT 9999 SCT017 TEMPO 1106/1110 26016G28KT", "raw": "METAR VVTS 110830Z 25015KT 230V290 9999 SCT022 SCT046 33/25 Q1003 NOSIG", "fltcat": "VFR", "wind": "250° @ 15 kt", "vis": ">10 km", "clouds": "SCT022 SCT046", "temp": 33, "dewp": 25, "qnh": "1003 hPa", "atis": [{"kind": "ARR", "time": "2026-07-11 07:01 UTC", "text": "VVTS ARR ATIS I 2200Z VVTS INFO I 2200Z. ILSW APCH IN RWY 25R.. LDG RWY 25R AND DEP RWY 25L.. 2200Z. WIND RWY 25R TDZ 250/6KT VIS 10KM CLD BKN 1700FT OVC 2100FT T28 DP26 QNH 1010HPA TREND NOSIG. ADZ ON INITIAL CTC YOU HAVE INFO I."}, {"kind": "DEP", "time": "2026-07-10 22:52 UTC", "text": "VVTS DEP ATIS Z 1835Z VVTS INFO Z 1835Z. ILSW APCH IN RWY 25R.. LDG RWY 25R AND DEP RWY 25L.. 1830Z. WIND RWY 25L TDZ 200/5KT MID 200/6KT END 200/4KT MAX10 MNM2 VRB BTN 160/ AND 300/ RWY 25R TDZ 200/5KT END 200/6KT MAX12 MNM4 VRB BTN 180/ AND 270/ VIS RWY 25L TDZ 10KM MID 10KM END 10KM RWY 25R TDZ 10KM MID 10KM END 10KM CLD RWY 25L SCT 3500FT RWY 25R FEW 3500FT T29 DP26 QNH 1010HPA TREND NOSIG. ADZ ON INITIAL CTC YOU HAVE INFO Z."}]}, {"icao": "VVTX", "name": "Tho Xuan — Thanh Hoa", "metar": "METAR VVTX 110800Z 34003KT 9999 BKN027 33/23 Q0996 NOSIG", "speci": null, "taf": "TAF VVTX 110500Z 1106/1115 24008KT 9999 FEW030 TEMPO 1109/1114 4000 TSRA SCT010 FEW027CB", "raw": "METAR VVTX 110800Z 34003KT 9999 BKN027 33/23 Q0996 NOSIG", "fltcat": "MVFR", "wind": "340° @ 3 kt", "vis": ">10 km", "clouds": "BKN027", "temp": 33, "dewp": 23, "qnh": "996 hPa"}, {"icao": "VVVD", "name": "Van Don — Quang Ninh", "metar": "METAR VVVD 110830Z AUTO 25003KT 200V290 9999 NCD 31/28 Q0997", "speci": null, "taf": "TAF VVVD 110500Z 1106/1206 12006KT 9999 FEW030 TEMPO 1106/1110 4000 TSRA SCT010 FEW027CB TEMPO 1112/1117 3000 TSRA SCT012 FEW027CB TEMPO 1121/1201 4000 TSRA SCT010 FEW027CB", "raw": "METAR VVVD 110830Z AUTO 25003KT 200V290 9999 NCD 31/28 Q0997", "fltcat": "VFR", "wind": "250° @ 3 kt", "vis": ">10 km", "clouds": "—", "temp": 31, "dewp": 28, "qnh": "997 hPa"}, {"icao": "VVVH", "name": "Vinh", "metar": "METAR VVVH 110830Z 27008KT 230V320 CAVOK 33/23 Q0997 NOSIG", "speci": null, "taf": "TAF VVVH 110500Z 1106/1206 27008KT 9999 FEW035 PROB40 TEMPO 1110/1115 4000 TSRA SCT010 FEW027CB", "raw": "METAR VVVH 110830Z 27008KT 230V320 CAVOK 33/23 Q0997 NOSIG", "fltcat": "VFR", "wind": "270° @ 8 kt", "vis": "CAVOK", "clouds": "NSC", "temp": 33, "dewp": 23, "qnh": "997 hPa"}]}