{"updated": "2026-07-22T20:05:27+00:00", "source": "VN MET", "stations": [{"icao": "VVBM", "name": "Buon Ma Thuot", "metar": "METAR VVBM 222000Z 27004KT 210V300 9999 BKN013 BKN040 23/22 Q1011 NOSIG", "speci": null, "taf": "TAF VVBM 221700Z 2218/2318 VRB02KT 9999 SCT013 BECMG 2300/2302 30010KT TEMPO 2309/2311 32015G25KT 5000 TSRA SCT013 FEW015CB", "raw": "METAR VVBM 222000Z 27004KT 210V300 9999 BKN013 BKN040 23/22 Q1011 NOSIG", "fltcat": "MVFR", "wind": "270° @ 4 kt", "vis": ">10 km", "clouds": "BKN013 BKN040", "temp": 23, "dewp": 22, "qnh": "1011 hPa"}, {"icao": "VVCA", "name": "Chu Lai", "metar": "METAR VVCA 222000Z AUTO VRB01KT 9999 OVC100/// 28/26 Q1004", "speci": null, "taf": "TAF VVCA 212300Z 2200/2209 16008KT 9999 FEW020", "raw": "METAR VVCA 222000Z AUTO VRB01KT 9999 OVC100/// 28/26 Q1004", "fltcat": "VFR", "wind": "VRB @ 1 kt", "vis": ">10 km", "clouds": "OVC100", "temp": 28, "dewp": 26, "qnh": "1004 hPa"}, {"icao": "VVCI", "name": "Cat Bi — Hai Phong", "metar": "METAR VVCI 222000Z 05004KT 020V080 9999 -RA FEW044 25/23 Q1003 NOSIG", "speci": null, "taf": "TAF COR VVCI 221700Z 2218/2318 12006KT 9999 FEW030 TEMPO 2218/2222 3500 TSRA SCT010 FEW027CB TEMPO 2310/2315 4000 TSRA SCT012 FEW027CB", "raw": "METAR VVCI 222000Z 05004KT 020V080 9999 -RA FEW044 25/23 Q1003 NOSIG", "fltcat": "VFR", "wind": "050° @ 4 kt", "vis": ">10 km", "clouds": "FEW044", "temp": 25, "dewp": 23, "qnh": "1003 hPa"}, {"icao": "VVCR", "name": "Cam Ranh — Nha Trang", "metar": "METAR VVCR 222000Z 26003KT CAVOK 28/24 Q1007 NOSIG", "speci": null, "taf": "TAF VVCR 221700Z 2218/2318 23006KT 9999 FEW020 BECMG 2302/2303 12012KT TEMPO 2307/2312 32015G25KT 3500 TSRA BKN013 FEW015CB BKN050 BECMG 2313/2314 23006KT", "raw": "METAR VVCR 222000Z 26003KT CAVOK 28/24 Q1007 NOSIG", "fltcat": "VFR", "wind": "260° @ 3 kt", "vis": "CAVOK", "clouds": "NSC", "temp": 28, "dewp": 24, "qnh": "1007 hPa", "atis": [{"kind": "ARR", "time": "2026-07-22 05:32 UTC", "text": "VVCR ARR ATIS O 1300Z VVCR INFO O 1300Z. ILS YANKEE APPROACH IN USE. LDG RWY 20L AND DPTG RWY 20R.. 1300Z. WIND RWY 20L TDZ 190/7KT MID 190/8KT END 180/7KT RWY 20R TDZ 190/7KT VIS RWY 20L TDZ 10KM END 10KM CLD RWY 20L SCT 7200FT T31 DP24 QNH 1007HPA TREND NOSIG. ADZ ON INITIAL CTC YOU HAVE INFO O."}, {"kind": "DEP", "time": "2026-05-29 05:57 UTC", "text": "VVCR DEP ATIS S 0533Z VVCR INFO S 0533Z. ILS Z APCH IN USE.. LDG RWY 02R AND DPTG RWY 02L.. 0532Z. WIND RWY 02R TDZ 080/9KT MID 090/8KT END 100/8KT RWY 02L TDZ 080/8KT CAVOK T31 DP26 QNH 1009HPA TREND TEMPO FM0630 VIS 4000M MOD TSRA. ADZ ON INITIAL CTC YOU HAVE INFO S."}]}, {"icao": "VVCT", "name": "Can Tho Intl", "metar": "METAR VVCT 222000Z 24003KT CAVOK 26/25 Q1008 NOSIG", "speci": null, "taf": "TAF VVCT 212300Z 2200/2224 25010KT 9999 SCT015 TEMPO 2207/2210 TS SCT015 FEW017CB", "raw": "METAR VVCT 222000Z 24003KT CAVOK 26/25 Q1008 NOSIG", "fltcat": "VFR", "wind": "240° @ 3 kt", "vis": "CAVOK", "clouds": "NSC", "temp": 26, "dewp": 25, "qnh": "1008 hPa"}, {"icao": "VVDB", "name": "Dien Bien Phu", "metar": "METAR VVDB 222000Z AUTO VRB02KT 9999 // BKN026/// 23/21 Q1007 RE//", "speci": null, "taf": "TAF VVDB 212300Z 2200/2209 19005KT 9999 SCT025", "raw": "METAR VVDB 222000Z AUTO VRB02KT 9999 // BKN026/// 23/21 Q1007 RE//", "fltcat": "MVFR", "wind": "VRB @ 2 kt", "vis": ">10 km", "clouds": "BKN026", "temp": 23, "dewp": 21, "qnh": "1007 hPa"}, {"icao": "VVDH", "name": "Dong Hoi", "metar": "METAR VVDH 222000Z AUTO 24005KT 160V300 9999 NCD 29/22 Q1004", "speci": null, "taf": "TAF VVDH 212300Z 2200/2209 26006KT 9999 FEW030 TEMPO 2204/2207 25015G25KT", "raw": "METAR VVDH 222000Z AUTO 24005KT 160V300 9999 NCD 29/22 Q1004", "fltcat": "VFR", "wind": "240° @ 5 kt", "vis": ">10 km", "clouds": "—", "temp": 29, "dewp": 22, "qnh": "1004 hPa"}, {"icao": "VVDN", "name": "Da Nang Intl", "metar": "METAR VVDN 222000Z 22003KT 180V250 9999 FEW020 BKN070 29/23 Q1005 NOSIG", "speci": null, "taf": "TAF VVDN 221700Z 2218/2318 24006KT 9999 FEW020 BECMG 2304/2305 02010KT TEMPO 2308/2313 23015G25KT 3500 TSRA BKN013 FEW015CB BKN060 BECMG 2313/2314 23005KT", "raw": "METAR VVDN 222000Z 22003KT 180V250 9999 FEW020 BKN070 29/23 Q1005 NOSIG", "fltcat": "VFR", "wind": "220° @ 3 kt", "vis": ">10 km", "clouds": "FEW020 BKN070", "temp": 29, "dewp": 23, "qnh": "1005 hPa", "atis": [{"kind": "ARR", "time": "2026-07-22 08:17 UTC", "text": "VVDN ARR ATIS E 1332Z VVDN INFO E 1332Z. ILS VICTOR APPROACH 35L.. DPTG RWY 35R.. 1332Z. WIND VRB/02KT CAVOK T33 DP24 QNH 1004HPA TREND NOSIG. ADZ ON INITIAL CTC YOU HAVE INFO. E."}, {"kind": "DEP", "time": "2026-07-22 10:38 UTC", "text": "VVDN DEP ATIS G 1432Z VVDN INFO G 1432Z. ILS VICTOR APPROACH 35L.. DPTG RWY 35R.. 1432Z. WIND VRB/01KT CAVOK T32 DP24 QNH 1004HPA TREND NOSIG. ADZ ON INITIAL CTC YOU HAVE INFO. G."}]}, {"icao": "VVNB", "name": "Noi Bai — Ha Noi", "metar": "METAR VVNB 222000Z 06003KT 020V080 7000 SCT005 SCT007 25/24 Q1004 NOSIG", "speci": null, "taf": "TAF VVNB 221700Z 2218/2318 06006KT 9999 FEW030 TEMPO 2220/2302 3500 SHRA SCT010 FEW027CB TEMPO 2310/2315 4000 TSRA SCT012 FEW027CB", "raw": "METAR VVNB 222000Z 06003KT 020V080 7000 SCT005 SCT007 25/24 Q1004 NOSIG", "fltcat": "MVFR", "wind": "060° @ 3 kt", "vis": "7.0 km", "clouds": "SCT005 SCT007", "temp": 25, "dewp": 24, "qnh": "1004 hPa", "atis": [{"kind": "ARR", "time": "2026-07-22 18:22 UTC", "text": "VVNB ARR ATIS S 1634Z VVNB INFO S 1634Z. ILS X RWY 11L. DPTG RWY 11R AND ARR RWY 11L .. 1634Z. WIND VRB BTN 110/ AND 220/2KT CAVOK T34 DP24 QNH 1000HPA TREND NOSIG. ADZ ON INITIAL CTC YOU HAVE INFO S."}, {"kind": "DEP", "time": "2026-07-21 21:58 UTC", "text": "VVNB DEP ATIS F 1000Z VVNB INFO F 1000Z. ILS X RWY 11L. DPTG RWY 11R AND ARR RWY 11L .. 1000Z. WIND 250/7KT CAVOK T38 DP24 QNH 0997HPA TREND NOSIG. ADZ ON INITIAL CTC YOU HAVE INFO F."}]}, {"icao": "VVPB", "name": "Phu Bai — Hue", "metar": "METAR VVPB 222000Z 31002KT 9999 FEW020 29/24 Q1005 NOSIG", "speci": null, "taf": "TAF VVPB 221700Z 2218/2318 22006KT 9999 FEW020 BECMG 2305/2306 08010KT TEMPO 2308/2312 22015G25KT 4000 TSRA BKN013 FEW015CB BKN050 BECMG 2312/2313 20005KT", "raw": "METAR VVPB 222000Z 31002KT 9999 FEW020 29/24 Q1005 NOSIG", "fltcat": "VFR", "wind": "310° @ 2 kt", "vis": ">10 km", "clouds": "FEW020", "temp": 29, "dewp": 24, "qnh": "1005 hPa"}, {"icao": "VVPC", "name": "Phu Cat — Quy Nhon", "metar": "METAR VVPC 222000Z AUTO 00000KT 9999 NCD 27/24 Q1006", "speci": null, "taf": "TAF VVPC 221700Z 2218/2318 27003KT 9999 FEW020 SCT060 BECMG 2302/2303 27013KT TEMPO 2308/2312 VRB15G25KT 4000 TSRA BKN013 FEW015CB BKN050 BECMG 2312/2313 27003KT", "raw": "METAR VVPC 222000Z AUTO 00000KT 9999 NCD 27/24 Q1006", "fltcat": "VFR", "wind": "000° @ 0 kt", "vis": ">10 km", "clouds": "—", "temp": 27, "dewp": 24, "qnh": "1006 hPa"}, {"icao": "VVPK", "name": "Pleiku", "metar": "METAR VVPK 222000Z AUTO 27003KT 9999 BKN066/// 22/21 Q1012", "speci": null, "taf": "TAF VVPK 221700Z 2218/2318 26007KT 9999 SCT015 TEMPO 2222/2224 2000 RA BR BKN002 BKN004 TEMPO 2300/2302 4000 RA BR BKN004 BKN008 TEMPO 2307/2311 26015G25KT 4000 TSRA BKN013 FEW015CB BKN050", "raw": "METAR VVPK 222000Z AUTO 27003KT 9999 BKN066/// 22/21 Q1012", "fltcat": "VFR", "wind": "270° @ 3 kt", "vis": ">10 km", "clouds": "BKN066", "temp": 22, "dewp": 21, "qnh": "1012 hPa"}, {"icao": "VVPQ", "name": "Phu Quoc Intl", "metar": "METAR VVPQ 222000Z 25007KT 9999 FEW015 29/28 Q1008 NOSIG", "speci": null, "taf": "TAF VVPQ 212300Z 2200/2224 27010KT 9999 SCT015 PROB30 TEMPO 2205/2207 5000 SHRA SCT015 FEW017CB", "raw": "METAR VVPQ 222000Z 25007KT 9999 FEW015 29/28 Q1008 NOSIG", "fltcat": "VFR", "wind": "250° @ 7 kt", "vis": ">10 km", "clouds": "FEW015", "temp": 29, "dewp": 28, "qnh": "1008 hPa"}, {"icao": "VVTH", "name": "Dong Tac — Tuy Hoa", "metar": "METAR VVTH 221900Z AUTO 20004KT CAVOK 26/24 Q1006", "speci": null, "taf": "TAF VVTH 212300Z 2200/2209 25009KT 9999 FEW017 BECMG 2205/2206 14010KT", "raw": "METAR VVTH 221900Z AUTO 20004KT CAVOK 26/24 Q1006", "fltcat": "VFR", "wind": "200° @ 4 kt", "vis": "CAVOK", "clouds": "NSC", "temp": 26, "dewp": 24, "qnh": "1006 hPa"}, {"icao": "VVTS", "name": "Tan Son Nhat — Ho Chi Minh City", "metar": "METAR VVTS 222000Z 24008KT 9999 SCT012 28/27 Q1008 NOSIG", "speci": null, "taf": "TAF VVTS 212300Z 2200/2306 27010KT 9999 SCT017", "raw": "METAR VVTS 222000Z 24008KT 9999 SCT012 28/27 Q1008 NOSIG", "fltcat": "VFR", "wind": "240° @ 8 kt", "vis": ">10 km", "clouds": "SCT012", "temp": 28, "dewp": 27, "qnh": "1008 hPa", "atis": [{"kind": "ARR", "time": "2026-07-22 10:19 UTC", "text": "VVTS ARR ATIS M 1430Z VVTS INFO M 1430Z. ILSW APCH IN RWY 25R.. LDG RWY 25R AND DEP RWY 25L.. 1430Z. WIND RWY 25R TDZ 260/7KT END 240/7KT CAVOK T29 DP25 QNH 1007HPA TREND NOSIG. ADZ ON INITIAL CTC YOU HAVE INFO M."}, {"kind": "DEP", "time": "2026-07-22 01:37 UTC", "text": "VVTS DEP ATIS F 1130Z VVTS INFO F 1130Z. ILSW APCH IN RWY 25R.. LDG RWY 25R AND DEP RWY 25L.. 1130Z. WIND RWY 25R TDZ 270/8KT VIS 10KM CLD FEW 4100FT T32 DP25 QNH 1006HPA TREND NOSIG. ADZ ON INITIAL CTC YOU HAVE INFO F."}]}, {"icao": "VVTX", "name": "Tho Xuan — Thanh Hoa", "metar": "METAR VVTX 222000Z AUTO 32004KT CAVOK 28/25 Q1002 NOSIG", "speci": null, "taf": "TAF VVTX 212300Z 2200/2209 22005KT 9999 FEW030", "raw": "METAR VVTX 222000Z AUTO 32004KT CAVOK 28/25 Q1002 NOSIG", "fltcat": "VFR", "wind": "320° @ 4 kt", "vis": "CAVOK", "clouds": "NSC", "temp": 28, "dewp": 25, "qnh": "1002 hPa"}, {"icao": "VVVD", "name": "Van Don — Quang Ninh", "metar": "METAR VVVD 222000Z AUTO 08002KT 9999 SCT065/// BKN160/// 27/26 Q1005", "speci": null, "taf": "TAF VVVD 221700Z 2218/2318 15005KT 9999 FEW030 TEMPO 2220/2301 3200 TSRA SCT010 FEW027CB TEMPO 2310/2315 4000 TSRA SCT012 FEW027CB", "raw": "METAR VVVD 222000Z AUTO 08002KT 9999 SCT065/// BKN160/// 27/26 Q1005", "fltcat": "VFR", "wind": "080° @ 2 kt", "vis": ">10 km", "clouds": "SCT065 BKN160", "temp": 27, "dewp": 26, "qnh": "1005 hPa"}, {"icao": "VVVH", "name": "Vinh", "metar": "METAR VVVH 222000Z 21003KT CAVOK 28/21 Q1003 NOSIG", "speci": null, "taf": "TAF VVVH 221700Z 2218/2318 24006KT 9999 FEW030", "raw": "METAR VVVH 222000Z 21003KT CAVOK 28/21 Q1003 NOSIG", "fltcat": "VFR", "wind": "210° @ 3 kt", "vis": "CAVOK", "clouds": "NSC", "temp": 28, "dewp": 21, "qnh": "1003 hPa"}]}