{"updated": "2026-07-21T18:33:19+00:00", "source": "VN MET", "stations": [{"icao": "VVBM", "name": "Buon Ma Thuot", "metar": "METAR VVBM 211830Z 11002KT 9999 FEW015 21/20 Q1012 NOSIG", "speci": null, "taf": "TAF VVBM 211700Z 2118/2218 VRB03KT 9999 SCT015 SCT040 BECMG 2204/2205 28010KT TEMPO 2207/2211 28015G25KT 4000 TSRA BKN013 FEW015CB", "raw": "METAR VVBM 211830Z 11002KT 9999 FEW015 21/20 Q1012 NOSIG", "fltcat": "VFR", "wind": "110° @ 2 kt", "vis": ">10 km", "clouds": "FEW015", "temp": 21, "dewp": 20, "qnh": "1012 hPa"}, {"icao": "VVCA", "name": "Chu Lai", "metar": "METAR VVCA 211800Z AUTO 25003KT 9999 NCD 27/22 Q1005", "speci": null, "taf": "TAF VVCA 202300Z 2100/2109 17007KT 9999 FEW020 BECMG 2102/2103 07011KT", "raw": "METAR VVCA 211800Z AUTO 25003KT 9999 NCD 27/22 Q1005", "fltcat": "VFR", "wind": "250° @ 3 kt", "vis": ">10 km", "clouds": "—", "temp": 27, "dewp": 22, "qnh": "1005 hPa"}, {"icao": "VVCI", "name": "Cat Bi — Hai Phong", "metar": "METAR VVCI 211800Z 07005KT 6000 NSC 28/26 Q1004 NOSIG", "speci": null, "taf": "TAF VVCI 211700Z 2118/2218 09005KT 7000 FEW030 TEMPO 2120/2124 3500 TSRA SCT012 FEW027CB TEMPO 2203/2207 3500 TSRA SCT015 FEW027CB", "raw": "METAR VVCI 211800Z 07005KT 6000 NSC 28/26 Q1004 NOSIG", "fltcat": "MVFR", "wind": "070° @ 5 kt", "vis": "6.0 km", "clouds": "NSC", "temp": 28, "dewp": 26, "qnh": "1004 hPa"}, {"icao": "VVCR", "name": "Cam Ranh — Nha Trang", "metar": "METAR VVCR 211830Z 26004KT CAVOK 28/23 Q1008 NOSIG", "speci": null, "taf": "TAF VVCR 211700Z 2118/2218 32005KT 9999 FEW017 BECMG 2203/2204 10010KT BECMG 2212/2213 18006KT", "raw": "METAR VVCR 211830Z 26004KT CAVOK 28/23 Q1008 NOSIG", "fltcat": "VFR", "wind": "260° @ 4 kt", "vis": "CAVOK", "clouds": "NSC", "temp": 28, "dewp": 23, "qnh": "1008 hPa", "atis": [{"kind": "ARR", "time": "2026-07-17 14:03 UTC", "text": "VVCR ARR ATIS F 1401Z VVCR INFO F 1401Z. ILS Z APCH IN USE.. LDG RWY 02R AND DPTG RWY 02L.. 1400Z. WIND RWY 02R TDZ 040/3KT MID 340/3KT END 010/6KT RWY 02L TDZ 020/3KT VIS RWY 02R TDZ 10KM END"}, {"kind": "DEP", "time": "2026-05-29 05:57 UTC", "text": "VVCR DEP ATIS S 0533Z VVCR INFO S 0533Z. ILS Z APCH IN USE.. LDG RWY 02R AND DPTG RWY 02L.. 0532Z. WIND RWY 02R TDZ 080/9KT MID 090/8KT END 100/8KT RWY 02L TDZ 080/8KT CAVOK T31 DP26 QNH 1009HPA TREND TEMPO FM0630 VIS 4000M MOD TSRA. ADZ ON INITIAL CTC YOU HAVE INFO S."}]}, {"icao": "VVCT", "name": "Can Tho Intl", "metar": "METAR VVCT 211830Z 19003KT CAVOK 27/25 Q1009 NOSIG", "speci": null, "taf": "TAF VVCT 211700Z 2118/2218 25010KT 9999 SCT015 PROB30 TEMPO 2207/2210 5000 SHRA SCT015 FEW017CB", "raw": "METAR VVCT 211830Z 19003KT CAVOK 27/25 Q1009 NOSIG", "fltcat": "VFR", "wind": "190° @ 3 kt", "vis": "CAVOK", "clouds": "NSC", "temp": 27, "dewp": 25, "qnh": "1009 hPa"}, {"icao": "VVDB", "name": "Dien Bien Phu", "metar": "METAR VVDB 211830Z AUTO 30003KT 270V330 9999 // FEW027/// OVC037/// 24/23 Q1009 RE//", "speci": null, "taf": "TAF VVDB 202300Z 2100/2109 21005KT 9999 SCT020 BKN030", "raw": "METAR VVDB 211830Z AUTO 30003KT 270V330 9999 // FEW027/// OVC037/// 24/23 Q1009 RE//", "fltcat": "VFR", "wind": "300° @ 3 kt", "vis": ">10 km", "clouds": "FEW027 OVC037", "temp": 24, "dewp": 23, "qnh": "1009 hPa"}, {"icao": "VVDH", "name": "Dong Hoi", "metar": "METAR VVDH 211830Z AUTO VRB02KT 9999 OVC120/// 30/22 Q1005", "speci": null, "taf": "TAF VVDH 202300Z 2100/2109 24012KT 9999 FEW030", "raw": "METAR VVDH 211830Z AUTO VRB02KT 9999 OVC120/// 30/22 Q1005", "fltcat": "VFR", "wind": "VRB @ 2 kt", "vis": ">10 km", "clouds": "OVC120", "temp": 30, "dewp": 22, "qnh": "1005 hPa"}, {"icao": "VVDN", "name": "Da Nang Intl", "metar": "METAR VVDN 211830Z 25003KT 9999 FEW020 28/22 Q1007 NOSIG", "speci": null, "taf": "TAF VVDN 211700Z 2118/2218 20005KT 9999 FEW020 BECMG 2206/2207 09010KT PROB40 TEMPO 2210/2214 24015G25KT 4000 TSRA BKN013 FEW015CB BKN050 BECMG 2214/2215 22006KT", "raw": "METAR VVDN 211830Z 25003KT 9999 FEW020 28/22 Q1007 NOSIG", "fltcat": "VFR", "wind": "250° @ 3 kt", "vis": ">10 km", "clouds": "FEW020", "temp": 28, "dewp": 22, "qnh": "1007 hPa", "atis": [{"kind": "ARR", "time": "2026-07-21 09:57 UTC", "text": "VVDN ARR ATIS Q 0632Z VVDN INFO Q 0632Z. ILS VICTOR APPROACH 35L.. DPTG RWY 35R.. 0632Z. WIND 160/04KT VRB BTN 110/ AND 230/ CAVOK T39 DP23 QNH 1002HPA TREND NOSIG. ADZ ON INITIAL CTC YOU HAVE INFO. Q."}, {"kind": "DEP", "time": "2026-07-21 03:51 UTC", "text": "VVDN DEP ATIS M 0432Z VVDN INFO M 0432Z. ILS VICTOR APPROACH 35L.. DPTG RWY 35R.. 0432Z. WIND 220/04KT CAVOK T37 DP22 QNH 1004HPA TREND NOSIG. ADZ ON INITIAL CTC YOU HAVE INFO. M."}]}, {"icao": "VVNB", "name": "Noi Bai — Ha Noi", "metar": "METAR VVNB 211830Z 07003KT 030V090 8000 NSC 27/25 Q1004 NOSIG", "speci": null, "taf": "TAF VVNB 211700Z 2118/2218 10005KT 8000 FEW030 PROB40 TEMPO 2121/2124 4000 TSRA SCT012 FEW027CB TEMPO 2210/2214 3500 TSRA SCT015 FEW027CB", "raw": "METAR VVNB 211830Z 07003KT 030V090 8000 NSC 27/25 Q1004 NOSIG", "fltcat": "MVFR", "wind": "070° @ 3 kt", "vis": "8.0 km", "clouds": "NSC", "temp": 27, "dewp": 25, "qnh": "1004 hPa", "atis": [{"kind": "ARR", "time": "2026-07-21 16:29 UTC", "text": "VVNB ARR ATIS C 0830Z VVNB INFO C 0830Z. ILS X RWY 11L. DPTG RWY 11R AND ARR RWY 11L .. 0830Z. WIND 310/6KT CAVOK T39 DP25 QNH 0998HPA TREND NOSIG. ADZ ON INITIAL CTC YOU HAVE INFO C."}, {"kind": "DEP", "time": "2026-07-21 12:11 UTC", "text": "VVNB DEP ATIS Z 0700Z VVNB INFO Z 0700Z. ILS X RWY 11L. DPTG RWY 11R AND ARR RWY 11L .. 0700Z. WIND VRB2KT CAVOK T39 DP24 QNH 0999HPA TREND NOSIG. ADZ ON INITIAL CTC YOU HAVE INFO Z."}]}, {"icao": "VVPB", "name": "Phu Bai — Hue", "metar": "METAR VVPB 211830Z 22003KT 9999 FEW020 31/17 Q1006 NOSIG", "speci": null, "taf": "TAF VVPB 211700Z 2118/2218 24005KT 9999 FEW020 BECMG 2206/2207 06010KT TEMPO 2209/2213 TS SCT013 FEW015CB SCT050 BECMG 2213/2214 23006KT", "raw": "METAR VVPB 211830Z 22003KT 9999 FEW020 31/17 Q1006 NOSIG", "fltcat": "VFR", "wind": "220° @ 3 kt", "vis": ">10 km", "clouds": "FEW020", "temp": 31, "dewp": 17, "qnh": "1006 hPa"}, {"icao": "VVPC", "name": "Phu Cat — Quy Nhon", "metar": "METAR VVPC 211830Z AUTO 26003KT 9999 NCD 30/22 Q1006", "speci": null, "taf": "TAF VVPC 211700Z 2118/2218 24006KT 9999 FEW017", "raw": "METAR VVPC 211830Z AUTO 26003KT 9999 NCD 30/22 Q1006", "fltcat": "VFR", "wind": "260° @ 3 kt", "vis": ">10 km", "clouds": "—", "temp": 30, "dewp": 22, "qnh": "1006 hPa"}, {"icao": "VVPK", "name": "Pleiku", "metar": "METAR VVPK 211830Z AUTO 29004KT 9999 NCD 22/20 Q1013", "speci": null, "taf": "TAF VVPK 211700Z 2118/2218 26005KT 9999 FEW015 BECMG 2121/2122 2000 BR BKN003 BECMG 2200/2201 8000 NSW SCT012 TEMPO 2208/2211 26015G25KT 3500 TSRA BKN010 FEW015CB BKN040", "raw": "METAR VVPK 211830Z AUTO 29004KT 9999 NCD 22/20 Q1013", "fltcat": "VFR", "wind": "290° @ 4 kt", "vis": ">10 km", "clouds": "—", "temp": 22, "dewp": 20, "qnh": "1013 hPa"}, {"icao": "VVPQ", "name": "Phu Quoc Intl", "metar": "METAR VVPQ 211800Z 25004KT 9999 FEW015 27/27 Q1010 NOSIG", "speci": null, "taf": "TAF VVPQ 211700Z 2118/2218 27010KT 9999 SCT015 PROB30 TEMPO 2203/2206 5000 SHRA SCT015 FEW017CB", "raw": "METAR VVPQ 211800Z 25004KT 9999 FEW015 27/27 Q1010 NOSIG", "fltcat": "VFR", "wind": "250° @ 4 kt", "vis": ">10 km", "clouds": "FEW015", "temp": 27, "dewp": 27, "qnh": "1010 hPa"}, {"icao": "VVTH", "name": "Dong Tac — Tuy Hoa", "metar": "METAR VVTH 211830Z AUTO VRB02KT CAVOK 27/23 Q1007", "speci": null, "taf": "TAF VVTH 202300Z 2100/2109 21012KT 9999 FEW020 BECMG 2105/2106 11012KT", "raw": "METAR VVTH 211830Z AUTO VRB02KT CAVOK 27/23 Q1007", "fltcat": "VFR", "wind": "VRB @ 2 kt", "vis": "CAVOK", "clouds": "NSC", "temp": 27, "dewp": 23, "qnh": "1007 hPa"}, {"icao": "VVTS", "name": "Tan Son Nhat — Ho Chi Minh City", "metar": "METAR VVTS 211830Z 23010KT CAVOK 28/26 Q1009 NOSIG", "speci": null, "taf": "TAF VVTS 211700Z 2118/2224 24010KT 9999 SCT017", "raw": "METAR VVTS 211830Z 23010KT CAVOK 28/26 Q1009 NOSIG", "fltcat": "VFR", "wind": "230° @ 10 kt", "vis": "CAVOK", "clouds": "NSC", "temp": 28, "dewp": 26, "qnh": "1009 hPa", "atis": [{"kind": "ARR", "time": "2026-07-21 17:59 UTC", "text": "VVTS ARR ATIS S 1730Z VVTS INFO S 1730Z. ILSW APCH IN RWY 25R.. LDG RWY 25R AND DEP RWY 25L.. 1730Z. WIND RWY 25L TDZ 240/13KT MID 240/11KT MAX16 MNM7 END 240/10KT MAX15 MNM8 RWY 25R TDZ 240/13KT END 240/11KT CAVOK T28 DP26 QNH 1009HPA TREND NOSIG. ADZ ON INITIAL CTC YOU HAVE INFO S."}, {"kind": "DEP", "time": "2026-07-21 04:51 UTC", "text": "VVTS DEP ATIS S 0500Z VVTS INFO S 0500Z. ILSW APCH IN RWY 25R.. LDG RWY 25R AND DEP RWY 25L.. 0500Z. WIND RWY 25R TDZ 290/8KT MAX15 MNM5 VIS 10KM CLD SCT 4100FT T34 DP25 QNH 1007HPA TREND NOSIG. ADZ ON INITIAL CTC YOU HAVE INFO S."}]}, {"icao": "VVTX", "name": "Tho Xuan — Thanh Hoa", "metar": "METAR VVTX 211830Z AUTO 29004KT CAVOK 27/24 Q1003 NOSIG", "speci": null, "taf": "TAF VVTX 202300Z 2100/2109 21008KT 9999 FEW030", "raw": "METAR VVTX 211830Z AUTO 29004KT CAVOK 27/24 Q1003 NOSIG", "fltcat": "VFR", "wind": "290° @ 4 kt", "vis": "CAVOK", "clouds": "NSC", "temp": 27, "dewp": 24, "qnh": "1003 hPa"}, {"icao": "VVVD", "name": "Van Don — Quang Ninh", "metar": "METAR VVVD 211830Z AUTO 00000KT 8000 FEW170/// 27/27 Q1005", "speci": null, "taf": "TAF VVVD 211700Z 2118/2218 10005KT 9999 FEW025 TEMPO 2120/2124 4000 TSRA SCT015 FEW027CB TEMPO 2203/2206 3500 TSRA SCT012 FEW027CB", "raw": "METAR VVVD 211830Z AUTO 00000KT 8000 FEW170/// 27/27 Q1005", "fltcat": "MVFR", "wind": "000° @ 0 kt", "vis": "8.0 km", "clouds": "FEW170", "temp": 27, "dewp": 27, "qnh": "1005 hPa"}, {"icao": "VVVH", "name": "Vinh", "metar": "METAR VVVH 211830Z 24003KT 190V280 CAVOK 29/20 Q1004 NOSIG", "speci": null, "taf": "TAF VVVH 211700Z 2118/2218 24006KT CAVOK", "raw": "METAR VVVH 211830Z 24003KT 190V280 CAVOK 29/20 Q1004 NOSIG", "fltcat": "VFR", "wind": "240° @ 3 kt", "vis": "CAVOK", "clouds": "NSC", "temp": 29, "dewp": 20, "qnh": "1004 hPa"}]}