{"updated": "2026-07-17T10:25:37+00:00", "source": "VN MET", "stations": [{"icao": "VVBM", "name": "Buon Ma Thuot", "metar": "METAR VVBM 170930Z 25005KT 210V290 9999 BKN013 FEW015CB BKN040 25/23 Q1011 NOSIG", "speci": null, "taf": "TAF VVBM 162300Z 1700/1724 25008KT 9999 SCT015 TEMPO 1709/1711 5000 TSRA BKN013 FEW015CB", "raw": "METAR VVBM 170930Z 25005KT 210V290 9999 BKN013 FEW015CB BKN040 25/23 Q1011 NOSIG", "fltcat": "MVFR", "wind": "250° @ 5 kt", "vis": ">10 km", "clouds": "BKN013 FEW015 BKN040", "temp": 25, "dewp": 23, "qnh": "1011 hPa"}, {"icao": "VVCA", "name": "Chu Lai", "metar": "METAR VVCA 171000Z 16009KT 9999 FEW025 33/25 Q1003 NOSIG", "speci": null, "taf": "TAF VVCA 170800Z 1709/1718 04009KT 9999 FEW020", "raw": "METAR VVCA 171000Z 16009KT 9999 FEW025 33/25 Q1003 NOSIG", "fltcat": "VFR", "wind": "160° @ 9 kt", "vis": ">10 km", "clouds": "FEW025", "temp": 33, "dewp": 25, "qnh": "1003 hPa"}, {"icao": "VVCI", "name": "Cat Bi — Hai Phong", "metar": "METAR VVCI 171000Z 26009KT CAVOK 34/25 Q0999 NOSIG", "speci": null, "taf": "TAF VVCI 162300Z 1700/1724 21008KT 9999 FEW020 TEMPO 1702/1706 4000 TSRA SCT010 FEW027CB", "raw": "METAR VVCI 171000Z 26009KT CAVOK 34/25 Q0999 NOSIG", "fltcat": "VFR", "wind": "260° @ 9 kt", "vis": "CAVOK", "clouds": "NSC", "temp": 34, "dewp": 25, "qnh": "999 hPa"}, {"icao": "VVCR", "name": "Cam Ranh — Nha Trang", "metar": "METAR VVCR 171000Z 12005KT 070V210 CAVOK 34/23 Q1007 NOSIG", "speci": null, "taf": "TAF VVCR 162300Z 1700/1724 20008KT 9999 FEW020 BECMG 1703/1704 12010KT TEMPO 1709/1712 TS SCT013 FEW017CB BECMG 1712/1713 22007KT", "raw": "METAR VVCR 171000Z 12005KT 070V210 CAVOK 34/23 Q1007 NOSIG", "fltcat": "VFR", "wind": "120° @ 5 kt", "vis": "CAVOK", "clouds": "NSC", "temp": 34, "dewp": 23, "qnh": "1007 hPa", "atis": [{"kind": "ARR", "time": "2026-07-13 09:29 UTC", "text": "VVCR ARR ATIS W 1330Z VVCR INFO W 1330Z. ILS YANKEE APPROACH IN USE. LDG RWY 20L AND DPTG RWY 20R.. 1330Z. WIND RWY 20L TDZ 330/3KT VRB BTN 260/ AND 360/ MID 310/3KT VRB BTN 280/ AND 340/ END 320/3KT RWY 20R TDZ 320/1KT CAVOK T29 DP25 QNH 1010HPA TREND NOSIG. ADZ ON INITIAL CTC YOU HAVE INFO W."}, {"kind": "DEP", "time": "2026-05-29 05:57 UTC", "text": "VVCR DEP ATIS S 0533Z VVCR INFO S 0533Z. ILS Z APCH IN USE.. LDG RWY 02R AND DPTG RWY 02L.. 0532Z. WIND RWY 02R TDZ 080/9KT MID 090/8KT END 100/8KT RWY 02L TDZ 080/8KT CAVOK T31 DP26 QNH 1009HPA TREND TEMPO FM0630 VIS 4000M MOD TSRA. ADZ ON INITIAL CTC YOU HAVE INFO S."}]}, {"icao": "VVCS", "name": "Con Dao", "metar": "METAR VVCS 171000Z VRB03KT 9999 FEW017 31/24 Q1009 NOSIG", "speci": null, "taf": "TAF VVCS 162300Z 1700/1709 25008KT 9999 SCT017", "raw": "METAR VVCS 171000Z VRB03KT 9999 FEW017 31/24 Q1009 NOSIG", "fltcat": "VFR", "wind": "VRB @ 3 kt", "vis": ">10 km", "clouds": "FEW017", "temp": 31, "dewp": 24, "qnh": "1009 hPa"}, {"icao": "VVCT", "name": "Can Tho Intl", "metar": "METAR VVCT 171000Z 26006KT 230V320 9999 SCT013 FEW015CB 31/25 Q1008 NOSIG", "speci": null, "taf": "TAF VVCT 162300Z 1700/1724 26010KT 9999 SCT015 SCT040", "raw": "METAR VVCT 171000Z 26006KT 230V320 9999 SCT013 FEW015CB 31/25 Q1008 NOSIG", "fltcat": "VFR", "wind": "260° @ 6 kt", "vis": ">10 km", "clouds": "SCT013 FEW015", "temp": 31, "dewp": 25, "qnh": "1008 hPa"}, {"icao": "VVDB", "name": "Dien Bien Phu", "metar": "METAR VVDB 171000Z VRB02KT 3200 RA FEW003 BKN005 OVC016 24/23 Q1005 BECMG 6000 -RA", "speci": null, "taf": "TAF VVDB 162300Z 1700/1709 14005KT 8000 -RA SCT020 BKN030 TEMPO 1700/1705 2500 +SHRA SCT012 FEW025TCU BKN030", "raw": "METAR VVDB 171000Z VRB02KT 3200 RA FEW003 BKN005 OVC016 24/23 Q1005 BECMG 6000 -RA", "fltcat": "IFR", "wind": "VRB @ 2 kt", "vis": "3.2 km", "clouds": "FEW003 BKN005 OVC016", "temp": 24, "dewp": 23, "qnh": "1005 hPa"}, {"icao": "VVDH", "name": "Dong Hoi", "metar": "METAR VVDH 171000Z 26005KT 190V320 CAVOK 34/23 Q1003 NOSIG", "speci": null, "taf": "TAF VVDH 162300Z 1700/1709 21010KT 9999 FEW030 TEMPO 1700/1704 3000 TSRA SCT010 FEW027CB", "raw": "METAR VVDH 171000Z 26005KT 190V320 CAVOK 34/23 Q1003 NOSIG", "fltcat": "VFR", "wind": "260° @ 5 kt", "vis": "CAVOK", "clouds": "NSC", "temp": 34, "dewp": 23, "qnh": "1003 hPa"}, {"icao": "VVDN", "name": "Da Nang Intl", "metar": "METAR VVDN 171000Z 14007KT 090V220 9999 FEW020 34/25 Q1004 NOSIG", "speci": null, "taf": "TAF VVDN 162300Z 1700/1724 23013KT 9999 FEW017 SCT060 TEMPO 1709/1712 TS SCT013 FEW015CB SCT060", "raw": "METAR VVDN 171000Z 14007KT 090V220 9999 FEW020 34/25 Q1004 NOSIG", "fltcat": "VFR", "wind": "140° @ 7 kt", "vis": ">10 km", "clouds": "FEW020", "temp": 34, "dewp": 25, "qnh": "1004 hPa", "atis": [{"kind": "ARR", "time": "2026-07-17 05:20 UTC", "text": "VVDN ARR ATIS B 0502Z VVDN INFO B 0502Z. ILS VICTOR APPROACH 35L.. DPTG RWY 35R.. 0502Z. WIND 240/08KT CAVOK T36 DP21 QNH 1005HPA TREND NOSIG. ADZ ON INITIAL CTC YOU HAVE INFO. B."}, {"kind": "DEP", "time": "2026-07-12 02:50 UTC", "text": "VVDN DEP ATIS N 0423Z VVDN INFO N 0423Z. ILS VICTOR APPROACH 35L.. DPTG RWY 35R.. 0423Z. WIND 010/02KT CAVOK T36 DP24 QNH 1008HPA TREND NOSIG. WS ALL RWY. ADZ ON INITIAL CTC YOU HAVE INFO. N."}]}, {"icao": "VVNB", "name": "Noi Bai — Ha Noi", "metar": "METAR VVNB 171000Z 27007KT 240V300 CAVOK 33/25 Q0999 NOSIG", "speci": null, "taf": "TAF VVNB 162300Z 1700/1724 21005KT 9999 FEW030 TEMPO 1700/1702 3000 SHRA SCT010 FEW025TCU TEMPO 1703/1707 3000 TSRA SCT010 FEW027CB", "raw": "METAR VVNB 171000Z 27007KT 240V300 CAVOK 33/25 Q0999 NOSIG", "fltcat": "VFR", "wind": "270° @ 7 kt", "vis": "CAVOK", "clouds": "NSC", "temp": 33, "dewp": 25, "qnh": "999 hPa", "atis": [{"kind": "ARR", "time": "2026-07-17 10:23 UTC", "text": "VVNB ARR ATIS I 2200Z VVNB INFO I 2200Z. ILS X RWY 11L. DEP RWY 11L AND ARR RWY 11L. 2200Z. WIND VRB BTN 080/ AND 220/2KT CAVOK T29 DP25 QNH 1000HPA QFE TREND NOSIG. ADZ ON INITIAL CTC YOU HAVE INFO I."}, {"kind": "DEP", "time": "2026-07-16 02:01 UTC", "text": "VVNB DEP ATIS K 1100Z VVNB INFO K 1100Z. ILS X RWY 11L. DPTG RWY 11R AND ARR RWY 11L .. 1100Z. WIND 200/6KT CAVOK T34 DP25 QNH 1001HPA TREND NOSIG. ADZ ON INITIAL CTC YOU HAVE INFO K."}]}, {"icao": "VVNS", "name": "Na San — Son La", "metar": "METAR VVNS 171000Z /////KT 7000 -RA SCT020 BKN045 25/25 Q1004 NOSIG", "speci": null, "taf": null, "raw": "METAR VVNS 171000Z /////KT 7000 -RA SCT020 BKN045 25/25 Q1004 NOSIG", "fltcat": "MVFR", "wind": "—", "vis": "7.0 km", "clouds": "SCT020 BKN045", "temp": 25, "dewp": 25, "qnh": "1004 hPa"}, {"icao": "VVPB", "name": "Phu Bai — Hue", "metar": "METAR VVPB 171000Z 08006KT 9999 FEW020 34/25 Q1003 NOSIG", "speci": null, "taf": "TAF VVPB 162300Z 1700/1724 24010KT 9999 FEW020 SCT060 TEMPO 1708/1712 TS SCT013 FEW017CB SCT060", "raw": "METAR VVPB 171000Z 08006KT 9999 FEW020 34/25 Q1003 NOSIG", "fltcat": "VFR", "wind": "080° @ 6 kt", "vis": ">10 km", "clouds": "FEW020", "temp": 34, "dewp": 25, "qnh": "1003 hPa"}, {"icao": "VVPC", "name": "Phu Cat — Quy Nhon", "metar": "METAR VVPC 171000Z 22011KT 9999 FEW030 34/22 Q1005 NOSIG", "speci": null, "taf": "TAF VVPC 162300Z 1700/1724 24013KT 9999 FEW020 SCT060 TEMPO 1703/1708 24015G25KT", "raw": "METAR VVPC 171000Z 22011KT 9999 FEW030 34/22 Q1005 NOSIG", "fltcat": "VFR", "wind": "220° @ 11 kt", "vis": ">10 km", "clouds": "FEW030", "temp": 34, "dewp": 22, "qnh": "1005 hPa"}, {"icao": "VVPK", "name": "Pleiku", "metar": "METAR VVPK 171000Z 24010KT 9999 FEW015 25/21 Q1012 NOSIG", "speci": null, "taf": "TAF VVPK 162300Z 1700/1724 26012KT 8000 BKN015 TEMPO 1700/1703 4000 RA BR BKN004 BKN006 TEMPO 1708/1713 4000 SHRA BKN010 FEW015CB BKN040 TEMPO 1722/1724 2500 RA BR BKN003 BKN005", "raw": "METAR VVPK 171000Z 24010KT 9999 FEW015 25/21 Q1012 NOSIG", "fltcat": "VFR", "wind": "240° @ 10 kt", "vis": ">10 km", "clouds": "FEW015", "temp": 25, "dewp": 21, "qnh": "1012 hPa"}, {"icao": "VVPQ", "name": "Phu Quoc Intl", "metar": "METAR VVPQ 171000Z 25008KT 9999 SCT015 FEW017TCU 30/28 Q1009 NOSIG", "speci": null, "taf": "TAF VVPQ 162300Z 1700/1724 27008KT 9999 SCT015 PROB30 TEMPO 1706/1708 27015G26KT 3000 TSRA BKN015 SCT017CB BKN040", "raw": "METAR VVPQ 171000Z 25008KT 9999 SCT015 FEW017TCU 30/28 Q1009 NOSIG", "fltcat": "VFR", "wind": "250° @ 8 kt", "vis": ">10 km", "clouds": "SCT015 FEW017", "temp": 30, "dewp": 28, "qnh": "1009 hPa"}, {"icao": "VVRG", "name": "Rach Gia", "metar": "METAR VVRG 171000Z 25008KT 200V290 9999 FEW020 31/24 Q1008 NOSIG", "speci": null, "taf": "TAF VVRG 162300Z 1700/1709 23008KT 9999 SCT017", "raw": "METAR VVRG 171000Z 25008KT 200V290 9999 FEW020 31/24 Q1008 NOSIG", "fltcat": "VFR", "wind": "250° @ 8 kt", "vis": ">10 km", "clouds": "FEW020", "temp": 31, "dewp": 24, "qnh": "1008 hPa"}, {"icao": "VVTH", "name": "Dong Tac — Tuy Hoa", "metar": "METAR VVTH 171000Z 24009KT 210V280 9999 FEW015 33/23 Q1006 NOSIG", "speci": null, "taf": "TAF VVTH 170800Z 1709/1718 26010KT 9999 FEW015", "raw": "METAR VVTH 171000Z 24009KT 210V280 9999 FEW015 33/23 Q1006 NOSIG", "fltcat": "VFR", "wind": "240° @ 9 kt", "vis": ">10 km", "clouds": "FEW015", "temp": 33, "dewp": 23, "qnh": "1006 hPa"}, {"icao": "VVTS", "name": "Tan Son Nhat — Ho Chi Minh City", "metar": "METAR VVTS 171000Z 29009KT 9999 FEW025 SCT042 32/24 Q1007 NOSIG", "speci": null, "taf": "TAF VVTS 162300Z 1700/1806 25008KT 9999 SCT017 TEMPO 1708/1713 5000 TSRA SCT015 FEW017CB", "raw": "METAR VVTS 171000Z 29009KT 9999 FEW025 SCT042 32/24 Q1007 NOSIG", "fltcat": "VFR", "wind": "290° @ 9 kt", "vis": ">10 km", "clouds": "FEW025 SCT042", "temp": 32, "dewp": 24, "qnh": "1007 hPa", "atis": [{"kind": "ARR", "time": "2026-07-17 05:11 UTC", "text": "VVTS ARR ATIS B 1930Z VVTS INFO B 1930Z. ILSW APCH IN RWY 25R.. LDG RWY 25R AND DEP RWY 25L.. 1930Z. WIND RWY 25R TDZ 240/8KT MAX14 MNM5 CAVOK T29 DP27 QNH 1007HPA TREND NOSIG. ADZ ON INITIAL CTC YOU HAVE INFO B."}, {"kind": "DEP", "time": "2026-07-17 01:54 UTC", "text": "VVTS DEP ATIS Z 1830Z VVTS INFO Z 1830Z. ILSW APCH IN RWY 25R.. LDG RWY 25R AND DEP RWY 25L.. 1830Z. WIND RWY 25L TDZ 240/10KT MAX15 MNM7 MID 230/11KT MAX17 MNM8 END 240/11KT MAX16 MNM5 VRB BTN 210/ AND 270/ RWY 25R TDZ 240/10KT MAX15 MNM7 END 230/11KT VIS 10KM CLD NSC T29 DP27 QNH 1007HPA TREND NOSIG. ADZ ON INITIAL CTC YOU HAVE INFO Z."}]}, {"icao": "VVTX", "name": "Tho Xuan — Thanh Hoa", "metar": "METAR VVTX 171000Z 21006KT CAVOK 32/24 Q0999 NOSIG", "speci": null, "taf": "TAF VVTX 170800Z 1709/1718 23007KT 9999 FEW025 TEMPO 1710/1715 3500 TSRA SCT010 FEW027CB", "raw": "METAR VVTX 171000Z 21006KT CAVOK 32/24 Q0999 NOSIG", "fltcat": "VFR", "wind": "210° @ 6 kt", "vis": "CAVOK", "clouds": "NSC", "temp": 32, "dewp": 24, "qnh": "999 hPa"}, {"icao": "VVVD", "name": "Van Don — Quang Ninh", "metar": "METAR VVVD 171000Z 19010KT 9999 FEW048 32/27 Q1000 NOSIG", "speci": null, "taf": "TAF VVVD 162300Z 1700/1724 21005KT 9999 SCT020 TEMPO 1702/1707 4000 TSRA SCT010 FEW027CB TEMPO 1713/1718 4000 TSRA SCT010 FEW027CB", "raw": "METAR VVVD 171000Z 19010KT 9999 FEW048 32/27 Q1000 NOSIG", "fltcat": "VFR", "wind": "190° @ 10 kt", "vis": ">10 km", "clouds": "FEW048", "temp": 32, "dewp": 27, "qnh": "1000 hPa"}, {"icao": "VVVH", "name": "Vinh", "metar": "METAR VVVH 171000Z 24008KT 190V320 CAVOK 32/21 Q1001 NOSIG", "speci": null, "taf": "TAF VVVH 162300Z 1700/1724 24010KT 9999 FEW030", "raw": "METAR VVVH 171000Z 24008KT 190V320 CAVOK 32/21 Q1001 NOSIG", "fltcat": "VFR", "wind": "240° @ 8 kt", "vis": "CAVOK", "clouds": "NSC", "temp": 32, "dewp": 21, "qnh": "1001 hPa"}]}