{"updated": "2026-07-14T09:35:26+00:00", "source": "VN MET", "stations": [{"icao": "VVBM", "name": "Buon Ma Thuot", "metar": "METAR VVBM 140930Z 28005KT 250V310 9999 BKN013 FEW015CB 27/23 Q1009 NOSIG", "speci": null, "taf": "TAF VVBM 132300Z 1400/1424 24006KT 9999 SCT013 BKN040 TEMPO 1408/1411 3000 TSRA BKN010 FEW013CB TEMPO 1411/1414 5000 SHRA SCT013 FEW015CB BKN040", "raw": "METAR VVBM 140930Z 28005KT 250V310 9999 BKN013 FEW015CB 27/23 Q1009 NOSIG", "fltcat": "MVFR", "wind": "280° @ 5 kt", "vis": ">10 km", "clouds": "BKN013 FEW015", "temp": 27, "dewp": 23, "qnh": "1009 hPa"}, {"icao": "VVCA", "name": "Chu Lai", "metar": "METAR VVCA 140930Z 15006KT 9999 FEW020 33/22 Q1002 NOSIG", "speci": null, "taf": "TAF VVCA 140800Z 1409/1418 10008KT 9999 FEW020 SCT050 TEMPO 1410/1412 TS SCT013 FEW015CB SCT050", "raw": "METAR VVCA 140930Z 15006KT 9999 FEW020 33/22 Q1002 NOSIG", "fltcat": "VFR", "wind": "150° @ 6 kt", "vis": ">10 km", "clouds": "FEW020", "temp": 33, "dewp": 22, "qnh": "1002 hPa"}, {"icao": "VVCI", "name": "Cat Bi — Hai Phong", "metar": "METAR VVCI 140930Z 14010KT CAVOK 32/27 Q1000 NOSIG", "speci": null, "taf": "TAF VVCI 132300Z 1400/1424 11006KT 9999 FEW020 TEMPO 1420/1424 4000 TSRA SCT015 FEW027CB", "raw": "METAR VVCI 140930Z 14010KT CAVOK 32/27 Q1000 NOSIG", "fltcat": "VFR", "wind": "140° @ 10 kt", "vis": "CAVOK", "clouds": "NSC", "temp": 32, "dewp": 27, "qnh": "1000 hPa"}, {"icao": "VVCR", "name": "Cam Ranh — Nha Trang", "metar": "METAR VVCR 140930Z 19012KT 9999 FEW021 SCT060 33/25 Q1006 NOSIG", "speci": null, "taf": "TAF VVCR 132300Z 1400/1424 19012KT 9999 FEW020 TEMPO 1407/1412 TS SCT013 FEW017CB", "raw": "METAR VVCR 140930Z 19012KT 9999 FEW021 SCT060 33/25 Q1006 NOSIG", "fltcat": "VFR", "wind": "190° @ 12 kt", "vis": ">10 km", "clouds": "FEW021 SCT060", "temp": 33, "dewp": 25, "qnh": "1006 hPa", "atis": [{"kind": "ARR", "time": "2026-07-13 09:29 UTC", "text": "VVCR ARR ATIS W 1330Z VVCR INFO W 1330Z. ILS YANKEE APPROACH IN USE. LDG RWY 20L AND DPTG RWY 20R.. 1330Z. WIND RWY 20L TDZ 330/3KT VRB BTN 260/ AND 360/ MID 310/3KT VRB BTN 280/ AND 340/ END 320/3KT RWY 20R TDZ 320/1KT CAVOK T29 DP25 QNH 1010HPA TREND NOSIG. ADZ ON INITIAL CTC YOU HAVE INFO W."}, {"kind": "DEP", "time": "2026-05-29 05:57 UTC", "text": "VVCR DEP ATIS S 0533Z VVCR INFO S 0533Z. ILS Z APCH IN USE.. LDG RWY 02R AND DPTG RWY 02L.. 0532Z. WIND RWY 02R TDZ 080/9KT MID 090/8KT END 100/8KT RWY 02L TDZ 080/8KT CAVOK T31 DP26 QNH 1009HPA TREND TEMPO FM0630 VIS 4000M MOD TSRA. ADZ ON INITIAL CTC YOU HAVE INFO S."}]}, {"icao": "VVCS", "name": "Con Dao", "metar": "METAR VVCS 140930Z VRB01KT 9999 FEW017 26/24 Q1009 NOSIG", "speci": null, "taf": "TAF VVCS 132300Z 1400/1409 22012KT 9999 SCT017 SCT040 TEMPO 1401/1406 22015G26KT 4000 TSRA BKN015 FEW017CB BKN040", "raw": "METAR VVCS 140930Z VRB01KT 9999 FEW017 26/24 Q1009 NOSIG", "fltcat": "VFR", "wind": "VRB @ 1 kt", "vis": ">10 km", "clouds": "FEW017", "temp": 26, "dewp": 24, "qnh": "1009 hPa"}, {"icao": "VVCT", "name": "Can Tho Intl", "metar": "METAR VVCT 140930Z 26007KT 9999 SCT015 BKN050 30/26 Q1008 NOSIG", "speci": null, "taf": "TAF VVCT 132300Z 1400/1424 24010KT 9999 SCT015 SCT050 TEMPO 1400/1404 4000 TSRA SCT013 FEW015CB TEMPO 1407/1410 25015G27KT 3000 TSRA BKN013 FEW015CB BKN040", "raw": "METAR VVCT 140930Z 26007KT 9999 SCT015 BKN050 30/26 Q1008 NOSIG", "fltcat": "VFR", "wind": "260° @ 7 kt", "vis": ">10 km", "clouds": "SCT015 BKN050", "temp": 30, "dewp": 26, "qnh": "1008 hPa"}, {"icao": "VVDB", "name": "Dien Bien Phu", "metar": "METAR VVDB 140930Z 22006KT 180V260 CAVOK 33/25 Q1002 NOSIG", "speci": null, "taf": "TAF VVDB 132300Z 1400/1409 VRB02KT 9999 SCT030 TEMPO 1407/1409 4500 TSRA SCT010 FEW027CB", "raw": "METAR VVDB 140930Z 22006KT 180V260 CAVOK 33/25 Q1002 NOSIG", "fltcat": "VFR", "wind": "220° @ 6 kt", "vis": "CAVOK", "clouds": "NSC", "temp": 33, "dewp": 25, "qnh": "1002 hPa"}, {"icao": "VVDH", "name": "Dong Hoi", "metar": "METAR VVDH 140930Z 19006KT 160V230 CAVOK 33/24 Q1002 NOSIG", "speci": null, "taf": "TAF VVDH 132300Z 1400/1409 21005KT 9999 FEW030", "raw": "METAR VVDH 140930Z 19006KT 160V230 CAVOK 33/24 Q1002 NOSIG", "fltcat": "VFR", "wind": "190° @ 6 kt", "vis": "CAVOK", "clouds": "NSC", "temp": 33, "dewp": 24, "qnh": "1002 hPa"}, {"icao": "VVDN", "name": "Da Nang Intl", "metar": "METAR VVDN 140930Z 10006KT 9999 FEW017 32/25 Q1004 NOSIG", "speci": null, "taf": "TAF VVDN 132300Z 1400/1424 22008KT 9999 FEW020 SCT070 BECMG 1404/1405 01010KT TEMPO 1409/1413 TS SCT013 FEW015CB BKN060 BECMG 1413/1414 22006KT", "raw": "METAR VVDN 140930Z 10006KT 9999 FEW017 32/25 Q1004 NOSIG", "fltcat": "VFR", "wind": "100° @ 6 kt", "vis": ">10 km", "clouds": "FEW017", "temp": 32, "dewp": 25, "qnh": "1004 hPa", "atis": [{"kind": "ARR", "time": "2026-07-14 03:48 UTC", "text": "VVDN ARR ATIS T 1932Z VVDN INFO T 1932Z. ILS VICTOR APPROACH 35L.. DPTG RWY 35R.. 1932Z. WIND 220/05KT CAVOK T27 DP25 QNH 1008HPA TREND NOSIG. ADZ ON INITIAL CTC YOU HAVE INFO. T."}, {"kind": "DEP", "time": "2026-07-12 02:50 UTC", "text": "VVDN DEP ATIS N 0423Z VVDN INFO N 0423Z. ILS VICTOR APPROACH 35L.. DPTG RWY 35R.. 0423Z. WIND 010/02KT CAVOK T36 DP24 QNH 1008HPA TREND NOSIG. WS ALL RWY. ADZ ON INITIAL CTC YOU HAVE INFO. N."}]}, {"icao": "VVNB", "name": "Noi Bai — Ha Noi", "metar": "METAR VVNB 140930Z 10005KT 070V140 CAVOK 36/24 Q0999 NOSIG", "speci": null, "taf": "TAF VVNB 132300Z 1400/1424 08006KT 9999 FEW025 PROB30 TEMPO 1408/1412 4000 TSRA SCT010 FEW027CB", "raw": "METAR VVNB 140930Z 10005KT 070V140 CAVOK 36/24 Q0999 NOSIG", "fltcat": "VFR", "wind": "100° @ 5 kt", "vis": "CAVOK", "clouds": "NSC", "temp": 36, "dewp": 24, "qnh": "999 hPa", "atis": [{"kind": "ARR", "time": "2026-07-14 09:05 UTC", "text": "VVNB ARR ATIS C 0902Z VVNB INFO C 0902Z. ILS X RWY 11L. DPTG RWY 11R AND ARR RWY 11L .. 0902Z. WIND 070/7KT VRB BTN 030/ AND 200/ VIS 10KM RVR RWY 11L TDZ ABV 2000M MID ABV 2000M CLD NSC T37 DP26 QNH 0"}, {"kind": "DEP", "time": "2026-07-14 04:00 UTC", "text": "VVNB DEP ATIS E 1930Z VVNB INFO E 1930Z. ILS X RWY 11L. DPTG RWY 11R AND ARR RWY 11L .. 1930Z. WIND 100/3KT VIS 10KM CLD NSC T27 DP26 QNH 1005HPA TREND NOSIG. RWY CONDITION REPORT 5 5 5.. ADZ ON INITIAL CTC YOU HAVE INFO E."}]}, {"icao": "VVPB", "name": "Phu Bai — Hue", "metar": "METAR VVPB 140930Z 29006KT 9999 SCT028 BKN060 34/21 Q1003 NOSIG", "speci": null, "taf": "TAF VVPB 132300Z 1400/1424 20008KT 9999 FEW020 SCT060 BECMG 1406/1407 10010KT TEMPO 1408/1412 TS SCT012 FEW015CB BKN050 BECMG 1412/1413 20006KT", "raw": "METAR VVPB 140930Z 29006KT 9999 SCT028 BKN060 34/21 Q1003 NOSIG", "fltcat": "VFR", "wind": "290° @ 6 kt", "vis": ">10 km", "clouds": "SCT028 BKN060", "temp": 34, "dewp": 21, "qnh": "1003 hPa"}, {"icao": "VVPC", "name": "Phu Cat — Quy Nhon", "metar": "METAR VVPC 140930Z 21007KT 180V240 9999 FEW025 SCT060 32/23 Q1005 NOSIG", "speci": null, "taf": "TAF VVPC 132300Z 1400/1424 20006KT 9999 FEW020 SCT070 TEMPO 1401/1408 24015G25KT TEMPO 1408/1412 TS SCT013 FEW015CB BKN060", "raw": "METAR VVPC 140930Z 21007KT 180V240 9999 FEW025 SCT060 32/23 Q1005 NOSIG", "fltcat": "VFR", "wind": "210° @ 7 kt", "vis": ">10 km", "clouds": "FEW025 SCT060", "temp": 32, "dewp": 23, "qnh": "1005 hPa"}, {"icao": "VVPK", "name": "Pleiku", "metar": "METAR VVPK 140930Z 26009KT 230V310 9999 FEW020 26/21 Q1010 TEMPO FM1030 4000 SHRA", "speci": null, "taf": "TAF AMD VVPK 140100Z 1401/1424 26010KT 2000 RA BR BKN002 BKN004 BECMG 1401/1402 4000 RA BR BKN004 BKN008 BECMG 1402/1403 8000 NSW SCT013 TEMPO 1403/1406 25015G25KT TEMPO 1408/1412 27015G27KT 3500 TSRA BKN010 FEW015CB BKN050 TEMPO 1422/1424 0800 FG VV002", "raw": "METAR VVPK 140930Z 26009KT 230V310 9999 FEW020 26/21 Q1010 TEMPO FM1030 4000 SHRA", "fltcat": "VFR", "wind": "260° @ 9 kt", "vis": ">10 km", "clouds": "FEW020", "temp": 26, "dewp": 21, "qnh": "1010 hPa"}, {"icao": "VVPQ", "name": "Phu Quoc Intl", "metar": "METAR VVPQ 140930Z 29004KT 9999 SCT015 SCT040 28/27 Q1008 NOSIG", "speci": null, "taf": "TAF VVPQ 132300Z 1400/1424 27010KT 9999 SCT015 SCT040 TEMPO 1400/1403 3000 TSRA BKN013 FEW015CB BKN040 TEMPO 1403/1407 28020G30KT 2000 +TSRA SCT013 SCT015CB BKN040 TEMPO 1407/1410 5000 SHRA SCT013 FEW015CB BKN040", "raw": "METAR VVPQ 140930Z 29004KT 9999 SCT015 SCT040 28/27 Q1008 NOSIG", "fltcat": "VFR", "wind": "290° @ 4 kt", "vis": ">10 km", "clouds": "SCT015 SCT040", "temp": 28, "dewp": 27, "qnh": "1008 hPa"}, {"icao": "VVRG", "name": "Rach Gia", "metar": "METAR VVRG 140930Z 27006KT 230V320 9999 FEW015 BKN050 29/25 Q1008 NOSIG", "speci": null, "taf": "TAF VVRG 132300Z 1400/1409 23009KT 9999 SCT013 SCT040 TEMPO 1400/1403 4000 TSRA SCT013 FEW015CB BKN040", "raw": "METAR VVRG 140930Z 27006KT 230V320 9999 FEW015 BKN050 29/25 Q1008 NOSIG", "fltcat": "VFR", "wind": "270° @ 6 kt", "vis": ">10 km", "clouds": "FEW015 BKN050", "temp": 29, "dewp": 25, "qnh": "1008 hPa"}, {"icao": "VVTH", "name": "Dong Tac — Tuy Hoa", "metar": "METAR VVTH 140930Z 28012KT 240V330 9999 FEW015CB SCT091 30/23 Q1005 TEMPO TL1010 TS", "speci": null, "taf": "TAF VVTH 140800Z 1409/1418 24009KT 9999 FEW020 SCT060 TEMPO 1410/1412 TS SCT013 FEW015CB SCT050", "raw": "METAR VVTH 140930Z 28012KT 240V330 9999 FEW015CB SCT091 30/23 Q1005 TEMPO TL1010 TS", "fltcat": "VFR", "wind": "280° @ 12 kt", "vis": ">10 km", "clouds": "FEW015 SCT091", "temp": 30, "dewp": 23, "qnh": "1005 hPa"}, {"icao": "VVTS", "name": "Tan Son Nhat — Ho Chi Minh City", "metar": "METAR VVTS 140930Z 28013KT 9999 FEW025 32/24 Q1007 NOSIG", "speci": null, "taf": "TAF VVTS 132300Z 1400/1506 24010KT 9999 SCT017 TEMPO 1402/1405 24015G25KT 5000 TSRA BKN015 FEW017CB TEMPO 1405/1410 24018G30KT 2500 +TSRA BKN015 SCT017CB", "raw": "METAR VVTS 140930Z 28013KT 9999 FEW025 32/24 Q1007 NOSIG", "fltcat": "VFR", "wind": "280° @ 13 kt", "vis": ">10 km", "clouds": "FEW025", "temp": 32, "dewp": 24, "qnh": "1007 hPa", "atis": [{"kind": "ARR", "time": "2026-07-14 06:25 UTC", "text": "VVTS ARR ATIS H 2030Z VVTS INFO H 2030Z. ILSW APCH IN RWY 25R.. LDG RWY 25R AND DEP RWY 25L.. 2030Z. WIND RWY 25R TDZ 280/4KT VRB BTN 250/ AND 310/ CAVOK T27 DP26 QNH 1009HPA TREND NOSIG. ADZ ON INITIAL CTC YOU HAVE INFO H."}, {"kind": "DEP", "time": "2026-07-14 04:23 UTC", "text": "VVTS DEP ATIS F 1930Z VVTS INFO F 1930Z. ILSW APCH IN RWY 25R.. LDG RWY 25R AND DEP RWY 25L.. 1930Z. WIND RWY 25R TDZ 240/5KT VRB BTN 200/ AND 290/ CAVOK T28 DP26 QNH 1009HPA TREND NOSIG. ADZ ON INITIAL CTC YOU HAVE INFO F."}]}, {"icao": "VVTX", "name": "Tho Xuan — Thanh Hoa", "metar": "METAR VVTX 140930Z 36004KT 9999 -RA SCT020 FEW027CB 29/25 Q1001 TEMPO 32015G25KT 3000 TSRA", "speci": null, "taf": "TAF VVTX 140800Z 1409/1418 20006KT 9999 SCT020 TEMPO 1409/1413 4000 TSRA SCT012 FEW027CB", "raw": "METAR VVTX 140930Z 36004KT 9999 -RA SCT020 FEW027CB 29/25 Q1001 TEMPO 32015G25KT 3000 TSRA", "fltcat": "VFR", "wind": "360° @ 4 kt", "vis": ">10 km", "clouds": "SCT020 FEW027", "temp": 29, "dewp": 25, "qnh": "1001 hPa"}, {"icao": "VVVD", "name": "Van Don — Quang Ninh", "metar": "METAR VVVD 140930Z AUTO 15007KT 9999 NCD 32/27 Q1001", "speci": null, "taf": "TAF VVVD 132300Z 1400/1424 21005KT 9999 FEW025 TEMPO 1419/1424 3500 TSRA SCT015 FEW027CB", "raw": "METAR VVVD 140930Z AUTO 15007KT 9999 NCD 32/27 Q1001", "fltcat": "VFR", "wind": "150° @ 7 kt", "vis": ">10 km", "clouds": "—", "temp": 32, "dewp": 27, "qnh": "1001 hPa"}, {"icao": "VVVH", "name": "Vinh", "metar": "METAR VVVH 140930Z 23007KT 180V280 9999 FEW040 33/22 Q1000 NOSIG", "speci": null, "taf": "TAF VVVH 132300Z 1400/1424 23005KT 9999 FEW020", "raw": "METAR VVVH 140930Z 23007KT 180V280 9999 FEW040 33/22 Q1000 NOSIG", "fltcat": "VFR", "wind": "230° @ 7 kt", "vis": ">10 km", "clouds": "FEW040", "temp": 33, "dewp": 22, "qnh": "1000 hPa"}]}