{"updated": "2026-07-21T17:30:32+00:00", "source": "aviationweather.gov", "stations": [{"icao": "VVCI", "name": "Cat Bi — Hai Phong", "metar": "METAR VVCI 211700Z 07004KT 030V110 9000 NSC 28/26 Q1004 NOSIG", "speci": null, "taf": null, "raw": "METAR VVCI 211700Z 07004KT 030V110 9000 NSC 28/26 Q1004 NOSIG", "fltcat": "VFR", "wind": "070° @ 4 kt", "vis": "9.0 km", "clouds": "NSC", "temp": 28, "dewp": 26, "qnh": "1004 hPa"}, {"icao": "VVCR", "name": "Cam Ranh — Nha Trang", "metar": "METAR VVCR 211700Z VRB01KT CAVOK 28/25 Q1009 NOSIG", "speci": null, "taf": null, "raw": "METAR VVCR 211700Z VRB01KT CAVOK 28/25 Q1009 NOSIG", "fltcat": "VFR", "wind": "VRB @ 1 kt", "vis": "CAVOK", "clouds": "NSC", "temp": 28, "dewp": 25, "qnh": "1009 hPa", "atis": [{"kind": "ARR", "time": "2026-07-17 14:03 UTC", "text": "VVCR ARR ATIS F 1401Z VVCR INFO F 1401Z. ILS Z APCH IN USE.. LDG RWY 02R AND DPTG RWY 02L.. 1400Z. WIND RWY 02R TDZ 040/3KT MID 340/3KT END 010/6KT RWY 02L TDZ 020/3KT VIS RWY 02R TDZ 10KM END"}, {"kind": "DEP", "time": "2026-05-29 05:57 UTC", "text": "VVCR DEP ATIS S 0533Z VVCR INFO S 0533Z. ILS Z APCH IN USE.. LDG RWY 02R AND DPTG RWY 02L.. 0532Z. WIND RWY 02R TDZ 080/9KT MID 090/8KT END 100/8KT RWY 02L TDZ 080/8KT CAVOK T31 DP26 QNH 1009HPA TREND TEMPO FM0630 VIS 4000M MOD TSRA. ADZ ON INITIAL CTC YOU HAVE INFO S."}]}, {"icao": "VVCT", "name": "Can Tho Intl", "metar": "METAR VVCT 211700Z 19003KT CAVOK 27/25 Q1010 NOSIG", "speci": null, "taf": null, "raw": "METAR VVCT 211700Z 19003KT CAVOK 27/25 Q1010 NOSIG", "fltcat": "VFR", "wind": "190° @ 3 kt", "vis": "CAVOK", "clouds": "NSC", "temp": 27, "dewp": 25, "qnh": "1010 hPa"}, {"icao": "VVDN", "name": "Da Nang Intl", "metar": "METAR VVDN 211700Z 23002KT 9999 FEW020 29/22 Q1007 NOSIG", "speci": null, "taf": null, "raw": "METAR VVDN 211700Z 23002KT 9999 FEW020 29/22 Q1007 NOSIG", "fltcat": "VFR", "wind": "230° @ 2 kt", "vis": ">10 km", "clouds": "FEW020", "temp": 29, "dewp": 22, "qnh": "1007 hPa", "atis": [{"kind": "ARR", "time": "2026-07-21 09:57 UTC", "text": "VVDN ARR ATIS Q 0632Z VVDN INFO Q 0632Z. ILS VICTOR APPROACH 35L.. DPTG RWY 35R.. 0632Z. WIND 160/04KT VRB BTN 110/ AND 230/ CAVOK T39 DP23 QNH 1002HPA TREND NOSIG. ADZ ON INITIAL CTC YOU HAVE INFO. Q."}, {"kind": "DEP", "time": "2026-07-21 03:51 UTC", "text": "VVDN DEP ATIS M 0432Z VVDN INFO M 0432Z. ILS VICTOR APPROACH 35L.. DPTG RWY 35R.. 0432Z. WIND 220/04KT CAVOK T37 DP22 QNH 1004HPA TREND NOSIG. ADZ ON INITIAL CTC YOU HAVE INFO. M."}]}, {"icao": "VVNB", "name": "Noi Bai — Ha Noi", "metar": "METAR VVNB 211700Z 06004KT CAVOK 27/25 Q1004 NOSIG", "speci": null, "taf": null, "raw": "METAR VVNB 211700Z 06004KT CAVOK 27/25 Q1004 NOSIG", "fltcat": "VFR", "wind": "060° @ 4 kt", "vis": "CAVOK", "clouds": "NSC", "temp": 27, "dewp": 25, "qnh": "1004 hPa", "atis": [{"kind": "ARR", "time": "2026-07-21 16:29 UTC", "text": "VVNB ARR ATIS C 0830Z VVNB INFO C 0830Z. ILS X RWY 11L. DPTG RWY 11R AND ARR RWY 11L .. 0830Z. WIND 310/6KT CAVOK T39 DP25 QNH 0998HPA TREND NOSIG. ADZ ON INITIAL CTC YOU HAVE INFO C."}, {"kind": "DEP", "time": "2026-07-21 12:11 UTC", "text": "VVNB DEP ATIS Z 0700Z VVNB INFO Z 0700Z. ILS X RWY 11L. DPTG RWY 11R AND ARR RWY 11L .. 0700Z. WIND VRB2KT CAVOK T39 DP24 QNH 0999HPA TREND NOSIG. ADZ ON INITIAL CTC YOU HAVE INFO Z."}]}, {"icao": "VVPB", "name": "Phu Bai — Hue", "metar": "METAR VVPB 211700Z 23004KT 9999 FEW020 30/18 Q1006 NOSIG", "speci": null, "taf": null, "raw": "METAR VVPB 211700Z 23004KT 9999 FEW020 30/18 Q1006 NOSIG", "fltcat": "VFR", "wind": "230° @ 4 kt", "vis": ">10 km", "clouds": "FEW020", "temp": 30, "dewp": 18, "qnh": "1006 hPa"}, {"icao": "VVPQ", "name": "Phu Quoc Intl", "metar": "METAR VVPQ 211700Z 27004KT 9999 FEW015 28/27 Q1011 NOSIG", "speci": null, "taf": null, "raw": "METAR VVPQ 211700Z 27004KT 9999 FEW015 28/27 Q1011 NOSIG", "fltcat": "VFR", "wind": "270° @ 4 kt", "vis": ">10 km", "clouds": "FEW015", "temp": 28, "dewp": 27, "qnh": "1011 hPa"}, {"icao": "VVTS", "name": "Tan Son Nhat — Ho Chi Minh City", "metar": "METAR VVTS 211700Z 23013KT CAVOK 28/26 Q1010 NOSIG", "speci": null, "taf": null, "raw": "METAR VVTS 211700Z 23013KT CAVOK 28/26 Q1010 NOSIG", "fltcat": "VFR", "wind": "230° @ 13 kt", "vis": "CAVOK", "clouds": "NSC", "temp": 28, "dewp": 26, "qnh": "1010 hPa", "atis": [{"kind": "ARR", "time": "2026-07-21 17:03 UTC", "text": "VVTS ARR ATIS Z 0830Z VVTS INFO Z 0830Z. ILSW APCH IN RWY 25R.. LDG RWY 25R AND DEP RWY 25L.. 0830Z. WIND RWY 25R TDZ 290/10KT MAX15 MNM6 CAVOK T35 DP25 QNH 1005HPA TREND NOSIG. ADZ ON INITIAL CTC YOU HAVE INFO Z."}, {"kind": "DEP", "time": "2026-07-21 04:51 UTC", "text": "VVTS DEP ATIS S 0500Z VVTS INFO S 0500Z. ILSW APCH IN RWY 25R.. LDG RWY 25R AND DEP RWY 25L.. 0500Z. WIND RWY 25R TDZ 290/8KT MAX15 MNM5 VIS 10KM CLD SCT 4100FT T34 DP25 QNH 1007HPA TREND NOSIG. ADZ ON INITIAL CTC YOU HAVE INFO S."}]}, {"icao": "VVVD", "name": "Van Don — Quang Ninh", "metar": "METAR VVVD 211700Z AUTO 12002KT 9999 NCD 27/27 Q1006", "speci": null, "taf": null, "raw": "METAR VVVD 211700Z AUTO 12002KT 9999 NCD 27/27 Q1006", "fltcat": "VFR", "wind": "120° @ 2 kt", "vis": ">10 km", "clouds": "—", "temp": 27, "dewp": 27, "qnh": "1006 hPa"}]}