{"updated": "2026-07-14T01:00:57+00:00", "source": "VN MET", "stations": [{"icao": "VVBM", "name": "Buon Ma Thuot", "metar": "METAR VVBM 140100Z 21007KT 170V260 9999 FEW015 SCT040 26/23 Q1011 NOSIG", "speci": null, "taf": "TAF VVBM 132300Z 1400/1424 24006KT 9999 SCT013 BKN040 TEMPO 1408/1411 3000 TSRA BKN010 FEW013CB TEMPO 1411/1414 5000 SHRA SCT013 FEW015CB BKN040", "raw": "METAR VVBM 140100Z 21007KT 170V260 9999 FEW015 SCT040 26/23 Q1011 NOSIG", "fltcat": "VFR", "wind": "210° @ 7 kt", "vis": ">10 km", "clouds": "FEW015 SCT040", "temp": 26, "dewp": 23, "qnh": "1011 hPa"}, {"icao": "VVCA", "name": "Chu Lai", "metar": "METAR VVCA 140030Z 18006KT 9999 FEW020 30/26 Q1003 NOSIG", "speci": null, "taf": "TAF VVCA 132300Z 1400/1409 19006KT 9999 FEW020 BECMG 1404/1405 07010KT", "raw": "METAR VVCA 140030Z 18006KT 9999 FEW020 30/26 Q1003 NOSIG", "fltcat": "VFR", "wind": "180° @ 6 kt", "vis": ">10 km", "clouds": "FEW020", "temp": 30, "dewp": 26, "qnh": "1003 hPa"}, {"icao": "VVCI", "name": "Cat Bi — Hai Phong", "metar": "METAR VVCI 140100Z VRB02KT 9999 FEW016 SCT050 30/27 Q1002 NOSIG", "speci": null, "taf": "TAF VVCI 132300Z 1400/1424 11006KT 9999 FEW020 TEMPO 1420/1424 4000 TSRA SCT015 FEW027CB", "raw": "METAR VVCI 140100Z VRB02KT 9999 FEW016 SCT050 30/27 Q1002 NOSIG", "fltcat": "VFR", "wind": "VRB @ 2 kt", "vis": ">10 km", "clouds": "FEW016 SCT050", "temp": 30, "dewp": 27, "qnh": "1002 hPa"}, {"icao": "VVCR", "name": "Cam Ranh — Nha Trang", "metar": "METAR VVCR 140100Z 20010KT CAVOK 31/23 Q1007 NOSIG", "speci": null, "taf": "TAF VVCR 132300Z 1400/1424 19012KT 9999 FEW020 TEMPO 1407/1412 TS SCT013 FEW017CB", "raw": "METAR VVCR 140100Z 20010KT CAVOK 31/23 Q1007 NOSIG", "fltcat": "VFR", "wind": "200° @ 10 kt", "vis": "CAVOK", "clouds": "NSC", "temp": 31, "dewp": 23, "qnh": "1007 hPa", "atis": [{"kind": "ARR", "time": "2026-07-13 09:29 UTC", "text": "VVCR ARR ATIS W 1330Z VVCR INFO W 1330Z. ILS YANKEE APPROACH IN USE. LDG RWY 20L AND DPTG RWY 20R.. 1330Z. WIND RWY 20L TDZ 330/3KT VRB BTN 260/ AND 360/ MID 310/3KT VRB BTN 280/ AND 340/ END 320/3KT RWY 20R TDZ 320/1KT CAVOK T29 DP25 QNH 1010HPA TREND NOSIG. ADZ ON INITIAL CTC YOU HAVE INFO W."}, {"kind": "DEP", "time": "2026-05-29 05:57 UTC", "text": "VVCR DEP ATIS S 0533Z VVCR INFO S 0533Z. ILS Z APCH IN USE.. LDG RWY 02R AND DPTG RWY 02L.. 0532Z. WIND RWY 02R TDZ 080/9KT MID 090/8KT END 100/8KT RWY 02L TDZ 080/8KT CAVOK T31 DP26 QNH 1009HPA TREND TEMPO FM0630 VIS 4000M MOD TSRA. ADZ ON INITIAL CTC YOU HAVE INFO S."}]}, {"icao": "VVCS", "name": "Con Dao", "metar": "METAR VVCS 140100Z VRB05KT 9999 SCT015 FEW017TCU 28/26 Q1009 NOSIG", "speci": null, "taf": "TAF VVCS 132300Z 1400/1409 22012KT 9999 SCT017 SCT040 TEMPO 1401/1406 22015G26KT 4000 TSRA BKN015 FEW017CB BKN040", "raw": "METAR VVCS 140100Z VRB05KT 9999 SCT015 FEW017TCU 28/26 Q1009 NOSIG", "fltcat": "VFR", "wind": "VRB @ 5 kt", "vis": ">10 km", "clouds": "SCT015 FEW017", "temp": 28, "dewp": 26, "qnh": "1009 hPa"}, {"icao": "VVCT", "name": "Can Tho Intl", "metar": "METAR VVCT 140100Z 25004KT 9999 SCT013 BKN040 26/25 Q1010 NOSIG", "speci": null, "taf": "TAF VVCT 132300Z 1400/1424 24010KT 9999 SCT015 SCT050 TEMPO 1400/1404 4000 TSRA SCT013 FEW015CB TEMPO 1407/1410 25015G27KT 3000 TSRA BKN013 FEW015CB BKN040", "raw": "METAR VVCT 140100Z 25004KT 9999 SCT013 BKN040 26/25 Q1010 NOSIG", "fltcat": "VFR", "wind": "250° @ 4 kt", "vis": ">10 km", "clouds": "SCT013 BKN040", "temp": 26, "dewp": 25, "qnh": "1010 hPa"}, {"icao": "VVDB", "name": "Dien Bien Phu", "metar": "METAR VVDB 140030Z VRB02KT 9999 FEW009 BKN065 26/24 Q1006 NOSIG", "speci": null, "taf": "TAF VVDB 132300Z 1400/1409 VRB02KT 9999 SCT030 TEMPO 1407/1409 4500 TSRA SCT010 FEW027CB", "raw": "METAR VVDB 140030Z VRB02KT 9999 FEW009 BKN065 26/24 Q1006 NOSIG", "fltcat": "VFR", "wind": "VRB @ 2 kt", "vis": ">10 km", "clouds": "FEW009 BKN065", "temp": 26, "dewp": 24, "qnh": "1006 hPa"}, {"icao": "VVDH", "name": "Dong Hoi", "metar": "METAR VVDH 140100Z 23006KT 190V270 9999 FEW036 30/24 Q1004 NOSIG", "speci": null, "taf": "TAF VVDH 132300Z 1400/1409 21005KT 9999 FEW030", "raw": "METAR VVDH 140100Z 23006KT 190V270 9999 FEW036 30/24 Q1004 NOSIG", "fltcat": "VFR", "wind": "230° @ 6 kt", "vis": ">10 km", "clouds": "FEW036", "temp": 30, "dewp": 24, "qnh": "1004 hPa"}, {"icao": "VVDN", "name": "Da Nang Intl", "metar": "METAR VVDN 140030Z VRB01KT 9999 FEW020 SCT080 31/22 Q1004 NOSIG", "speci": null, "taf": "TAF VVDN 132300Z 1400/1424 22008KT 9999 FEW020 SCT070 BECMG 1404/1405 01010KT TEMPO 1409/1413 TS SCT013 FEW015CB BKN060 BECMG 1413/1414 22006KT", "raw": "METAR VVDN 140030Z VRB01KT 9999 FEW020 SCT080 31/22 Q1004 NOSIG", "fltcat": "VFR", "wind": "VRB @ 1 kt", "vis": ">10 km", "clouds": "FEW020 SCT080", "temp": 31, "dewp": 22, "qnh": "1004 hPa", "atis": [{"kind": "ARR", "time": "2026-07-14 00:25 UTC", "text": "VVDN ARR ATIS Q 1800Z VVDN INFO Q 1800Z. ILS VICTOR APPROACH 35L.. DPTG RWY 35R.. 1800Z. WIND 200/02KT CAVOK T28 DP25 QNH 1008HPA TREND NOSIG. ADZ ON INITIAL CTC YOU HAVE INFO. Q."}, {"kind": "DEP", "time": "2026-07-12 02:50 UTC", "text": "VVDN DEP ATIS N 0423Z VVDN INFO N 0423Z. ILS VICTOR APPROACH 35L.. DPTG RWY 35R.. 0423Z. WIND 010/02KT CAVOK T36 DP24 QNH 1008HPA TREND NOSIG. WS ALL RWY. ADZ ON INITIAL CTC YOU HAVE INFO. N."}]}, {"icao": "VVNB", "name": "Noi Bai — Ha Noi", "metar": "METAR VVNB 140100Z 04007KT 8000 FEW008 SCT011 30/28 Q1003 NOSIG", "speci": null, "taf": "TAF VVNB 132300Z 1400/1424 08006KT 9999 FEW025 PROB30 TEMPO 1408/1412 4000 TSRA SCT010 FEW027CB", "raw": "METAR VVNB 140100Z 04007KT 8000 FEW008 SCT011 30/28 Q1003 NOSIG", "fltcat": "MVFR", "wind": "040° @ 7 kt", "vis": "8.0 km", "clouds": "FEW008 SCT011", "temp": 30, "dewp": 28, "qnh": "1003 hPa", "atis": [{"kind": "ARR", "time": "2026-07-13 17:20 UTC", "text": "VVNB ARR ATIS X 1600Z VVNB INFO X 1600Z. ILS X RWY 11L. DPTG RWY 11R AND ARR RWY 11L .. 1600Z. WIND 080/6KT VIS 10KM FBL RA CLD NSC T26 DP25 QNH 1007HPA TREND NOSIG. RWY CONDITION REPORT 5 5 5.. ADZ ON INITIAL CTC YOU HAVE INFO X."}, {"kind": "DEP", "time": "2026-07-13 04:41 UTC", "text": "VVNB DEP ATIS N 1203Z VVNB INFO N 1203Z. ILS X RWY 11L. DPTG RWY 11R AND ARR RWY 11L .. 1201Z. WIND 260/18KT VIS 1100M HVY TSRA CLD OBSC VER VIS 700FT T26 DP25 QNH 1006HPA TREND BECMG TL1230 VIS 3000M MOD TSRA. RWY CONDITION REPORT 5 5 5.. ADZ ON INITIAL CTC YOU HAVE INFO N."}]}, {"icao": "VVNS", "name": "Na San — Son La", "metar": "METAR VVNS 140000Z /////KT 9999 BKN035 24/21 Q1005 NOSIG", "speci": null, "taf": null, "raw": "METAR VVNS 140000Z /////KT 9999 BKN035 24/21 Q1005 NOSIG", "fltcat": "VFR", "wind": "—", "vis": ">10 km", "clouds": "BKN035", "temp": 24, "dewp": 21, "qnh": "1005 hPa"}, {"icao": "VVPB", "name": "Phu Bai — Hue", "metar": "METAR VVPB 140030Z 18002KT 9999 FEW020 29/23 Q1003 NOSIG", "speci": null, "taf": "TAF VVPB 132300Z 1400/1424 20008KT 9999 FEW020 SCT060 BECMG 1406/1407 10010KT TEMPO 1408/1412 TS SCT012 FEW015CB BKN050 BECMG 1412/1413 20006KT", "raw": "METAR VVPB 140030Z 18002KT 9999 FEW020 29/23 Q1003 NOSIG", "fltcat": "VFR", "wind": "180° @ 2 kt", "vis": ">10 km", "clouds": "FEW020", "temp": 29, "dewp": 23, "qnh": "1003 hPa"}, {"icao": "VVPC", "name": "Phu Cat — Quy Nhon", "metar": "METAR VVPC 140030Z 24008KT 200V280 9999 FEW020 BKN045 30/22 Q1005 NOSIG", "speci": null, "taf": "TAF VVPC 132300Z 1400/1424 20006KT 9999 FEW020 SCT070 TEMPO 1401/1408 24015G25KT TEMPO 1408/1412 TS SCT013 FEW015CB BKN060", "raw": "METAR VVPC 140030Z 24008KT 200V280 9999 FEW020 BKN045 30/22 Q1005 NOSIG", "fltcat": "VFR", "wind": "240° @ 8 kt", "vis": ">10 km", "clouds": "FEW020 BKN045", "temp": 30, "dewp": 22, "qnh": "1005 hPa"}, {"icao": "VVPK", "name": "Pleiku", "metar": "METAR VVPK 140100Z 25010KT 230V290 4000 -RA BR SCT002 BKN004 22/21 Q1012 BECMG TL0025 6000 -RA", "speci": null, "taf": "TAF VVPK 132300Z 1400/1424 26010KT 2000 BR BKN002 BECMG 1400/1401 8000 NSW BKN004 BKN008 BECMG 1401/1402 SCT013 TEMPO 1402/1406 25015G25KT TEMPO 1408/1412 27015G27KT 3500 TSRA BKN010 FEW015CB BKN050 TEMPO 1422/1424 0800 FG VV002", "raw": "METAR VVPK 140100Z 25010KT 230V290 4000 -RA BR SCT002 BKN004 22/21 Q1012 BECMG TL0025 6000 -RA", "fltcat": "LIFR", "wind": "250° @ 10 kt", "vis": "4.0 km", "clouds": "SCT002 BKN004", "temp": 22, "dewp": 21, "qnh": "1012 hPa"}, {"icao": "VVPQ", "name": "Phu Quoc Intl", "metar": "METAR VVPQ 140100Z VRB02KT 9000 -RA SCT013 FEW017CB BKN040 25/25 Q1010 NOSIG", "speci": null, "taf": "TAF VVPQ 132300Z 1400/1424 27010KT 9999 SCT015 SCT040 TEMPO 1400/1403 3000 TSRA BKN013 FEW015CB BKN040 TEMPO 1403/1407 28020G30KT 2000 +TSRA SCT013 SCT015CB BKN040 TEMPO 1407/1410 5000 SHRA SCT013 FEW015CB BKN040", "raw": "METAR VVPQ 140100Z VRB02KT 9000 -RA SCT013 FEW017CB BKN040 25/25 Q1010 NOSIG", "fltcat": "VFR", "wind": "VRB @ 2 kt", "vis": "9.0 km", "clouds": "SCT013 FEW017 BKN040", "temp": 25, "dewp": 25, "qnh": "1010 hPa"}, {"icao": "VVRG", "name": "Rach Gia", "metar": "METAR VVRG 140100Z 27007KT 240V320 9999 -RA SCT013 BKN040 25/24 Q1010 NOSIG", "speci": null, "taf": "TAF VVRG 132300Z 1400/1409 23009KT 9999 SCT013 SCT040 TEMPO 1400/1403 4000 TSRA SCT013 FEW015CB BKN040", "raw": "METAR VVRG 140100Z 27007KT 240V320 9999 -RA SCT013 BKN040 25/24 Q1010 NOSIG", "fltcat": "VFR", "wind": "270° @ 7 kt", "vis": ">10 km", "clouds": "SCT013 BKN040", "temp": 25, "dewp": 24, "qnh": "1010 hPa"}, {"icao": "VVTH", "name": "Dong Tac — Tuy Hoa", "metar": "METAR VVTH 140030Z 28004KT 240V300 9999 FEW016 SCT070 28/23 Q1006 NOSIG", "speci": null, "taf": "TAF VVTH 132300Z 1400/1409 23012KT 9999 FEW017 SCT060", "raw": "METAR VVTH 140030Z 28004KT 240V300 9999 FEW016 SCT070 28/23 Q1006 NOSIG", "fltcat": "VFR", "wind": "280° @ 4 kt", "vis": ">10 km", "clouds": "FEW016 SCT070", "temp": 28, "dewp": 23, "qnh": "1006 hPa"}, {"icao": "VVTS", "name": "Tan Son Nhat — Ho Chi Minh City", "metar": "METAR VVTS 140100Z 25012KT 9999 SCT018 28/25 Q1009 NOSIG", "speci": null, "taf": "TAF VVTS 132300Z 1400/1506 24010KT 9999 SCT017 TEMPO 1402/1405 24015G25KT 5000 TSRA BKN015 FEW017CB TEMPO 1405/1410 24018G30KT 2500 +TSRA BKN015 SCT017CB", "raw": "METAR VVTS 140100Z 25012KT 9999 SCT018 28/25 Q1009 NOSIG", "fltcat": "VFR", "wind": "250° @ 12 kt", "vis": ">10 km", "clouds": "SCT018", "temp": 28, "dewp": 25, "qnh": "1009 hPa", "atis": [{"kind": "ARR", "time": "2026-07-14 00:58 UTC", "text": "VVTS ARR ATIS D 1830Z VVTS INFO D 1830Z. ILSW APCH IN RWY 25R.. LDG RWY 25R AND DEP RWY 25L.. 1830Z. WIND RWY 25R TDZ 320/3KT VRB BTN 260/ AND 020/ CAVOK T28 DP26 QNH 1010HPA TREND NOSIG. ADZ ON INITIAL CTC YOU HAVE INFO D."}, {"kind": "DEP", "time": "2026-07-13 17:43 UTC", "text": "VVTS DEP ATIS Y 1600Z VVTS INFO Y 1600Z. ILSW APCH IN RWY 25R.. LDG RWY 25R AND DEP RWY 25L.. 1600Z. WIND RWY 25R TDZ 250/6KT VIS 10KM CLD FEW 4200FT T29 DP26 QNH 1010HPA TREND NOSIG. ADZ ON INITIAL CTC YOU HAVE INFO Y."}]}, {"icao": "VVTX", "name": "Tho Xuan — Thanh Hoa", "metar": "METAR VVTX 140100Z VRB01KT CAVOK 29/24 Q1002 NOSIG", "speci": null, "taf": "TAF VVTX 132300Z 1400/1409 24006KT 9999 FEW025 TEMPO 1407/1409 4000 TSRA SCT010 FEW027CB", "raw": "METAR VVTX 140100Z VRB01KT CAVOK 29/24 Q1002 NOSIG", "fltcat": "VFR", "wind": "VRB @ 1 kt", "vis": "CAVOK", "clouds": "NSC", "temp": 29, "dewp": 24, "qnh": "1002 hPa"}, {"icao": "VVVD", "name": "Van Don — Quang Ninh", "metar": "METAR VVVD 140100Z AUTO 03003KT 320V090 9999 BKN010/// 30/28 Q1003", "speci": null, "taf": "TAF VVVD 132300Z 1400/1424 21005KT 9999 FEW025 TEMPO 1419/1424 3500 TSRA SCT015 FEW027CB", "raw": "METAR VVVD 140100Z AUTO 03003KT 320V090 9999 BKN010/// 30/28 Q1003", "fltcat": "MVFR", "wind": "030° @ 3 kt", "vis": ">10 km", "clouds": "BKN010", "temp": 30, "dewp": 28, "qnh": "1003 hPa"}, {"icao": "VVVH", "name": "Vinh", "metar": "METAR VVVH 140100Z 29003KT 240V320 CAVOK 30/25 Q1002 NOSIG", "speci": null, "taf": "TAF VVVH 132300Z 1400/1424 23005KT 9999 FEW020", "raw": "METAR VVVH 140100Z 29003KT 240V320 CAVOK 30/25 Q1002 NOSIG", "fltcat": "VFR", "wind": "290° @ 3 kt", "vis": "CAVOK", "clouds": "NSC", "temp": 30, "dewp": 25, "qnh": "1002 hPa"}]}