{"updated": "2026-07-16T03:07:09+00:00", "source": "VN MET", "stations": [{"icao": "VVBM", "name": "Buon Ma Thuot", "metar": "METAR VVBM 160300Z 25006KT 210V300 9999 SCT015 BKN040 27/23 Q1014 NOSIG", "speci": null, "taf": "TAF VVBM 152300Z 1600/1624 VRB03KT 9999 SCT015 SCT040 BECMG 1604/1605 30010KT TEMPO 1606/1611 5000 TSRA BKN010 FEW015CB BKN040", "raw": "METAR VVBM 160300Z 25006KT 210V300 9999 SCT015 BKN040 27/23 Q1014 NOSIG", "fltcat": "VFR", "wind": "250° @ 6 kt", "vis": ">10 km", "clouds": "SCT015 BKN040", "temp": 27, "dewp": 23, "qnh": "1014 hPa"}, {"icao": "VVCA", "name": "Chu Lai", "metar": "METAR VVCA 160300Z 04006KT 330V080 CAVOK 35/22 Q1006 NOSIG", "speci": null, "taf": "TAF VVCA 160200Z 1603/1612 28007KT 9999 FEW020 BECMG 1604/1605 11010KT", "raw": "METAR VVCA 160300Z 04006KT 330V080 CAVOK 35/22 Q1006 NOSIG", "fltcat": "VFR", "wind": "040° @ 6 kt", "vis": "CAVOK", "clouds": "NSC", "temp": 35, "dewp": 22, "qnh": "1006 hPa"}, {"icao": "VVCI", "name": "Cat Bi — Hai Phong", "metar": "METAR VVCI 160300Z 28008KT 250V310 CAVOK 32/26 Q1002 NOSIG", "speci": null, "taf": "TAF AMD VVCI 160230Z 1603/1624 16008KT 9999 FEW030 TEMPO 1604/1609 3500 TSRA SCT015 FEW027CB", "raw": "METAR VVCI 160300Z 28008KT 250V310 CAVOK 32/26 Q1002 NOSIG", "fltcat": "VFR", "wind": "280° @ 8 kt", "vis": "CAVOK", "clouds": "NSC", "temp": 32, "dewp": 26, "qnh": "1002 hPa"}, {"icao": "VVCR", "name": "Cam Ranh — Nha Trang", "metar": "METAR VVCR 160300Z 08005KT CAVOK 32/25 Q1010 NOSIG", "speci": null, "taf": "TAF VVCR 152300Z 1600/1624 14008KT 9999 FEW020 TEMPO 1609/1612 TS SCT013 FEW015CB", "raw": "METAR VVCR 160300Z 08005KT CAVOK 32/25 Q1010 NOSIG", "fltcat": "VFR", "wind": "080° @ 5 kt", "vis": "CAVOK", "clouds": "NSC", "temp": 32, "dewp": 25, "qnh": "1010 hPa", "atis": [{"kind": "ARR", "time": "2026-07-13 09:29 UTC", "text": "VVCR ARR ATIS W 1330Z VVCR INFO W 1330Z. ILS YANKEE APPROACH IN USE. LDG RWY 20L AND DPTG RWY 20R.. 1330Z. WIND RWY 20L TDZ 330/3KT VRB BTN 260/ AND 360/ MID 310/3KT VRB BTN 280/ AND 340/ END 320/3KT RWY 20R TDZ 320/1KT CAVOK T29 DP25 QNH 1010HPA TREND NOSIG. ADZ ON INITIAL CTC YOU HAVE INFO W."}, {"kind": "DEP", "time": "2026-05-29 05:57 UTC", "text": "VVCR DEP ATIS S 0533Z VVCR INFO S 0533Z. ILS Z APCH IN USE.. LDG RWY 02R AND DPTG RWY 02L.. 0532Z. WIND RWY 02R TDZ 080/9KT MID 090/8KT END 100/8KT RWY 02L TDZ 080/8KT CAVOK T31 DP26 QNH 1009HPA TREND TEMPO FM0630 VIS 4000M MOD TSRA. ADZ ON INITIAL CTC YOU HAVE INFO S."}]}, {"icao": "VVCS", "name": "Con Dao", "metar": "METAR VVCS 160300Z 28010KT 9999 FEW017 31/25 Q1012 NOSIG", "speci": null, "taf": "TAF VVCS 160200Z 1603/1612 28010KT 9999 SCT017 TEMPO 1609/1611 TS SCT015 FEW017CB", "raw": "METAR VVCS 160300Z 28010KT 9999 FEW017 31/25 Q1012 NOSIG", "fltcat": "VFR", "wind": "280° @ 10 kt", "vis": ">10 km", "clouds": "FEW017", "temp": 31, "dewp": 25, "qnh": "1012 hPa"}, {"icao": "VVCT", "name": "Can Tho Intl", "metar": "METAR VVCT 160300Z 28005KT 9999 FEW015 31/25 Q1012 NOSIG", "speci": null, "taf": "TAF VVCT 152300Z 1600/1624 VRB03KT 9999 SCT015 SCT040 BECMG 1602/1603 24010KT TEMPO 1605/1609 25015G26KT 4000 TSRA BKN015 FEW017CB", "raw": "METAR VVCT 160300Z 28005KT 9999 FEW015 31/25 Q1012 NOSIG", "fltcat": "VFR", "wind": "280° @ 5 kt", "vis": ">10 km", "clouds": "FEW015", "temp": 31, "dewp": 25, "qnh": "1012 hPa"}, {"icao": "VVDB", "name": "Dien Bien Phu", "metar": "METAR VVDB 160300Z 19005KT 170V230 9999 -RA SCT024 BKN031 OVC040 25/24 Q1008 NOSIG", "speci": null, "taf": "TAF VVDB 160200Z 1603/1612 VRB03KT 6000 SCT020 TEMPO 1603/1605 4000 SHRA SCT015 FEW025TCU TEMPO 1607/1611 3500 TSRA SCT015 FEW027CB", "raw": "METAR VVDB 160300Z 19005KT 170V230 9999 -RA SCT024 BKN031 OVC040 25/24 Q1008 NOSIG", "fltcat": "VFR", "wind": "190° @ 5 kt", "vis": ">10 km", "clouds": "SCT024 BKN031 OVC040", "temp": 25, "dewp": 24, "qnh": "1008 hPa"}, {"icao": "VVDH", "name": "Dong Hoi", "metar": "METAR VVDH 160300Z 22007KT 190V250 9999 FEW032 31/24 Q1006 NOSIG", "speci": null, "taf": "TAF VVDH 160200Z 1603/1612 23012KT 9999 FEW030", "raw": "METAR VVDH 160300Z 22007KT 190V250 9999 FEW032 31/24 Q1006 NOSIG", "fltcat": "VFR", "wind": "220° @ 7 kt", "vis": ">10 km", "clouds": "FEW032", "temp": 31, "dewp": 24, "qnh": "1006 hPa"}, {"icao": "VVDN", "name": "Da Nang Intl", "metar": "METAR VVDN 160300Z 23008KT 9999 FEW020 BKN070 34/22 Q1007 NOSIG", "speci": null, "taf": "TAF VVDN 152300Z 1600/1624 24010KT 9999 FEW020 SCT060 BECMG 1605/1606 01010KT BECMG 1611/1612 22008KT", "raw": "METAR VVDN 160300Z 23008KT 9999 FEW020 BKN070 34/22 Q1007 NOSIG", "fltcat": "VFR", "wind": "230° @ 8 kt", "vis": ">10 km", "clouds": "FEW020 BKN070", "temp": 34, "dewp": 22, "qnh": "1007 hPa", "atis": [{"kind": "ARR", "time": "2026-07-16 03:06 UTC", "text": "VVDN ARR ATIS Y 1102Z VVDN INFO Y 1102Z. ILS VICTOR APPROACH 35L.. DPTG RWY 35R.. 1102Z. WIND 130/07KT CAVOK T32 DP26 QNH 1005HPA TREND NOSIG. ADZ ON INITIAL CTC YOU HAVE INFO. Y."}, {"kind": "DEP", "time": "2026-07-12 02:50 UTC", "text": "VVDN DEP ATIS N 0423Z VVDN INFO N 0423Z. ILS VICTOR APPROACH 35L.. DPTG RWY 35R.. 0423Z. WIND 010/02KT CAVOK T36 DP24 QNH 1008HPA TREND NOSIG. WS ALL RWY. ADZ ON INITIAL CTC YOU HAVE INFO. N."}]}, {"icao": "VVNB", "name": "Noi Bai — Ha Noi", "metar": "METAR VVNB 160300Z VRB02KT 9999 -RA FEW049 SCT076 26/26 Q1003 NOSIG", "speci": null, "taf": "TAF VVNB 152300Z 1600/1624 09005KT 9999 FEW025 PROB40 TEMPO 1601/1604 3500 TSRA SCT015 FEW027CB TEMPO 1609/1612 3000 TSRA SCT012 FEW027CB", "raw": "METAR VVNB 160300Z VRB02KT 9999 -RA FEW049 SCT076 26/26 Q1003 NOSIG", "fltcat": "VFR", "wind": "VRB @ 2 kt", "vis": ">10 km", "clouds": "FEW049 SCT076", "temp": 26, "dewp": 26, "qnh": "1003 hPa", "atis": [{"kind": "ARR", "time": "2026-07-16 03:03 UTC", "text": "VVNB ARR ATIS P 0302Z VVNB INFO P 0302Z. ILS X RWY 11L. DPTG RWY 11R AND ARR RWY 11L .. 0302Z. WIND VRB2KT VIS 10KM FBL RA CLD FEW 2600FT T26 DP26 QNH 1003HPA TREND NOSIG. ADZ ON INITIAL CTC YOU HAVE INFO P."}, {"kind": "DEP", "time": "2026-07-16 02:01 UTC", "text": "VVNB DEP ATIS K 1100Z VVNB INFO K 1100Z. ILS X RWY 11L. DPTG RWY 11R AND ARR RWY 11L .. 1100Z. WIND 200/6KT CAVOK T34 DP25 QNH 1001HPA TREND NOSIG. ADZ ON INITIAL CTC YOU HAVE INFO K."}]}, {"icao": "VVNS", "name": "Na San — Son La", "metar": "METAR VVNS 160200Z /////KT 7000 -RA SCT020 BKN045 24/23 Q1009 NOSIG", "speci": null, "taf": null, "raw": "METAR VVNS 160200Z /////KT 7000 -RA SCT020 BKN045 24/23 Q1009 NOSIG", "fltcat": "MVFR", "wind": "—", "vis": "7.0 km", "clouds": "SCT020 BKN045", "temp": 24, "dewp": 23, "qnh": "1009 hPa"}, {"icao": "VVPB", "name": "Phu Bai — Hue", "metar": "METAR VVPB 160300Z 24007KT 9999 FEW020 SCT070 34/21 Q1006 NOSIG", "speci": null, "taf": "TAF VVPB 152300Z 1600/1624 22005KT 9999 FEW020 BECMG 1605/1606 08010KT BECMG 1612/1613 22004KT", "raw": "METAR VVPB 160300Z 24007KT 9999 FEW020 SCT070 34/21 Q1006 NOSIG", "fltcat": "VFR", "wind": "240° @ 7 kt", "vis": ">10 km", "clouds": "FEW020 SCT070", "temp": 34, "dewp": 21, "qnh": "1006 hPa"}, {"icao": "VVPC", "name": "Phu Cat — Quy Nhon", "metar": "METAR VVPC 160300Z 25008KT 210V270 9999 FEW030 BKN080 31/23 Q1008 NOSIG", "speci": null, "taf": "TAF VVPC 152300Z 1600/1624 26008KT 9999 FEW017 SCT060", "raw": "METAR VVPC 160300Z 25008KT 210V270 9999 FEW030 BKN080 31/23 Q1008 NOSIG", "fltcat": "VFR", "wind": "250° @ 8 kt", "vis": ">10 km", "clouds": "FEW030 BKN080", "temp": 31, "dewp": 23, "qnh": "1008 hPa"}, {"icao": "VVPK", "name": "Pleiku", "metar": "METAR VVPK 160300Z 27010KT 240V310 9999 BKN005 23/21 Q1016 NOSIG", "speci": null, "taf": "TAF VVPK 152300Z 1600/1624 26010KT 8000 BKN004 BKN008 TEMPO 1600/1601 3000 RA BR BKN002 BKN005 TEMPO 1601/1603 4000 RA BR BECMG 1603/1604 BKN015 TEMPO 1608/1613 27015G25KT 4000 TSRA BKN008 FEW015CB BKN040 TEMPO 1622/1624 3000 RA BR BKN002 BKN005", "raw": "METAR VVPK 160300Z 27010KT 240V310 9999 BKN005 23/21 Q1016 NOSIG", "fltcat": "IFR", "wind": "270° @ 10 kt", "vis": ">10 km", "clouds": "BKN005", "temp": 23, "dewp": 21, "qnh": "1016 hPa"}, {"icao": "VVPQ", "name": "Phu Quoc Intl", "metar": "METAR VVPQ 160300Z 27006KT 9999 FEW015 SCT040 30/29 Q1012 NOSIG", "speci": null, "taf": "TAF VVPQ 152300Z 1600/1624 VRB03KT 9999 SCT017 SCT040 BECMG 1605/1606 30010KT TEMPO 1606/1610 5000 TSRA BKN015 FEW017CB", "raw": "METAR VVPQ 160300Z 27006KT 9999 FEW015 SCT040 30/29 Q1012 NOSIG", "fltcat": "VFR", "wind": "270° @ 6 kt", "vis": ">10 km", "clouds": "FEW015 SCT040", "temp": 30, "dewp": 29, "qnh": "1012 hPa"}, {"icao": "VVRG", "name": "Rach Gia", "metar": "METAR VVRG 160300Z 28008KT 240V310 9999 FEW017 SCT050 30/24 Q1012 NOSIG", "speci": null, "taf": "TAF VVRG 160200Z 1603/1612 25008KT 9999 SCT015 SCT040", "raw": "METAR VVRG 160300Z 28008KT 240V310 9999 FEW017 SCT050 30/24 Q1012 NOSIG", "fltcat": "VFR", "wind": "280° @ 8 kt", "vis": ">10 km", "clouds": "FEW017 SCT050", "temp": 30, "dewp": 24, "qnh": "1012 hPa"}, {"icao": "VVTH", "name": "Dong Tac — Tuy Hoa", "metar": "METAR VVTH 160300Z 26013KT 210V300 CAVOK 32/23 Q1009 NOSIG", "speci": null, "taf": "TAF VVTH 160200Z 1603/1612 25013KT 9999 FEW020 BECMG 1607/1608 10012KT", "raw": "METAR VVTH 160300Z 26013KT 210V300 CAVOK 32/23 Q1009 NOSIG", "fltcat": "VFR", "wind": "260° @ 13 kt", "vis": "CAVOK", "clouds": "NSC", "temp": 32, "dewp": 23, "qnh": "1009 hPa"}, {"icao": "VVTS", "name": "Tan Son Nhat — Ho Chi Minh City", "metar": "METAR VVTS 160300Z 22006KT 200V270 9999 SCT019 30/26 Q1012 NOSIG", "speci": null, "taf": "TAF VVTS 152300Z 1600/1706 26008KT 9999 SCT017 TEMPO 1606/1609 26015G26KT 2000 +TSRA SCT013 SCT015CB TEMPO 1609/1612 5000 SHRA SCT015 FEW017CB", "raw": "METAR VVTS 160300Z 22006KT 200V270 9999 SCT019 30/26 Q1012 NOSIG", "fltcat": "VFR", "wind": "220° @ 6 kt", "vis": ">10 km", "clouds": "SCT019", "temp": 30, "dewp": 26, "qnh": "1012 hPa", "atis": [{"kind": "ARR", "time": "2026-07-16 02:29 UTC", "text": "VVTS ARR ATIS K 1100Z VVTS INFO K 1100Z. ILSW APCH IN RWY 25R.. LDG RWY 25R AND DEP RWY 25L.. 1100Z. WIND RWY 25R TDZ 290/7KT CAVOK T33 DP25 QNH 1006HPA TREND NOSIG. ADZ ON INITIAL CTC YOU HAVE INFO K."}, {"kind": "DEP", "time": "2026-07-15 17:12 UTC", "text": "VVTS DEP ATIS E 0800Z VVTS INFO E 0800Z. ILSW APCH IN RWY 25R.. LDG RWY 25R AND DEP RWY 25L.. 0800Z. WIND RWY 25R TDZ 290/9KT VRB BTN 240/ AND 330/ VIS 10KM CLD FEW 4800FT T35 DP25 QNH 1006HPA TREND TEMPO FM0945 280/16KT MAX28 VIS 3000M MOD TSRA CLD BKN 1500FT FEW CB 1700FT. ADZ ON INITIAL CTC YOU HAVE INFO E."}]}, {"icao": "VVTX", "name": "Tho Xuan — Thanh Hoa", "metar": "METAR VVTX 160230Z 20004KT 160V220 CAVOK 32/24 Q1003 NOSIG", "speci": null, "taf": "TAF VVTX 160200Z 1603/1612 22006KT 9999 FEW030", "raw": "METAR VVTX 160230Z 20004KT 160V220 CAVOK 32/24 Q1003 NOSIG", "fltcat": "VFR", "wind": "200° @ 4 kt", "vis": "CAVOK", "clouds": "NSC", "temp": 32, "dewp": 24, "qnh": "1003 hPa"}, {"icao": "VVVD", "name": "Van Don — Quang Ninh", "metar": "METAR VVVD 160300Z AUTO 19009KT 160V220 9999 FEW200/// 33/28 Q1002", "speci": null, "taf": "TAF AMD VVVD 160230Z 1603/1624 18008KT 9999 FEW030 TEMPO 1604/1610 3500 TSRA SCT015 FEW027CB", "raw": "METAR VVVD 160300Z AUTO 19009KT 160V220 9999 FEW200/// 33/28 Q1002", "fltcat": "VFR", "wind": "190° @ 9 kt", "vis": ">10 km", "clouds": "FEW200", "temp": 33, "dewp": 28, "qnh": "1002 hPa"}, {"icao": "VVVH", "name": "Vinh", "metar": "METAR VVVH 160300Z 23006KT 180V280 CAVOK 32/22 Q1004 NOSIG", "speci": null, "taf": "TAF VVVH 152300Z 1600/1624 22006KT 9999 FEW030", "raw": "METAR VVVH 160300Z 23006KT 180V280 CAVOK 32/22 Q1004 NOSIG", "fltcat": "VFR", "wind": "230° @ 6 kt", "vis": "CAVOK", "clouds": "NSC", "temp": 32, "dewp": 22, "qnh": "1004 hPa"}]}