{"updated": "2026-07-15T05:51:27+00:00", "source": "VN MET", "stations": [{"icao": "VVBM", "name": "Buon Ma Thuot", "metar": "METAR VVBM 150530Z 28012KT 9999 SCT015 SCT040 29/22 Q1012 NOSIG", "speci": null, "taf": "TAF VVBM 142300Z 1500/1524 24008KT 9999 BKN015 BKN040 TEMPO 1506/1510 26015G26KT 3000 TSRA BKN010 FEW013CB BKN030", "raw": "METAR VVBM 150530Z 28012KT 9999 SCT015 SCT040 29/22 Q1012 NOSIG", "fltcat": "VFR", "wind": "280° @ 12 kt", "vis": ">10 km", "clouds": "SCT015 SCT040", "temp": 29, "dewp": 22, "qnh": "1012 hPa"}, {"icao": "VVCA", "name": "Chu Lai", "metar": "METAR VVCA 150530Z 27004KT 200V340 9999 FEW030 36/23 Q1005 NOSIG", "speci": null, "taf": "TAF VVCA 150200Z 1503/1512 07010KT 9999 FEW020 SCT070", "raw": "METAR VVCA 150530Z 27004KT 200V340 9999 FEW030 36/23 Q1005 NOSIG", "fltcat": "VFR", "wind": "270° @ 4 kt", "vis": ">10 km", "clouds": "FEW030", "temp": 36, "dewp": 23, "qnh": "1005 hPa"}, {"icao": "VVCI", "name": "Cat Bi — Hai Phong", "metar": "METAR VVCI 150530Z 18003KT 100V230 CAVOK 32/27 Q1002 NOSIG", "speci": null, "taf": "TAF VVCI 142300Z 1500/1524 13006KT 9999 FEW020 TEMPO 1500/1504 4000 SHRA SCT015 FEW027CB", "raw": "METAR VVCI 150530Z 18003KT 100V230 CAVOK 32/27 Q1002 NOSIG", "fltcat": "VFR", "wind": "180° @ 3 kt", "vis": "CAVOK", "clouds": "NSC", "temp": 32, "dewp": 27, "qnh": "1002 hPa"}, {"icao": "VVCR", "name": "Cam Ranh — Nha Trang", "metar": "METAR VVCR 150530Z 10009KT CAVOK 36/22 Q1008 NOSIG", "speci": null, "taf": "TAF VVCR 142300Z 1500/1524 20013KT 9999 FEW020", "raw": "METAR VVCR 150530Z 10009KT CAVOK 36/22 Q1008 NOSIG", "fltcat": "VFR", "wind": "100° @ 9 kt", "vis": "CAVOK", "clouds": "NSC", "temp": 36, "dewp": 22, "qnh": "1008 hPa", "atis": [{"kind": "ARR", "time": "2026-07-13 09:29 UTC", "text": "VVCR ARR ATIS W 1330Z VVCR INFO W 1330Z. ILS YANKEE APPROACH IN USE. LDG RWY 20L AND DPTG RWY 20R.. 1330Z. WIND RWY 20L TDZ 330/3KT VRB BTN 260/ AND 360/ MID 310/3KT VRB BTN 280/ AND 340/ END 320/3KT RWY 20R TDZ 320/1KT CAVOK T29 DP25 QNH 1010HPA TREND NOSIG. ADZ ON INITIAL CTC YOU HAVE INFO W."}, {"kind": "DEP", "time": "2026-05-29 05:57 UTC", "text": "VVCR DEP ATIS S 0533Z VVCR INFO S 0533Z. ILS Z APCH IN USE.. LDG RWY 02R AND DPTG RWY 02L.. 0532Z. WIND RWY 02R TDZ 080/9KT MID 090/8KT END 100/8KT RWY 02L TDZ 080/8KT CAVOK T31 DP26 QNH 1009HPA TREND TEMPO FM0630 VIS 4000M MOD TSRA. ADZ ON INITIAL CTC YOU HAVE INFO S."}]}, {"icao": "VVCS", "name": "Con Dao", "metar": "METAR VVCS 150530Z 16007KT 120V260 9999 FEW017TCU 32/26 Q1010 NOSIG", "speci": null, "taf": "TAF VVCS 150200Z 1503/1512 20010KT 9999 SCT017 TEMPO 1503/1507 20015G25KT 3000 TSRA BKN015 SCT017CB", "raw": "METAR VVCS 150530Z 16007KT 120V260 9999 FEW017TCU 32/26 Q1010 NOSIG", "fltcat": "VFR", "wind": "160° @ 7 kt", "vis": ">10 km", "clouds": "FEW017", "temp": 32, "dewp": 26, "qnh": "1010 hPa"}, {"icao": "VVCT", "name": "Can Tho Intl", "metar": "METAR VVCT 150530Z 22006KT 180V250 9999 SCT013 FEW015CB BKN050 30/26 Q1011 NOSIG", "speci": null, "taf": "TAF VVCT 142300Z 1500/1524 24008KT 9999 SCT015 BKN050 TEMPO 1502/1504 5000 SHRA SCT015 FEW017CB TEMPO 1506/1510 25015G26KT 3000 TSRA SCT013 SCT015CB", "raw": "METAR VVCT 150530Z 22006KT 180V250 9999 SCT013 FEW015CB BKN050 30/26 Q1011 NOSIG", "fltcat": "VFR", "wind": "220° @ 6 kt", "vis": ">10 km", "clouds": "SCT013 FEW015 BKN050", "temp": 30, "dewp": 26, "qnh": "1011 hPa"}, {"icao": "VVDB", "name": "Dien Bien Phu", "metar": "METAR VVDB 150530Z 21005KT 9999 FEW030 SCT037 BKN063 29/24 Q1008 NOSIG", "speci": null, "taf": "TAF VVDB 150200Z 1503/1512 21005KT 9999 SCT030 TEMPO 1508/1512 4000 TSRA SCT015 FEW027CB", "raw": "METAR VVDB 150530Z 21005KT 9999 FEW030 SCT037 BKN063 29/24 Q1008 NOSIG", "fltcat": "VFR", "wind": "210° @ 5 kt", "vis": ">10 km", "clouds": "FEW030 SCT037 BKN063", "temp": 29, "dewp": 24, "qnh": "1008 hPa"}, {"icao": "VVDH", "name": "Dong Hoi", "metar": "METAR VVDH 150530Z 27009KT 240V300 9999 SCT045 33/24 Q1005 NOSIG", "speci": null, "taf": "TAF VVDH 150200Z 1503/1512 25015KT 9999 FEW030", "raw": "METAR VVDH 150530Z 27009KT 240V300 9999 SCT045 33/24 Q1005 NOSIG", "fltcat": "VFR", "wind": "270° @ 9 kt", "vis": ">10 km", "clouds": "SCT045", "temp": 33, "dewp": 24, "qnh": "1005 hPa"}, {"icao": "VVDN", "name": "Da Nang Intl", "metar": "METAR VVDN 150530Z 21009KT 9999 FEW020 35/22 Q1006 NOSIG", "speci": null, "taf": "TAF VVDN 142300Z 1500/1524 21008KT 9999 FEW020 BKN060 BECMG 1505/1506 02010KT BECMG 1510/1511 21008KT", "raw": "METAR VVDN 150530Z 21009KT 9999 FEW020 35/22 Q1006 NOSIG", "fltcat": "VFR", "wind": "210° @ 9 kt", "vis": ">10 km", "clouds": "FEW020", "temp": 35, "dewp": 22, "qnh": "1006 hPa", "atis": [{"kind": "ARR", "time": "2026-07-15 05:06 UTC", "text": "VVDN ARR ATIS F 0502Z VVDN INFO F 0502Z. ILS VICTOR APPROACH 35L.. DPTG RWY 35R.. 0502Z. WIND 200/10KT CAVOK T35 DP21 QNH 1006HPA TREND NOSIG. ADZ ON INITIAL CTC YOU HAVE INFO. F."}, {"kind": "DEP", "time": "2026-07-12 02:50 UTC", "text": "VVDN DEP ATIS N 0423Z VVDN INFO N 0423Z. ILS VICTOR APPROACH 35L.. DPTG RWY 35R.. 0423Z. WIND 010/02KT CAVOK T36 DP24 QNH 1008HPA TREND NOSIG. WS ALL RWY. ADZ ON INITIAL CTC YOU HAVE INFO. N."}]}, {"icao": "VVNB", "name": "Noi Bai — Ha Noi", "metar": "METAR VVNB 150530Z VRB03KT CAVOK 34/27 Q1002 NOSIG", "speci": null, "taf": "TAF VVNB 142300Z 1500/1524 12006KT 9999 FEW025 TEMPO 1503/1507 4000 SHRA SCT012 FEW025TCU", "raw": "METAR VVNB 150530Z VRB03KT CAVOK 34/27 Q1002 NOSIG", "fltcat": "VFR", "wind": "VRB @ 3 kt", "vis": "CAVOK", "clouds": "NSC", "temp": 34, "dewp": 27, "qnh": "1002 hPa", "atis": [{"kind": "ARR", "time": "2026-07-15 05:16 UTC", "text": "VVNB ARR ATIS X 0431Z VVNB INFO X 0431Z. ILS X RWY 11L. DPTG RWY 11R AND ARR RWY 11L .. 0431Z. WIND 190/5KT VIS 10KM FBL RA CLD NSC T32 DP24 QNH 1004HPA TREND TEMPO VIS 4500M MOD RA. ADZ ON INITIAL CTC YOU HAVE INFO X."}, {"kind": "DEP", "time": "2026-07-15 02:56 UTC", "text": "VVNB DEP ATIS V 0331Z VVNB INFO V 0331Z. ILS X RWY 11L. DPTG RWY 11R AND ARR RWY 11L .. 0331Z. WIND 070/4KT VIS 9KM CLD NSC T31 DP28 QNH 1005HPA TREND TEMPO VIS 4500M MOD RA. ADZ ON INITIAL CTC YOU HAVE INFO V."}]}, {"icao": "VVPB", "name": "Phu Bai — Hue", "metar": "METAR VVPB 150530Z 17005KT 9999 FEW020 SCT070 33/21 Q1006 NOSIG", "speci": null, "taf": "TAF VVPB 142300Z 1500/1524 24007KT 9999 FEW020 SCT060", "raw": "METAR VVPB 150530Z 17005KT 9999 FEW020 SCT070 33/21 Q1006 NOSIG", "fltcat": "VFR", "wind": "170° @ 5 kt", "vis": ">10 km", "clouds": "FEW020 SCT070", "temp": 33, "dewp": 21, "qnh": "1006 hPa"}, {"icao": "VVPC", "name": "Phu Cat — Quy Nhon", "metar": "METAR VVPC 150530Z 24009KT 210V270 9999 FEW030 35/23 Q1007 NOSIG", "speci": null, "taf": "TAF VVPC 142300Z 1500/1524 26010KT 9999 FEW020 SCT060", "raw": "METAR VVPC 150530Z 24009KT 210V270 9999 FEW030 35/23 Q1007 NOSIG", "fltcat": "VFR", "wind": "240° @ 9 kt", "vis": ">10 km", "clouds": "FEW030", "temp": 35, "dewp": 23, "qnh": "1007 hPa"}, {"icao": "VVPK", "name": "Pleiku", "metar": "METAR VVPK 150530Z 27013KT 240V300 9999 SCT014 FEW020TCU 26/22 Q1013 TEMPO FM0550 4000 SHRA", "speci": null, "taf": "TAF VVPK 142300Z 1500/1524 25012KT 8000 BKN015 TEMPO 1500/1502 3000 RA BR SCT002 BKN004 TEMPO 1503/1507 25015G25KT TEMPO 1507/1512 25015G25KT 4000 TSRA BKN008 FEW015CB BKN050 TEMPO 1522/1524 3000 RA BR BKN002 BKN006", "raw": "METAR VVPK 150530Z 27013KT 240V300 9999 SCT014 FEW020TCU 26/22 Q1013 TEMPO FM0550 4000 SHRA", "fltcat": "VFR", "wind": "270° @ 13 kt", "vis": ">10 km", "clouds": "SCT014 FEW020", "temp": 26, "dewp": 22, "qnh": "1013 hPa"}, {"icao": "VVPQ", "name": "Phu Quoc Intl", "metar": "METAR VVPQ 150530Z 14003KT 9999 SCT015 FEW017CB SCT040 29/28 Q1011 NOSIG", "speci": null, "taf": "TAF VVPQ 142300Z 1500/1524 25007KT 9999 SCT015 SCT040 TEMPO 1502/1505 28015G26KT 3000 TSRA SCT013 SCT015CB TEMPO 1505/1507 5000 SHRA SCT015 FEW017CB BKN040", "raw": "METAR VVPQ 150530Z 14003KT 9999 SCT015 FEW017CB SCT040 29/28 Q1011 NOSIG", "fltcat": "VFR", "wind": "140° @ 3 kt", "vis": ">10 km", "clouds": "SCT015 FEW017 SCT040", "temp": 29, "dewp": 28, "qnh": "1011 hPa"}, {"icao": "VVRG", "name": "Rach Gia", "metar": "METAR VVRG 150530Z 21005KT 170V230 9999 FEW015 BKN040 30/24 Q1011 NOSIG", "speci": null, "taf": "TAF VVRG 150200Z 1503/1512 24008KT 9999 SCT015 PROB30 TEMPO 1503/1506 5000 TSRA SCT015 FEW017CB", "raw": "METAR VVRG 150530Z 21005KT 170V230 9999 FEW015 BKN040 30/24 Q1011 NOSIG", "fltcat": "VFR", "wind": "210° @ 5 kt", "vis": ">10 km", "clouds": "FEW015 BKN040", "temp": 30, "dewp": 24, "qnh": "1011 hPa"}, {"icao": "VVTH", "name": "Dong Tac — Tuy Hoa", "metar": "METAR VVTH 150530Z 30014KT 9999 FEW030 34/23 Q1008 NOSIG", "speci": null, "taf": "TAF VVTH 150200Z 1503/1512 24013KT 9999 FEW020", "raw": "METAR VVTH 150530Z 30014KT 9999 FEW030 34/23 Q1008 NOSIG", "fltcat": "VFR", "wind": "300° @ 14 kt", "vis": ">10 km", "clouds": "FEW030", "temp": 34, "dewp": 23, "qnh": "1008 hPa"}, {"icao": "VVTS", "name": "Tan Son Nhat — Ho Chi Minh City", "metar": "METAR VVTS 150530Z 23012KT 200V260 9999 SCT023 FEW025CB BKN044 34/25 Q1010 TEMPO FM0630 24015G26KT 5000 TSRA", "speci": null, "taf": "TAF VVTS 142300Z 1500/1606 25008KT 9999 SCT017 SCT040 TEMPO 1506/1511 24015G28KT 2500 +TSRA SCT015 SCT017CB BKN040", "raw": "METAR VVTS 150530Z 23012KT 200V260 9999 SCT023 FEW025CB BKN044 34/25 Q1010 TEMPO FM0630 24015G26KT 5000 TSRA", "fltcat": "VFR", "wind": "230° @ 12 kt", "vis": ">10 km", "clouds": "SCT023 FEW025 BKN044", "temp": 34, "dewp": 25, "qnh": "1010 hPa", "atis": [{"kind": "ARR", "time": "2026-07-15 04:19 UTC", "text": "VVTS ARR ATIS W 0401Z VVTS INFO W 0401Z. ILSW APCH IN RWY 25R.. LDG RWY 25R AND DEP RWY 25L.. 0401Z. WIND RWY 25R TDZ VRB5KT VIS 10KM CLD BKN 3400FT T33 DP25 QNH 1009HPA TREND NOSIG. ADZ ON INITIAL CTC YOU HAVE INFO W."}, {"kind": "DEP", "time": "2026-07-15 05:49 UTC", "text": "VVTS DEP ATIS X 0431Z VVTS INFO X 0431Z. ILSW APCH IN RWY 25R.. LDG RWY 25R AND DEP RWY 25L.. 0431Z. WIND RWY 25R TDZ VRB6KT VIS 10KM FEW 4000FT SCT 4500FT T33 DP27 QNH 1008HPA TREND NOSIG. ADZ ON INITIAL CTC YOU HAVE INFO X."}]}, {"icao": "VVTX", "name": "Tho Xuan — Thanh Hoa", "metar": "METAR VVTX 150530Z 14004KT CAVOK 35/22 Q1002 NOSIG", "speci": null, "taf": "TAF VVTX 150200Z 1503/1512 24006KT 9999 FEW030", "raw": "METAR VVTX 150530Z 14004KT CAVOK 35/22 Q1002 NOSIG", "fltcat": "VFR", "wind": "140° @ 4 kt", "vis": "CAVOK", "clouds": "NSC", "temp": 35, "dewp": 22, "qnh": "1002 hPa"}, {"icao": "VVVD", "name": "Van Don — Quang Ninh", "metar": "METAR VVVD 150530Z VRB01KT 9999 FEW017 BKN033 31/29 Q1003 NOSIG", "speci": null, "taf": "TAF VVVD 142300Z 1500/1524 14005KT 9999 FEW025 TEMPO 1500/1503 4000 SHRA SCT015 FEW027CB", "raw": "METAR VVVD 150530Z VRB01KT 9999 FEW017 BKN033 31/29 Q1003 NOSIG", "fltcat": "VFR", "wind": "VRB @ 1 kt", "vis": ">10 km", "clouds": "FEW017 BKN033", "temp": 31, "dewp": 29, "qnh": "1003 hPa"}, {"icao": "VVVH", "name": "Vinh", "metar": "METAR VVVH 150530Z 23009KT 180V270 CAVOK 33/22 Q1003 NOSIG", "speci": null, "taf": "TAF VVVH 142300Z 1500/1524 26005KT 9999 FEW025", "raw": "METAR VVVH 150530Z 23009KT 180V270 CAVOK 33/22 Q1003 NOSIG", "fltcat": "VFR", "wind": "230° @ 9 kt", "vis": "CAVOK", "clouds": "NSC", "temp": 33, "dewp": 22, "qnh": "1003 hPa"}]}