{"updated": "2026-07-11T10:32:52+00:00", "source": "VN MET", "stations": [{"icao": "VVBM", "name": "Buon Ma Thuot", "metar": "METAR VVBM 111030Z 25003KT 210V280 9999 SCT013 BKN040 24/23 Q1006 NOSIG", "speci": null, "taf": "TAF VVBM 102300Z 1100/1124 25008KT 9999 SCT013 TEMPO 1108/1112 5000 TSRA BKN010 FEW013CB BKN040", "raw": "METAR VVBM 111030Z 25003KT 210V280 9999 SCT013 BKN040 24/23 Q1006 NOSIG", "fltcat": "VFR", "wind": "250° @ 3 kt", "vis": ">10 km", "clouds": "SCT013 BKN040", "temp": 24, "dewp": 23, "qnh": "1006 hPa"}, {"icao": "VVCA", "name": "Chu Lai", "metar": "METAR VVCA 111030Z 30006KT 270V330 9999 FEW020CB BKN070 34/23 Q0998 NOSIG", "speci": null, "taf": "TAF VVCA 110800Z 1109/1118 08007KT 9999 FEW020 BKN060", "raw": "METAR VVCA 111030Z 30006KT 270V330 9999 FEW020CB BKN070 34/23 Q0998 NOSIG", "fltcat": "VFR", "wind": "300° @ 6 kt", "vis": ">10 km", "clouds": "FEW020 BKN070", "temp": 34, "dewp": 23, "qnh": "998 hPa"}, {"icao": "VVCI", "name": "Cat Bi — Hai Phong", "metar": "METAR VVCI 111000Z 13005KT 100V170 9999 FEW038 SCT049 30/27 Q0996 NOSIG", "speci": null, "taf": "TAF VVCI 102300Z 1100/1124 16005KT 9000 FEW025 TEMPO 1100/1104 4000 SHRA SCT012 FEW025TCU TEMPO 1108/1112 2500 +TSRA BKN010 FEW027CB", "raw": "METAR VVCI 111000Z 13005KT 100V170 9999 FEW038 SCT049 30/27 Q0996 NOSIG", "fltcat": "VFR", "wind": "130° @ 5 kt", "vis": ">10 km", "clouds": "FEW038 SCT049", "temp": 30, "dewp": 27, "qnh": "996 hPa"}, {"icao": "VVCR", "name": "Cam Ranh — Nha Trang", "metar": "METAR VVCR 111030Z 18012KT 9999 FEW020 32/26 Q1003 NOSIG", "speci": null, "taf": "TAF VVCR 102300Z 1100/1124 22012KT 9999 FEW020", "raw": "METAR VVCR 111030Z 18012KT 9999 FEW020 32/26 Q1003 NOSIG", "fltcat": "VFR", "wind": "180° @ 12 kt", "vis": ">10 km", "clouds": "FEW020", "temp": 32, "dewp": 26, "qnh": "1003 hPa", "atis": [{"kind": "ARR", "time": "2026-07-10 21:26 UTC", "text": "VVCR ARR ATIS J 1800Z VVCR INFO J 1800Z. ILS YANKEE APPROACH IN USE. LDG RWY 20L AND DPTG RWY 20R.. 1800Z. WIND RWY 20L TDZ 230/3KT MID 230/4KT END 260/4KT RWY 20R TDZ 210/3KT CAVOK T29 DP25 QNH 1011HPA TREND NOSIG. ADZ ON INITIAL CTC YOU HAVE INFO J."}, {"kind": "DEP", "time": "2026-05-29 05:57 UTC", "text": "VVCR DEP ATIS S 0533Z VVCR INFO S 0533Z. ILS Z APCH IN USE.. LDG RWY 02R AND DPTG RWY 02L.. 0532Z. WIND RWY 02R TDZ 080/9KT MID 090/8KT END 100/8KT RWY 02L TDZ 080/8KT CAVOK T31 DP26 QNH 1009HPA TREND TEMPO FM0630 VIS 4000M MOD TSRA. ADZ ON INITIAL CTC YOU HAVE INFO S."}]}, {"icao": "VVCS", "name": "Con Dao", "metar": "METAR VVCS 111030Z 26011G25KT 210V320 9999 FEW017 29/24 Q1005 NOSIG", "speci": null, "taf": "TAF VVCS 102300Z 1100/1109 26012KT 9999 SCT017 TEMPO 1102/1107 26015G26KT 5000 TSRA BKN015 FEW017CB", "raw": "METAR VVCS 111030Z 26011G25KT 210V320 9999 FEW017 29/24 Q1005 NOSIG", "fltcat": "VFR", "wind": "260° @ 11 kt G25", "vis": ">10 km", "clouds": "FEW017", "temp": 29, "dewp": 24, "qnh": "1005 hPa"}, {"icao": "VVCT", "name": "Can Tho Intl", "metar": "METAR VVCT 111030Z 26009G20KT 230V310 9999 SCT015 30/25 Q1004 NOSIG", "speci": null, "taf": "TAF VVCT 102300Z 1100/1124 21008KT 9999 SCT015 TEMPO 1107/1112 5000 TSRA BKN013 FEW015CB", "raw": "METAR VVCT 111030Z 26009G20KT 230V310 9999 SCT015 30/25 Q1004 NOSIG", "fltcat": "VFR", "wind": "260° @ 9 kt G20", "vis": ">10 km", "clouds": "SCT015", "temp": 30, "dewp": 25, "qnh": "1004 hPa"}, {"icao": "VVDB", "name": "Dien Bien Phu", "metar": "METAR VVDB 111030Z 08006KT 9999 -RA FEW020TCU SCT037 27/26 Q0999 TEMPO 4000 SHRA", "speci": null, "taf": "TAF AMD VVDB 110925Z 1110/1115 21005KT 9999 SCT025 TEMPO 1110/1113 3000 TSRA SCT010 FEW027CB", "raw": "METAR VVDB 111030Z 08006KT 9999 -RA FEW020TCU SCT037 27/26 Q0999 TEMPO 4000 SHRA", "fltcat": "VFR", "wind": "080° @ 6 kt", "vis": ">10 km", "clouds": "FEW020 SCT037", "temp": 27, "dewp": 26, "qnh": "999 hPa"}, {"icao": "VVDH", "name": "Dong Hoi", "metar": "METAR VVDH 110930Z 25010KT 220V290 CAVOK 32/23 Q0998 NOSIG", "speci": null, "taf": "TAF VVDH 102300Z 1100/1109 24010KT 9999 FEW030 TEMPO 1100/1105 26015G25KT", "raw": "METAR VVDH 110930Z 25010KT 220V290 CAVOK 32/23 Q0998 NOSIG", "fltcat": "VFR", "wind": "250° @ 10 kt", "vis": "CAVOK", "clouds": "NSC", "temp": 32, "dewp": 23, "qnh": "998 hPa"}, {"icao": "VVDN", "name": "Da Nang Intl", "metar": "METAR VVDN 111030Z 11006KT 070V140 9999 FEW020 SCT070 32/24 Q0999 NOSIG", "speci": null, "taf": "TAF VVDN 102300Z 1100/1124 23010KT 9999 FEW020 SCT060", "raw": "METAR VVDN 111030Z 11006KT 070V140 9999 FEW020 SCT070 32/24 Q0999 NOSIG", "fltcat": "VFR", "wind": "110° @ 6 kt", "vis": ">10 km", "clouds": "FEW020 SCT070", "temp": 32, "dewp": 24, "qnh": "999 hPa", "atis": [{"kind": "ARR", "time": "2026-07-11 09:46 UTC", "text": "VVDN ARR ATIS B 2302Z VVDN INFO B 2302Z. ILS VICTOR APPROACH 35L.. DPTG RWY 35R.. 2302Z. WIND 230/03KT CAVOK T27 DP24 QNH 1009HPA TREND NOSIG. ADZ ON INITIAL CTC YOU HAVE INFO. B."}, {"kind": "DEP", "time": "2026-07-09 06:26 UTC", "text": "VVDN DEP ATIS R 0503Z VVDN INFO R 0503Z. ILS VICTOR APPROACH 35L.. DPTG RWY 35R.. 0502Z. WIND 090/05KT VRB BTN 070/ AND 140/ CAVOK T37 DP23 QNH 1007HPA TREND NOSIG. ADZ ON INITIAL CTC YOU HAVE INFO. R."}]}, {"icao": "VVNB", "name": "Noi Bai — Ha Noi", "metar": "METAR VVNB 111000Z 22006KT 9999 VCTS FEW030CB SCT055 29/26 Q0996 NOSIG", "speci": "SPECI VVNB 111019Z 29004KT 250V330 CAVOK 29/26 Q0996 NOSIG", "taf": "TAF VVNB 102300Z 1100/1124 17005KT 9000 SCT025 TEMPO 1100/1103 3500 SHRA BKN012 FEW025TCU TEMPO 1107/1112 2500 +TSRA BKN010 FEW027CB", "raw": "SPECI VVNB 111019Z 29004KT 250V330 CAVOK 29/26 Q0996 NOSIG", "fltcat": "VFR", "wind": "290° @ 4 kt", "vis": "CAVOK", "clouds": "NSC", "temp": 29, "dewp": 26, "qnh": "996 hPa", "atis": [{"kind": "ARR", "time": "2026-07-11 10:00 UTC", "text": "VVNB ARR ATIS K 2300Z VVNB INFO K 2300Z. ILS X RWY 11L. DPTG RWY 11R AND ARR RWY 11L .. 2300Z. WIND 070/5KT VIS 9KM CLD NSC T26 DP26 QNH 1006HPA TREND NOSIG. ADZ ON INITIAL CTC YOU HAVE INFO K."}, {"kind": "DEP", "time": "2026-07-11 04:33 UTC", "text": "VVNB DEP ATIS E 2040Z VVNB INFO E 2040Z. ILS W RWY 29L .. DEP 29L AND ARR 29L.. 2031Z. WIND 070/4KT VIS 10KM CLD 1600FT T26 DP25 QNH 1006HPA TREND NOSIG. ADZ ON INITIAL CTC YOU HAVE INFO E."}]}, {"icao": "VVPB", "name": "Phu Bai — Hue", "metar": "METAR VVPB 111030Z 27011KT 9999 FEW020 SCT070 32/20 Q0999 NOSIG", "speci": null, "taf": "TAF VVPB 102300Z 1100/1124 27011KT 9999 FEW020 SCT070", "raw": "METAR VVPB 111030Z 27011KT 9999 FEW020 SCT070 32/20 Q0999 NOSIG", "fltcat": "VFR", "wind": "270° @ 11 kt", "vis": ">10 km", "clouds": "FEW020 SCT070", "temp": 32, "dewp": 20, "qnh": "999 hPa"}, {"icao": "VVPC", "name": "Phu Cat — Quy Nhon", "metar": "METAR VVPC 111030Z 24011KT 9999 FEW025 BKN080 31/22 Q1001 NOSIG", "speci": null, "taf": "TAF VVPC 102300Z 1100/1124 24012KT 9999 FEW020 SCT060 TEMPO 1100/1109 25015G27KT", "raw": "METAR VVPC 111030Z 24011KT 9999 FEW025 BKN080 31/22 Q1001 NOSIG", "fltcat": "VFR", "wind": "240° @ 11 kt", "vis": ">10 km", "clouds": "FEW025 BKN080", "temp": 31, "dewp": 22, "qnh": "1001 hPa"}, {"icao": "VVPK", "name": "Pleiku", "metar": "METAR VVPK 111030Z 26013KT 230V300 5000 SHRA BKN006 SCT017TCU 22/21 Q1007 TEMPO 3000 SHRA", "speci": null, "taf": "TAF AMD VVPK 110900Z 1109/1206 26015G25KT 1400 +SHRA BKN005 SCT015CB BKN030 BECMG 1109/1110 26010KT 7000 NSW SCT010 BKN040 TEMPO 1110/1112 27015G25KT 2500 +SHRA BKN007 SCT015CB BKN030 TEMPO 1112/1114 4000 SHRA BKN008 FEW015CB BKN040 TEMPO 1122/1203 26015G25KT 3500 RA BR BKN005 BKN010 TEMPO 1203/1206 27016G26KT", "raw": "METAR VVPK 111030Z 26013KT 230V300 5000 SHRA BKN006 SCT017TCU 22/21 Q1007 TEMPO 3000 SHRA", "fltcat": "IFR", "wind": "260° @ 13 kt", "vis": "5.0 km", "clouds": "BKN006 SCT017", "temp": 22, "dewp": 21, "qnh": "1007 hPa"}, {"icao": "VVPQ", "name": "Phu Quoc Intl", "metar": "METAR VVPQ 111030Z 27015KT 9999 SCT015 31/28 Q1005 NOSIG", "speci": null, "taf": "TAF VVPQ 102300Z 1100/1124 27013KT 9999 SCT015 TEMPO 1106/1109 5000 TSRA BKN015 FEW017CB", "raw": "METAR VVPQ 111030Z 27015KT 9999 SCT015 31/28 Q1005 NOSIG", "fltcat": "VFR", "wind": "270° @ 15 kt", "vis": ">10 km", "clouds": "SCT015", "temp": 31, "dewp": 28, "qnh": "1005 hPa"}, {"icao": "VVRG", "name": "Rach Gia", "metar": "METAR VVRG 111030Z 25013KT 230V290 9999 SCT020 30/25 Q1005 TEMPO 25016G26KT", "speci": null, "taf": "TAF VVRG 102300Z 1100/1109 25008KT 9999 SCT015 TEMPO 1106/1109 5000 TSRA BKN015 FEW017CB", "raw": "METAR VVRG 111030Z 25013KT 230V290 9999 SCT020 30/25 Q1005 TEMPO 25016G26KT", "fltcat": "VFR", "wind": "250° @ 13 kt", "vis": ">10 km", "clouds": "SCT020", "temp": 30, "dewp": 25, "qnh": "1005 hPa"}, {"icao": "VVTH", "name": "Dong Tac — Tuy Hoa", "metar": "METAR VVTH 111030Z 24009KT 9999 FEW023 BKN060 27/23 Q1003 TEMPO 4000 SHRA", "speci": null, "taf": "TAF AMD VVTH 110930Z 1110/1118 26012KT 9999 FEW020 BKN070 TEMPO 1110/1111 26015G25KT 2500 +SHRA BKN010 SCT015CB BKN040 TEMPO 1111/1113 26015G25KT 4000 SHRA BKN013 FEW015CB BKN050", "raw": "METAR VVTH 111030Z 24009KT 9999 FEW023 BKN060 27/23 Q1003 TEMPO 4000 SHRA", "fltcat": "VFR", "wind": "240° @ 9 kt", "vis": ">10 km", "clouds": "FEW023 BKN060", "temp": 27, "dewp": 23, "qnh": "1003 hPa"}, {"icao": "VVTS", "name": "Tan Son Nhat — Ho Chi Minh City", "metar": "METAR VVTS 111000Z 24017KT 9999 SCT025 BKN045 33/25 Q1003 NOSIG", "speci": null, "taf": "TAF VVTS 102300Z 1100/1206 24012KT 9999 SCT017 TEMPO 1103/1107 24015G25KT TEMPO 1107/1111 24016G28KT 5000 TSRA BKN015 FEW017CB", "raw": "METAR VVTS 111000Z 24017KT 9999 SCT025 BKN045 33/25 Q1003 NOSIG", "fltcat": "VFR", "wind": "240° @ 17 kt", "vis": ">10 km", "clouds": "SCT025 BKN045", "temp": 33, "dewp": 25, "qnh": "1003 hPa", "atis": [{"kind": "ARR", "time": "2026-07-11 07:01 UTC", "text": "VVTS ARR ATIS I 2200Z VVTS INFO I 2200Z. ILSW APCH IN RWY 25R.. LDG RWY 25R AND DEP RWY 25L.. 2200Z. WIND RWY 25R TDZ 250/6KT VIS 10KM CLD BKN 1700FT OVC 2100FT T28 DP26 QNH 1010HPA TREND NOSIG. ADZ ON INITIAL CTC YOU HAVE INFO I."}, {"kind": "DEP", "time": "2026-07-10 22:52 UTC", "text": "VVTS DEP ATIS Z 1835Z VVTS INFO Z 1835Z. ILSW APCH IN RWY 25R.. LDG RWY 25R AND DEP RWY 25L.. 1830Z. WIND RWY 25L TDZ 200/5KT MID 200/6KT END 200/4KT MAX10 MNM2 VRB BTN 160/ AND 300/ RWY 25R TDZ 200/5KT END 200/6KT MAX12 MNM4 VRB BTN 180/ AND 270/ VIS RWY 25L TDZ 10KM MID 10KM END 10KM RWY 25R TDZ 10KM MID 10KM END 10KM CLD RWY 25L SCT 3500FT RWY 25R FEW 3500FT T29 DP26 QNH 1010HPA TREND NOSIG. ADZ ON INITIAL CTC YOU HAVE INFO Z."}]}, {"icao": "VVTX", "name": "Tho Xuan — Thanh Hoa", "metar": "METAR VVTX 111030Z 18006KT 2000 +TSRA FEW027CB BKN030 26/25 Q0997 BECMG TL1100 4000 TSRA", "speci": null, "taf": "TAF VVTX 110800Z 1109/1118 29008KT 9999 SCT025 TEMPO 1109/1113 3000 TSRA BKN012 FEW027CB", "raw": "METAR VVTX 111030Z 18006KT 2000 +TSRA FEW027CB BKN030 26/25 Q0997 BECMG TL1100 4000 TSRA", "fltcat": "IFR", "wind": "180° @ 6 kt", "vis": "2.0 km", "clouds": "FEW027 BKN030", "temp": 26, "dewp": 25, "qnh": "997 hPa"}, {"icao": "VVVD", "name": "Van Don — Quang Ninh", "metar": "METAR VVVD 111030Z AUTO VRB02KT 9999 NCD 30/27 Q0997", "speci": null, "taf": "TAF VVVD 102300Z 1100/1124 12005KT 9000 FEW020 TEMPO 1100/1102 3500 SHRA SCT012 FEW025TCU TEMPO 1108/1112 2500 +TSRA BKN010 FEW027CB", "raw": "METAR VVVD 111030Z AUTO VRB02KT 9999 NCD 30/27 Q0997", "fltcat": "VFR", "wind": "VRB @ 2 kt", "vis": ">10 km", "clouds": "—", "temp": 30, "dewp": 27, "qnh": "997 hPa"}, {"icao": "VVVH", "name": "Vinh", "metar": "METAR VVVH 111030Z 24005KT 190V290 CAVOK 31/22 Q0997 NOSIG", "speci": null, "taf": "TAF VVVH 102300Z 1100/1124 24005KT 9999 FEW025", "raw": "METAR VVVH 111030Z 24005KT 190V290 CAVOK 31/22 Q0997 NOSIG", "fltcat": "VFR", "wind": "240° @ 5 kt", "vis": "CAVOK", "clouds": "NSC", "temp": 31, "dewp": 22, "qnh": "997 hPa"}]}