{"updated": "2026-07-15T20:11:04+00:00", "source": "VN MET", "stations": [{"icao": "VVBM", "name": "Buon Ma Thuot", "metar": "METAR VVBM 152000Z VRB02KT 9999 BKN013 22/21 Q1013 NOSIG", "speci": null, "taf": "TAF VVBM 142300Z 1500/1524 24008KT 9999 BKN015 BKN040 TEMPO 1506/1510 26015G26KT 3000 TSRA BKN010 FEW013CB BKN030", "raw": "METAR VVBM 152000Z VRB02KT 9999 BKN013 22/21 Q1013 NOSIG", "fltcat": "MVFR", "wind": "VRB @ 2 kt", "vis": ">10 km", "clouds": "BKN013", "temp": 22, "dewp": 21, "qnh": "1013 hPa"}, {"icao": "VVCA", "name": "Chu Lai", "metar": "METAR VVCA 152000Z AUTO VRB02KT 9999 BKN150/// 28/27 Q1005 REDZ", "speci": null, "taf": "TAF VVCA 142300Z 1500/1509 16008KT 9999 FEW020 BKN060", "raw": "METAR VVCA 152000Z AUTO VRB02KT 9999 BKN150/// 28/27 Q1005 REDZ", "fltcat": "VFR", "wind": "VRB @ 2 kt", "vis": ">10 km", "clouds": "BKN150", "temp": 28, "dewp": 27, "qnh": "1005 hPa"}, {"icao": "VVCI", "name": "Cat Bi — Hai Phong", "metar": "METAR VVCI 152000Z 13003KT CAVOK 30/27 Q1001 NOSIG", "speci": null, "taf": "TAF VVCI 151700Z 1518/1618 14005KT 9999 FEW030 TEMPO 1521/1524 4000 SHRA SCT015 FEW027TCU", "raw": "METAR VVCI 152000Z 13003KT CAVOK 30/27 Q1001 NOSIG", "fltcat": "VFR", "wind": "130° @ 3 kt", "vis": "CAVOK", "clouds": "NSC", "temp": 30, "dewp": 27, "qnh": "1001 hPa"}, {"icao": "VVCR", "name": "Cam Ranh — Nha Trang", "metar": "METAR VVCR 152000Z VRB02KT CAVOK 28/25 Q1009 NOSIG", "speci": null, "taf": "TAF VVCR 151700Z 1518/1618 20009KT 9999 FEW020 BECMG 1604/1605 14010KT TEMPO 1609/1612 TS SCT013 FEW015CB", "raw": "METAR VVCR 152000Z VRB02KT CAVOK 28/25 Q1009 NOSIG", "fltcat": "VFR", "wind": "VRB @ 2 kt", "vis": "CAVOK", "clouds": "NSC", "temp": 28, "dewp": 25, "qnh": "1009 hPa", "atis": [{"kind": "ARR", "time": "2026-07-13 09:29 UTC", "text": "VVCR ARR ATIS W 1330Z VVCR INFO W 1330Z. ILS YANKEE APPROACH IN USE. LDG RWY 20L AND DPTG RWY 20R.. 1330Z. WIND RWY 20L TDZ 330/3KT VRB BTN 260/ AND 360/ MID 310/3KT VRB BTN 280/ AND 340/ END 320/3KT RWY 20R TDZ 320/1KT CAVOK T29 DP25 QNH 1010HPA TREND NOSIG. ADZ ON INITIAL CTC YOU HAVE INFO W."}, {"kind": "DEP", "time": "2026-05-29 05:57 UTC", "text": "VVCR DEP ATIS S 0533Z VVCR INFO S 0533Z. ILS Z APCH IN USE.. LDG RWY 02R AND DPTG RWY 02L.. 0532Z. WIND RWY 02R TDZ 080/9KT MID 090/8KT END 100/8KT RWY 02L TDZ 080/8KT CAVOK T31 DP26 QNH 1009HPA TREND TEMPO FM0630 VIS 4000M MOD TSRA. ADZ ON INITIAL CTC YOU HAVE INFO S."}]}, {"icao": "VVCT", "name": "Can Tho Intl", "metar": "METAR VVCT 152000Z VRB01KT 9999 SCT013 BKN040 24/24 Q1011 NOSIG", "speci": null, "taf": "TAF VVCT 151700Z 1518/1618 VRB03KT 9999 SCT015 SCT040 BECMG 1521/1522 5000 BR BECMG 1601/1602 24010KT 9999 NSW TEMPO 1604/1608 25015G26KT 4000 TSRA BKN015 FEW017CB", "raw": "METAR VVCT 152000Z VRB01KT 9999 SCT013 BKN040 24/24 Q1011 NOSIG", "fltcat": "VFR", "wind": "VRB @ 1 kt", "vis": ">10 km", "clouds": "SCT013 BKN040", "temp": 24, "dewp": 24, "qnh": "1011 hPa"}, {"icao": "VVDB", "name": "Dien Bien Phu", "metar": "METAR VVDB 152000Z AUTO 28003KT 220V340 9999 // FEW031/// SCT043/// OVC052/// 26/25 Q1006 RE//", "speci": null, "taf": "TAF VVDB 142300Z 1500/1509 VRB02KT 9999 FEW025 TEMPO 1500/1503 3500 SHRA SCT010 FEW020TCU", "raw": "METAR VVDB 152000Z AUTO 28003KT 220V340 9999 // FEW031/// SCT043/// OVC052/// 26/25 Q1006 RE//", "fltcat": "VFR", "wind": "280° @ 3 kt", "vis": ">10 km", "clouds": "FEW031 SCT043 OVC052", "temp": 26, "dewp": 25, "qnh": "1006 hPa"}, {"icao": "VVDH", "name": "Dong Hoi", "metar": "METAR VVDH 152000Z AUTO VRB02KT 9999 BKN100/// BKN120/// BKN140/// 30/24 Q1004", "speci": null, "taf": "TAF VVDH 142300Z 1500/1509 24005KT 9999 FEW030", "raw": "METAR VVDH 152000Z AUTO VRB02KT 9999 BKN100/// BKN120/// BKN140/// 30/24 Q1004", "fltcat": "VFR", "wind": "VRB @ 2 kt", "vis": ">10 km", "clouds": "BKN100 BKN120 BKN140", "temp": 30, "dewp": 24, "qnh": "1004 hPa"}, {"icao": "VVDN", "name": "Da Nang Intl", "metar": "METAR VVDN 152000Z 22006KT 9999 FEW020 BKN070 30/22 Q1006 NOSIG", "speci": null, "taf": "TAF VVDN 151700Z 1518/1618 24007KT 9999 FEW020 BECMG 1606/1607 01010KT BECMG 1611/1612 22007KT", "raw": "METAR VVDN 152000Z 22006KT 9999 FEW020 BKN070 30/22 Q1006 NOSIG", "fltcat": "VFR", "wind": "220° @ 6 kt", "vis": ">10 km", "clouds": "FEW020 BKN070", "temp": 30, "dewp": 22, "qnh": "1006 hPa", "atis": [{"kind": "ARR", "time": "2026-07-15 16:16 UTC", "text": "VVDN ARR ATIS R 0732Z VVDN INFO R 0732Z. ILS VICTOR APPROACH 35L.. DPTG RWY 35R.. 0732Z. WIND 070/07KT CAVOK T35 DP25 QNH 1004HPA TREND NOSIG. ADZ ON INITIAL CTC YOU HAVE INFO. R."}, {"kind": "DEP", "time": "2026-07-12 02:50 UTC", "text": "VVDN DEP ATIS N 0423Z VVDN INFO N 0423Z. ILS VICTOR APPROACH 35L.. DPTG RWY 35R.. 0423Z. WIND 010/02KT CAVOK T36 DP24 QNH 1008HPA TREND NOSIG. WS ALL RWY. ADZ ON INITIAL CTC YOU HAVE INFO. N."}]}, {"icao": "VVNB", "name": "Noi Bai — Ha Noi", "metar": "METAR VVNB 152000Z 06004KT CAVOK 29/28 Q1001 NOSIG", "speci": null, "taf": "TAF VVNB 151700Z 1518/1618 08005KT 9999 FEW025 TEMPO 1610/1613 4000 TSRA SCT015 FEW027CB", "raw": "METAR VVNB 152000Z 06004KT CAVOK 29/28 Q1001 NOSIG", "fltcat": "VFR", "wind": "060° @ 4 kt", "vis": "CAVOK", "clouds": "NSC", "temp": 29, "dewp": 28, "qnh": "1001 hPa", "atis": [{"kind": "ARR", "time": "2026-07-15 17:50 UTC", "text": "VVNB ARR ATIS E 0800Z VVNB INFO E 0800Z. ILS X RWY 11L. DPTG RWY 11R AND ARR RWY 11L .. 0800Z. WIND 180/5KT CAVOK T34 DP25 QNH 1002HPA TREND NOSIG. ADZ ON INITIAL CTC YOU HAVE INFO E."}, {"kind": "DEP", "time": "2026-07-15 12:13 UTC", "text": "VVNB DEP ATIS B 0630Z VVNB INFO B 0630Z. ILS X RWY 11L. DPTG RWY 11R AND ARR RWY 11L .. 0630Z. WIND 180/7KT CAVOK T33 DP26 QNH 1003HPA TREND NOSIG. ADZ ON INITIAL CTC YOU HAVE INFO B."}]}, {"icao": "VVPB", "name": "Phu Bai — Hue", "metar": "METAR VVPB 152000Z 24003KT 9999 FEW020 30/21 Q1005 NOSIG", "speci": null, "taf": "TAF VVPB 151700Z 1518/1618 22005KT 9999 FEW020 BECMG 1605/1606 08010KT BECMG 1612/1613 22004KT", "raw": "METAR VVPB 152000Z 24003KT 9999 FEW020 30/21 Q1005 NOSIG", "fltcat": "VFR", "wind": "240° @ 3 kt", "vis": ">10 km", "clouds": "FEW020", "temp": 30, "dewp": 21, "qnh": "1005 hPa"}, {"icao": "VVPC", "name": "Phu Cat — Quy Nhon", "metar": "METAR VVPC 152000Z AUTO 26003KT 9999 OVC170/// 28/22 Q1007", "speci": null, "taf": "TAF VVPC 151700Z 1518/1618 24008KT 9999 FEW020", "raw": "METAR VVPC 152000Z AUTO 26003KT 9999 OVC170/// 28/22 Q1007", "fltcat": "VFR", "wind": "260° @ 3 kt", "vis": ">10 km", "clouds": "OVC170", "temp": 28, "dewp": 22, "qnh": "1007 hPa"}, {"icao": "VVPK", "name": "Pleiku", "metar": "METAR VVPK 152000Z AUTO 29007KT 9999 VV002 21/20 Q1015 RERA", "speci": null, "taf": "TAF VVPK 151700Z 1518/1618 26007KT 8000 BKN012 TEMPO 1522/1524 2000 RA BR BKN002 BKN004 TEMPO 1600/1603 4000 RA BR BKN004 BKN008 TEMPO 1608/1613 27015G25KT 4000 TSRA BKN008 FEW015CB BKN040", "raw": "METAR VVPK 152000Z AUTO 29007KT 9999 VV002 21/20 Q1015 RERA", "fltcat": "LIFR", "wind": "290° @ 7 kt", "vis": ">10 km", "clouds": "VV002", "temp": 21, "dewp": 20, "qnh": "1015 hPa"}, {"icao": "VVPQ", "name": "Phu Quoc Intl", "metar": "METAR VVPQ 152000Z 25012KT 9999 SCT015 SCT040 25/25 Q1011 NOSIG", "speci": null, "taf": "TAF VVPQ 151700Z 1518/1618 VRB03KT 9999 SCT017 SCT040 BECMG 1601/1602 23010KT TEMPO 1602/1606 5000 TSRA BKN015 FEW017CB", "raw": "METAR VVPQ 152000Z 25012KT 9999 SCT015 SCT040 25/25 Q1011 NOSIG", "fltcat": "VFR", "wind": "250° @ 12 kt", "vis": ">10 km", "clouds": "SCT015 SCT040", "temp": 25, "dewp": 25, "qnh": "1011 hPa"}, {"icao": "VVTH", "name": "Dong Tac — Tuy Hoa", "metar": "METAR VVTH 152000Z AUTO 24013KT 200V270 CAVOK 27/22 Q1008", "speci": null, "taf": "TAF VVTH 142300Z 1500/1509 24012KT 9999 FEW020", "raw": "METAR VVTH 152000Z AUTO 24013KT 200V270 CAVOK 27/22 Q1008", "fltcat": "VFR", "wind": "240° @ 13 kt", "vis": "CAVOK", "clouds": "NSC", "temp": 27, "dewp": 22, "qnh": "1008 hPa"}, {"icao": "VVTS", "name": "Tan Son Nhat — Ho Chi Minh City", "metar": "METAR VVTS 152000Z 28003KT CAVOK 25/24 Q1011 NOSIG", "speci": null, "taf": "TAF VVTS 151700Z 1518/1624 23008KT 9999 SCT017 SCT040 TEMPO 1606/1609 23015G26KT 2000 +TSRA SCT013 SCT015CB BKN040 TEMPO 1609/1612 5000 SHRA SCT015 FEW017CB BKN040", "raw": "METAR VVTS 152000Z 28003KT CAVOK 25/24 Q1011 NOSIG", "fltcat": "VFR", "wind": "280° @ 3 kt", "vis": "CAVOK", "clouds": "NSC", "temp": 25, "dewp": 24, "qnh": "1011 hPa", "atis": [{"kind": "ARR", "time": "2026-07-15 18:34 UTC", "text": "VVTS ARR ATIS F 0830Z VVTS INFO F 0830Z. ILSW APCH IN RWY 25R.. LDG RWY 25R AND DEP RWY 25L.. 0830Z. WIND RWY 25R TDZ 300/6KT MAX13 MNM4 VRB BTN 240/ AND 330/ VIS 10KM CLD RWY 25R FEW 4900FT T35 DP25 QNH 1005HPA TREND TEMPO FM0945 280/16KT MAX28 VIS 3000M MOD TSRA CLD BKN 1500FT FEW CB 1700FT. ADZ ON INITIAL CTC YOU HAVE INFO F."}, {"kind": "DEP", "time": "2026-07-15 17:12 UTC", "text": "VVTS DEP ATIS E 0800Z VVTS INFO E 0800Z. ILSW APCH IN RWY 25R.. LDG RWY 25R AND DEP RWY 25L.. 0800Z. WIND RWY 25R TDZ 290/9KT VRB BTN 240/ AND 330/ VIS 10KM CLD FEW 4800FT T35 DP25 QNH 1006HPA TREND TEMPO FM0945 280/16KT MAX28 VIS 3000M MOD TSRA CLD BKN 1500FT FEW CB 1700FT. ADZ ON INITIAL CTC YOU HAVE INFO E."}]}, {"icao": "VVTX", "name": "Tho Xuan — Thanh Hoa", "metar": "METAR VVTX 152000Z AUTO 21002KT CAVOK 29/25 Q1001 NOSIG", "speci": null, "taf": "TAF VVTX 142300Z 1500/1509 20005KT 9999 FEW030 TEMPO 1505/1509 3500 SHRA SCT010 FEW020TCU", "raw": "METAR VVTX 152000Z AUTO 21002KT CAVOK 29/25 Q1001 NOSIG", "fltcat": "VFR", "wind": "210° @ 2 kt", "vis": "CAVOK", "clouds": "NSC", "temp": 29, "dewp": 25, "qnh": "1001 hPa"}, {"icao": "VVVD", "name": "Van Don — Quang Ninh", "metar": "METAR VVVD 152000Z AUTO 18003KT 150V210 9999 SCT022/// 29/27 Q1002", "speci": null, "taf": "TAF VVVD 151700Z 1518/1618 16005KT 9999 FEW030 TEMPO 1521/1601 4000 SHRA SCT015 FEW027TCU", "raw": "METAR VVVD 152000Z AUTO 18003KT 150V210 9999 SCT022/// 29/27 Q1002", "fltcat": "VFR", "wind": "180° @ 3 kt", "vis": ">10 km", "clouds": "SCT022", "temp": 29, "dewp": 27, "qnh": "1002 hPa"}, {"icao": "VVVH", "name": "Vinh", "metar": "METAR VVVH 151930Z 21008G18KT 170V250 CAVOK 28/23 Q1003 NOSIG", "speci": null, "taf": "TAF VVVH 142300Z 1500/1524 26005KT 9999 FEW025", "raw": "METAR VVVH 151930Z 21008G18KT 170V250 CAVOK 28/23 Q1003 NOSIG", "fltcat": "VFR", "wind": "210° @ 8 kt G18", "vis": "CAVOK", "clouds": "NSC", "temp": 28, "dewp": 23, "qnh": "1003 hPa"}]}