{"updated": "2026-07-19T20:25:03+00:00", "source": "VN MET", "stations": [{"icao": "VVBM", "name": "Buon Ma Thuot", "metar": "METAR VVBM 192000Z 24002KT 8000 SCT013 23/21 Q1011 NOSIG", "speci": null, "taf": null, "raw": "METAR VVBM 192000Z 24002KT 8000 SCT013 23/21 Q1011 NOSIG", "fltcat": "MVFR", "wind": "240° @ 2 kt", "vis": "8.0 km", "clouds": "SCT013", "temp": 23, "dewp": 21, "qnh": "1011 hPa"}, {"icao": "VVCA", "name": "Chu Lai", "metar": "METAR VVCA 192000Z AUTO VRB01KT 9999 NCD 26/24 Q1005", "speci": null, "taf": "TAF VVCA 182300Z 1900/1909 16008KT 9999 FEW020", "raw": "METAR VVCA 192000Z AUTO VRB01KT 9999 NCD 26/24 Q1005", "fltcat": "VFR", "wind": "VRB @ 1 kt", "vis": ">10 km", "clouds": "—", "temp": 26, "dewp": 24, "qnh": "1005 hPa"}, {"icao": "VVCI", "name": "Cat Bi — Hai Phong", "metar": "METAR VVCI 192000Z 23004KT CAVOK 28/25 Q1002 NOSIG", "speci": null, "taf": "TAF VVCI 191700Z 1918/2018 25005KT 9999 FEW030 TEMPO 1922/2002 4000 SHRA SCT015 FEW025TCU TEMPO 2008/2012 3500 TSRA SCT010 FEW027CB", "raw": "METAR VVCI 192000Z 23004KT CAVOK 28/25 Q1002 NOSIG", "fltcat": "VFR", "wind": "230° @ 4 kt", "vis": "CAVOK", "clouds": "NSC", "temp": 28, "dewp": 25, "qnh": "1002 hPa"}, {"icao": "VVCR", "name": "Cam Ranh — Nha Trang", "metar": "METAR VVCR 192000Z 30003KT 270V330 CAVOK 29/24 Q1008 NOSIG", "speci": null, "taf": "TAF VVCR 191700Z 1918/2018 20008KT 9999 FEW020 BECMG 2003/2004 11010KT BECMG 2012/2013 19008KT", "raw": "METAR VVCR 192000Z 30003KT 270V330 CAVOK 29/24 Q1008 NOSIG", "fltcat": "VFR", "wind": "300° @ 3 kt", "vis": "CAVOK", "clouds": "NSC", "temp": 29, "dewp": 24, "qnh": "1008 hPa", "atis": [{"kind": "ARR", "time": "2026-07-17 14:03 UTC", "text": "VVCR ARR ATIS F 1401Z VVCR INFO F 1401Z. ILS Z APCH IN USE.. LDG RWY 02R AND DPTG RWY 02L.. 1400Z. WIND RWY 02R TDZ 040/3KT MID 340/3KT END 010/6KT RWY 02L TDZ 020/3KT VIS RWY 02R TDZ 10KM END"}, {"kind": "DEP", "time": "2026-05-29 05:57 UTC", "text": "VVCR DEP ATIS S 0533Z VVCR INFO S 0533Z. ILS Z APCH IN USE.. LDG RWY 02R AND DPTG RWY 02L.. 0532Z. WIND RWY 02R TDZ 080/9KT MID 090/8KT END 100/8KT RWY 02L TDZ 080/8KT CAVOK T31 DP26 QNH 1009HPA TREND TEMPO FM0630 VIS 4000M MOD TSRA. ADZ ON INITIAL CTC YOU HAVE INFO S."}]}, {"icao": "VVCT", "name": "Can Tho Intl", "metar": "METAR VVCT 192000Z 20003KT CAVOK 26/25 Q1009 NOSIG", "speci": null, "taf": "TAF VVCT 191700Z 1918/2018 23007KT 9999 SCT015 TEMPO 2003/2007 TS SCT015 FEW017CB", "raw": "METAR VVCT 192000Z 20003KT CAVOK 26/25 Q1009 NOSIG", "fltcat": "VFR", "wind": "200° @ 3 kt", "vis": "CAVOK", "clouds": "NSC", "temp": 26, "dewp": 25, "qnh": "1009 hPa"}, {"icao": "VVDB", "name": "Dien Bien Phu", "metar": "METAR VVDB 192000Z AUTO 00000KT 9999 // FEW004/// BKN020/// OVC029/// 24/23 Q1007 RE//", "speci": null, "taf": "TAF VVDB 182300Z 1900/1909 VRB02KT 6000 FEW025 TEMPO 1900/1904 4000 SHRA SCT012 FEW025TCU", "raw": "METAR VVDB 192000Z AUTO 00000KT 9999 // FEW004/// BKN020/// OVC029/// 24/23 Q1007 RE//", "fltcat": "MVFR", "wind": "000° @ 0 kt", "vis": ">10 km", "clouds": "FEW004 BKN020 OVC029", "temp": 24, "dewp": 23, "qnh": "1007 hPa"}, {"icao": "VVDH", "name": "Dong Hoi", "metar": "METAR VVDH 192000Z AUTO VRB01KT 9999 BKN100/// 29/23 Q1005", "speci": null, "taf": "TAF VVDH 182300Z 1900/1909 24008KT 9999 FEW030", "raw": "METAR VVDH 192000Z AUTO VRB01KT 9999 BKN100/// 29/23 Q1005", "fltcat": "VFR", "wind": "VRB @ 1 kt", "vis": ">10 km", "clouds": "BKN100", "temp": 29, "dewp": 23, "qnh": "1005 hPa"}, {"icao": "VVDN", "name": "Da Nang Intl", "metar": "METAR VVDN 192000Z 25002KT 9999 FEW020 28/22 Q1006 NOSIG", "speci": null, "taf": "TAF VVDN 191700Z 1918/2018 24006KT 9999 FEW017 BECMG 2005/2006 01010KT BECMG 2012/2013 22007KT", "raw": "METAR VVDN 192000Z 25002KT 9999 FEW020 28/22 Q1006 NOSIG", "fltcat": "VFR", "wind": "250° @ 2 kt", "vis": ">10 km", "clouds": "FEW020", "temp": 28, "dewp": 22, "qnh": "1006 hPa", "atis": [{"kind": "ARR", "time": "2026-07-19 18:01 UTC", "text": "VVDN ARR ATIS K 1602Z VVDN INFO K 1602Z. ILS VICTOR APPROACH 35L.. DPTG RWY 35R.. 1602Z. WIND 210/04KT CAVOK T30 DP25 QNH 1005HPA TREND NOSIG. ADZ ON INITIAL CTC YOU HAVE INFO. K."}, {"kind": "DEP", "time": "2026-07-19 18:34 UTC", "text": "VVDN DEP ATIS J 1833Z VVDN INFO J 1833Z. ILS VICTOR APPROACH 35L.. DPTG RWY 35R.. 1833Z. WIND 300/02KT CAVOK T30 DP22 QNH 1006HPA TREND NOSIG. ADZ ON INITIAL CTC YOU HAVE INFO. J."}]}, {"icao": "VVNB", "name": "Noi Bai — Ha Noi", "metar": "METAR VVNB 192000Z 26003KT 240V310 CAVOK 27/26 Q1002 NOSIG", "speci": null, "taf": "TAF VVNB 191700Z 1918/2018 28005KT 9999 FEW020 TEMPO 2005/2009 3200 TSRA SCT010 FEW027CB", "raw": "METAR VVNB 192000Z 26003KT 240V310 CAVOK 27/26 Q1002 NOSIG", "fltcat": "VFR", "wind": "260° @ 3 kt", "vis": "CAVOK", "clouds": "NSC", "temp": 27, "dewp": 26, "qnh": "1002 hPa", "atis": [{"kind": "ARR", "time": "2026-07-19 19:51 UTC", "text": "VVNB ARR ATIS X 1700Z VVNB INFO X 1700Z. ILS X RWY 11L. DPTG RWY 11R AND ARR RWY 11L .. 1700Z. WIND 200/5KT CAVOK T33 DP24 QNH 1000HPA TREND NOSIG. ADZ ON INITIAL CTC YOU HAVE INFO X."}, {"kind": "DEP", "time": "2026-07-19 08:39 UTC", "text": "VVNB DEP ATIS P 1300Z VVNB INFO P 1300Z. ILS X RWY 11L. DPTG RWY 11R AND ARR RWY 11L .. 1300Z. WIND 220/6KT VIS 10KM CLD FEW 1200FT T35 DP24 QNH 0999HPA TREND NOSIG. ADZ ON INITIAL CTC YOU HAVE INFO P."}]}, {"icao": "VVPB", "name": "Phu Bai — Hue", "metar": "METAR VVPB 192000Z 20004KT 9999 FEW020 30/19 Q1005 NOSIG", "speci": null, "taf": "TAF VVPB 191700Z 1918/2018 23006KT 9999 FEW020 BECMG 2006/2007 06010KT BECMG 2013/2014 20007KT", "raw": "METAR VVPB 192000Z 20004KT 9999 FEW020 30/19 Q1005 NOSIG", "fltcat": "VFR", "wind": "200° @ 4 kt", "vis": ">10 km", "clouds": "FEW020", "temp": 30, "dewp": 19, "qnh": "1005 hPa"}, {"icao": "VVPC", "name": "Phu Cat — Quy Nhon", "metar": "METAR VVPC 192000Z AUTO 25002KT 9999 NCD 29/23 Q1007", "speci": null, "taf": "TAF VVPC 191700Z 1918/2018 25007KT 9999 FEW020 TEMPO 2004/2009 25015G25KT", "raw": "METAR VVPC 192000Z AUTO 25002KT 9999 NCD 29/23 Q1007", "fltcat": "VFR", "wind": "250° @ 2 kt", "vis": ">10 km", "clouds": "—", "temp": 29, "dewp": 23, "qnh": "1007 hPa"}, {"icao": "VVPK", "name": "Pleiku", "metar": "METAR VVPK 192000Z AUTO 26005KT 230V290 7000 FEW041/// 22/21 Q1013", "speci": null, "taf": "TAF VVPK 191700Z 1918/2018 26007KT 8000 SCT010 TEMPO 1922/1924 2500 RA BR BKN003 BKN006 TEMPO 2000/2002 4000 RA BR BKN005 BKN008", "raw": "METAR VVPK 192000Z AUTO 26005KT 230V290 7000 FEW041/// 22/21 Q1013", "fltcat": "MVFR", "wind": "260° @ 5 kt", "vis": "7.0 km", "clouds": "FEW041", "temp": 22, "dewp": 21, "qnh": "1013 hPa"}, {"icao": "VVPQ", "name": "Phu Quoc Intl", "metar": "METAR VVPQ 192000Z VRB02KT 9999 FEW017 26/26 Q1010 NOSIG", "speci": null, "taf": "TAF VVPQ 191700Z 1918/2018 29007KT 9999 SCT015 TEMPO 2004/2007 TS SCT015 FEW017CB", "raw": "METAR VVPQ 192000Z VRB02KT 9999 FEW017 26/26 Q1010 NOSIG", "fltcat": "VFR", "wind": "VRB @ 2 kt", "vis": ">10 km", "clouds": "FEW017", "temp": 26, "dewp": 26, "qnh": "1010 hPa"}, {"icao": "VVTH", "name": "Dong Tac — Tuy Hoa", "metar": "METAR VVTH 192000Z AUTO 20006KT CAVOK 28/23 Q1007", "speci": null, "taf": "TAF VVTH 182300Z 1900/1909 20010KT 9999 FEW020 TEMPO 1903/1908 24015G25KT", "raw": "METAR VVTH 192000Z AUTO 20006KT CAVOK 28/23 Q1007", "fltcat": "VFR", "wind": "200° @ 6 kt", "vis": "CAVOK", "clouds": "NSC", "temp": 28, "dewp": 23, "qnh": "1007 hPa"}, {"icao": "VVTS", "name": "Tan Son Nhat — Ho Chi Minh City", "metar": "METAR VVTS 192000Z 24008KT CAVOK 28/27 Q1009 NOSIG", "speci": null, "taf": "TAF VVTS 191700Z 1918/2024 23008KT 9999 SCT017", "raw": "METAR VVTS 192000Z 24008KT CAVOK 28/27 Q1009 NOSIG", "fltcat": "VFR", "wind": "240° @ 8 kt", "vis": "CAVOK", "clouds": "NSC", "temp": 28, "dewp": 27, "qnh": "1009 hPa", "atis": [{"kind": "ARR", "time": "2026-07-19 17:26 UTC", "text": "VVTS ARR ATIS R 1600Z VVTS INFO R 1600Z. ILSW APCH IN RWY 25R.. LDG RWY 25R AND DEP RWY 25L.. 1600Z. WIND RWY 25R TDZ 280/6KT CAVOK T28 DP24 QNH 1008HPA TREND NOSIG. ADZ ON INITIAL CTC YOU HAVE INFO R."}, {"kind": "DEP", "time": "2026-07-19 13:16 UTC", "text": "VVTS DEP ATIS O 1430Z VVTS INFO O 1430Z. ILSW APCH IN RWY 25R.. LDG RWY 25R AND DEP RWY 25L.. 1430Z. WIND RWY 25R TDZ 290/5KT END 250/4KT CAVOK T28 DP25 QNH 1009HPA TREND NOSIG. ADZ ON INITIAL CTC YOU HAVE INFO O."}]}, {"icao": "VVTX", "name": "Tho Xuan — Thanh Hoa", "metar": "METAR VVTX 192000Z AUTO 27002KT CAVOK 27/24 Q1002 NOSIG", "speci": null, "taf": "TAF VVTX 182300Z 1900/1909 22005KT 9999 FEW025", "raw": "METAR VVTX 192000Z AUTO 27002KT CAVOK 27/24 Q1002 NOSIG", "fltcat": "VFR", "wind": "270° @ 2 kt", "vis": "CAVOK", "clouds": "NSC", "temp": 27, "dewp": 24, "qnh": "1002 hPa"}, {"icao": "VVVD", "name": "Van Don — Quang Ninh", "metar": "METAR VVVD 192000Z AUTO 33002KT 9999 SCT058/// BKN088/// 28/26 Q1002", "speci": null, "taf": "TAF VVVD 191700Z 1918/2018 VRB02KT 9999 FEW030 TEMPO 1922/2003 4000 SHRA SCT012 FEW022TCU TEMPO 2008/2012 3200 TSRA SCT010 FEW027CB", "raw": "METAR VVVD 192000Z AUTO 33002KT 9999 SCT058/// BKN088/// 28/26 Q1002", "fltcat": "VFR", "wind": "330° @ 2 kt", "vis": ">10 km", "clouds": "SCT058 BKN088", "temp": 28, "dewp": 26, "qnh": "1002 hPa"}, {"icao": "VVVH", "name": "Vinh", "metar": "METAR VVVH 192000Z 27004KT 230V300 CAVOK 29/20 Q1003 NOSIG", "speci": null, "taf": "TAF VVVH 191700Z 1918/2018 24005KT 9999 FEW030", "raw": "METAR VVVH 192000Z 27004KT 230V300 CAVOK 29/20 Q1003 NOSIG", "fltcat": "VFR", "wind": "270° @ 4 kt", "vis": "CAVOK", "clouds": "NSC", "temp": 29, "dewp": 20, "qnh": "1003 hPa"}]}