{"updated": "2026-07-12T04:02:33+00:00", "source": "VN MET", "stations": [{"icao": "VVBM", "name": "Buon Ma Thuot", "metar": "METAR VVBM 120400Z 25016KT 210V300 9999 SCT013 29/22 Q1008 NOSIG", "speci": null, "taf": "TAF VVBM 112300Z 1200/1224 24010KT 9999 BKN013 BKN030 TEMPO 1205/1208 25015G25KT 4000 TSRA BKN010 FEW015CB BKN040", "raw": "METAR VVBM 120400Z 25016KT 210V300 9999 SCT013 29/22 Q1008 NOSIG", "fltcat": "VFR", "wind": "250° @ 16 kt", "vis": ">10 km", "clouds": "SCT013", "temp": 29, "dewp": 22, "qnh": "1008 hPa"}, {"icao": "VVCA", "name": "Chu Lai", "metar": "METAR VVCA 120400Z 06006KT 020V100 9999 FEW040 BKN100 34/25 Q1001 NOSIG", "speci": null, "taf": "TAF VVCA 120200Z 1203/1212 06007KT 9999 FEW020", "raw": "METAR VVCA 120400Z 06006KT 020V100 9999 FEW040 BKN100 34/25 Q1001 NOSIG", "fltcat": "VFR", "wind": "060° @ 6 kt", "vis": ">10 km", "clouds": "FEW040 BKN100", "temp": 34, "dewp": 25, "qnh": "1001 hPa"}, {"icao": "VVCI", "name": "Cat Bi — Hai Phong", "metar": "METAR VVCI 120400Z 11006KT CAVOK 32/27 Q1000 NOSIG", "speci": null, "taf": "TAF VVCI 112300Z 1200/1224 07005KT 9999 SCT020 TEMPO 1200/1205 4000 TSRA SCT012 FEW027CB TEMPO 1210/1215 3000 TSRA SCT010 FEW027CB TEMPO 1221/1224 4000 SHRA SCT012 FEW025TCU", "raw": "METAR VVCI 120400Z 11006KT CAVOK 32/27 Q1000 NOSIG", "fltcat": "VFR", "wind": "110° @ 6 kt", "vis": "CAVOK", "clouds": "NSC", "temp": 32, "dewp": 27, "qnh": "1000 hPa"}, {"icao": "VVCR", "name": "Cam Ranh — Nha Trang", "metar": "METAR VVCR 120400Z 20015KT CAVOK 32/25 Q1005 NOSIG", "speci": null, "taf": "TAF VVCR 112300Z 1200/1224 20012KT 9999 FEW017 SCT060", "raw": "METAR VVCR 120400Z 20015KT CAVOK 32/25 Q1005 NOSIG", "fltcat": "VFR", "wind": "200° @ 15 kt", "vis": "CAVOK", "clouds": "NSC", "temp": 32, "dewp": 25, "qnh": "1005 hPa", "atis": [{"kind": "ARR", "time": "2026-07-11 23:11 UTC", "text": "VVCR ARR ATIS B 0301Z VVCR INFO B 0301Z. ILS YANKEE APPROACH IN USE. LDG RWY 20L AND DPTG RWY 20R.. 0301Z. WIND RWY 20L TDZ 070/8KT MID 060/8KT END 060/8KT RWY 20R TDZ 060/8KT CAVOK T32 DP25 QNH 1011HPA TREND NOSIG. ADZ ON INITIAL CTC YOU HAVE INFO B."}, {"kind": "DEP", "time": "2026-05-29 05:57 UTC", "text": "VVCR DEP ATIS S 0533Z VVCR INFO S 0533Z. ILS Z APCH IN USE.. LDG RWY 02R AND DPTG RWY 02L.. 0532Z. WIND RWY 02R TDZ 080/9KT MID 090/8KT END 100/8KT RWY 02L TDZ 080/8KT CAVOK T31 DP26 QNH 1009HPA TREND TEMPO FM0630 VIS 4000M MOD TSRA. ADZ ON INITIAL CTC YOU HAVE INFO S."}]}, {"icao": "VVCS", "name": "Con Dao", "metar": "METAR VVCS 120400Z 22011G22KT 160V260 9999 SCT017 32/24 Q1008 NOSIG", "speci": null, "taf": "TAF VVCS 120200Z 1203/1212 24012KT 9999 SCT017 TEMPO 1203/1206 24015G28KT TEMPO 1206/1210 24016G26KT 5000 TSRA BKN015 FEW017CB", "raw": "METAR VVCS 120400Z 22011G22KT 160V260 9999 SCT017 32/24 Q1008 NOSIG", "fltcat": "VFR", "wind": "220° @ 11 kt G22", "vis": ">10 km", "clouds": "SCT017", "temp": 32, "dewp": 24, "qnh": "1008 hPa"}, {"icao": "VVCT", "name": "Can Tho Intl", "metar": "METAR VVCT 120400Z VRB03KT 9999 -RA FEW013 FEW015CB BKN050 26/25 Q1008 NOSIG", "speci": null, "taf": "TAF AMD VVCT 120134Z 1202/1224 24010KT 9999 SCT015 SCT050 TEMPO 1202/1205 24015G27KT 3000 TSRA BKN013 SCT015CB TEMPO 1205/1208 24015G26KT 5000 TSRA BKN013 FEW015CB", "raw": "METAR VVCT 120400Z VRB03KT 9999 -RA FEW013 FEW015CB BKN050 26/25 Q1008 NOSIG", "fltcat": "VFR", "wind": "VRB @ 3 kt", "vis": ">10 km", "clouds": "FEW013 FEW015 BKN050", "temp": 26, "dewp": 25, "qnh": "1008 hPa"}, {"icao": "VVDB", "name": "Dien Bien Phu", "metar": "METAR VVDB 120330Z 17003KT 080V230 9999 FEW014 BKN047 29/25 Q1003 NOSIG", "speci": null, "taf": "TAF VVDB 120200Z 1203/1212 VRB02KT 9999 SCT030 TEMPO 1207/1211 3500 TSRA SCT015 FEW027CB", "raw": "METAR VVDB 120330Z 17003KT 080V230 9999 FEW014 BKN047 29/25 Q1003 NOSIG", "fltcat": "VFR", "wind": "170° @ 3 kt", "vis": ">10 km", "clouds": "FEW014 BKN047", "temp": 29, "dewp": 25, "qnh": "1003 hPa"}, {"icao": "VVDH", "name": "Dong Hoi", "metar": "METAR VVDH 120400Z 27007KT 230V300 7000 -RA SCT034 28/26 Q1001 NOSIG", "speci": null, "taf": "TAF VVDH 120200Z 1203/1212 22010KT 9999 FEW030 TEMPO 1205/1209 3500 TSRA SCT015 FEW027CB", "raw": "METAR VVDH 120400Z 27007KT 230V300 7000 -RA SCT034 28/26 Q1001 NOSIG", "fltcat": "MVFR", "wind": "270° @ 7 kt", "vis": "7.0 km", "clouds": "SCT034", "temp": 28, "dewp": 26, "qnh": "1001 hPa"}, {"icao": "VVDN", "name": "Da Nang Intl", "metar": "METAR VVDN 120400Z 24004KT 190V270 9999 FEW020 BKN080 32/23 Q1002 NOSIG", "speci": null, "taf": "TAF VVDN 112300Z 1200/1224 22008KT 9999 FEW020 SCT070 BECMG 1203/1204 10010KT TEMPO 1209/1212 TS SCT013 FEW017CB BKN060 BECMG 1212/1213 22006KT", "raw": "METAR VVDN 120400Z 24004KT 190V270 9999 FEW020 BKN080 32/23 Q1002 NOSIG", "fltcat": "VFR", "wind": "240° @ 4 kt", "vis": ">10 km", "clouds": "FEW020 BKN080", "temp": 32, "dewp": 23, "qnh": "1002 hPa", "atis": [{"kind": "ARR", "time": "2026-07-11 23:18 UTC", "text": "VVDN ARR ATIS K 0302Z VVDN INFO K 0302Z. ILS VICTOR APPROACH 35L.. DPTG RWY 35R.. 0302Z. WIND 360/02KT CAVOK T36 DP24 QNH 1009HPA TREND NOSIG. ADZ ON INITIAL CTC YOU HAVE INFO. K."}, {"kind": "DEP", "time": "2026-07-12 02:50 UTC", "text": "VVDN DEP ATIS N 0423Z VVDN INFO N 0423Z. ILS VICTOR APPROACH 35L.. DPTG RWY 35R.. 0423Z. WIND 010/02KT CAVOK T36 DP24 QNH 1008HPA TREND NOSIG. WS ALL RWY. ADZ ON INITIAL CTC YOU HAVE INFO. N."}]}, {"icao": "VVNB", "name": "Noi Bai — Ha Noi", "metar": "METAR VVNB 120400Z 05004KT 360V100 9999 BKN025 32/27 Q1000 NOSIG", "speci": null, "taf": "TAF VVNB 112300Z 1200/1224 06005KT 8000 FEW020 TEMPO 1203/1208 3500 TSRA SCT012 FEW027CB TEMPO 1210/1214 3000 TSRA SCT010 FEW027CB TEMPO 1220/1224 4000 SHRA SCT012 FEW025TCU", "raw": "METAR VVNB 120400Z 05004KT 360V100 9999 BKN025 32/27 Q1000 NOSIG", "fltcat": "MVFR", "wind": "050° @ 4 kt", "vis": ">10 km", "clouds": "BKN025", "temp": 32, "dewp": 27, "qnh": "1000 hPa", "atis": [{"kind": "ARR", "time": "2026-07-12 03:14 UTC", "text": "VVNB ARR ATIS V 0430Z VVNB INFO V 0430Z. ILS X RWY 11L. DPTG RWY 11R AND ARR RWY 11L .. 0430Z. WIND 210/8KT CAVOK T36 DP26 QNH 1006HPA TREND NOSIG. ADZ ON INITIAL CTC YOU HAVE INFO V."}, {"kind": "DEP", "time": "2026-07-12 01:32 UTC", "text": "VVNB DEP ATIS U 0400Z VVNB INFO U 0400Z. ILS X RWY 11L. DPTG RWY 11R AND ARR RWY 11L .. 0400Z. WIND 220/8KT CAVOK T35 DP26 QNH 1007HPA TREND NOSIG. ADZ ON INITIAL CTC YOU HAVE INFO U."}]}, {"icao": "VVNS", "name": "Na San — Son La", "metar": "METAR VVNS 120400Z /////KT 9999 SCT025 27/24 Q1005 NOSIG", "speci": null, "taf": null, "raw": "METAR VVNS 120400Z /////KT 9999 SCT025 27/24 Q1005 NOSIG", "fltcat": "VFR", "wind": "—", "vis": ">10 km", "clouds": "SCT025", "temp": 27, "dewp": 24, "qnh": "1005 hPa"}, {"icao": "VVPB", "name": "Phu Bai — Hue", "metar": "METAR VVPB 120400Z 22004KT 9999 FEW020 BKN060 33/22 Q1002 NOSIG", "speci": null, "taf": "TAF VVPB 112300Z 1200/1224 26008KT 9999 FEW020 SCT070 TEMPO 1209/1212 TS SCT013 FEW017CB BKN060", "raw": "METAR VVPB 120400Z 22004KT 9999 FEW020 BKN060 33/22 Q1002 NOSIG", "fltcat": "VFR", "wind": "220° @ 4 kt", "vis": ">10 km", "clouds": "FEW020 BKN060", "temp": 33, "dewp": 22, "qnh": "1002 hPa"}, {"icao": "VVPC", "name": "Phu Cat — Quy Nhon", "metar": "METAR VVPC 120400Z 25015G30KT 230V290 9999 FEW025 SCT060 33/22 Q1003 NOSIG", "speci": null, "taf": "TAF VVPC 112300Z 1200/1224 23010KT 9999 FEW020 SCT050 TEMPO 1200/1209 24015G25KT", "raw": "METAR VVPC 120400Z 25015G30KT 230V290 9999 FEW025 SCT060 33/22 Q1003 NOSIG", "fltcat": "VFR", "wind": "250° @ 15 kt G30", "vis": ">10 km", "clouds": "FEW025 SCT060", "temp": 33, "dewp": 22, "qnh": "1003 hPa"}, {"icao": "VVPK", "name": "Pleiku", "metar": "METAR VVPK 120400Z 26010KT 230V290 8000 -RA SCT007 BKN012 23/22 Q1010 TEMPO 26015G25KT", "speci": null, "taf": "TAF VVPK 112300Z 1200/1224 23014KT 8000 BKN012 TEMPO 1200/1201 23022G32KT 2000 RA BR BKN003 BKN007 TEMPO 1201/1203 23020G30KT 3500 RA BR BKN004 BKN008 TEMPO 1203/1208 23018G28KT TEMPO 1208/1214 23015G25KT 2800 +SHRA BKN005 BKN008 FEW015CB TEMPO 1222/1224 3500 RA BR BKN004 BKN008", "raw": "METAR VVPK 120400Z 26010KT 230V290 8000 -RA SCT007 BKN012 23/22 Q1010 TEMPO 26015G25KT", "fltcat": "MVFR", "wind": "260° @ 10 kt", "vis": "8.0 km", "clouds": "SCT007 BKN012", "temp": 23, "dewp": 22, "qnh": "1010 hPa"}, {"icao": "VVPQ", "name": "Phu Quoc Intl", "metar": "METAR VVPQ 120400Z 22013KT 9000 SCT015 FEW017CB 30/29 Q1008 NOSIG", "speci": null, "taf": "TAF VVPQ 112300Z 1200/1224 25015KT 9999 SCT015 SCT040 TEMPO 1205/1208 26015G28KT 3000 TSRA SCT013 FEW015CB SCT040 TEMPO 1214/1218 25015G29KT 3000 TSRA SCT013 SCT015CB BKN040", "raw": "METAR VVPQ 120400Z 22013KT 9000 SCT015 FEW017CB 30/29 Q1008 NOSIG", "fltcat": "VFR", "wind": "220° @ 13 kt", "vis": "9.0 km", "clouds": "SCT015 FEW017", "temp": 30, "dewp": 29, "qnh": "1008 hPa"}, {"icao": "VVRG", "name": "Rach Gia", "metar": "METAR VVRG 120400Z 22007KT 190V250 9999 VCTS FEW013 FEW017CB OVC040 29/26 Q1008 TEMPO FM0420 TL0450 25015G25KT 5000 TSRA", "speci": null, "taf": "TAF VVRG 120200Z 1203/1212 24009KT 9999 SCT015 TEMPO 1203/1206 24015G27KT 4000 TSRA BKN015 FEW017CB", "raw": "METAR VVRG 120400Z 22007KT 190V250 9999 VCTS FEW013 FEW017CB OVC040 29/26 Q1008 TEMPO FM0420 TL0450 25015G25KT 5000 TSRA", "fltcat": "VFR", "wind": "220° @ 7 kt", "vis": ">10 km", "clouds": "FEW013 FEW017 OVC040", "temp": 29, "dewp": 26, "qnh": "1008 hPa"}, {"icao": "VVTH", "name": "Dong Tac — Tuy Hoa", "metar": "METAR VVTH 120400Z VRB04KT 9999 BKN054 31/25 Q1003 NOSIG", "speci": null, "taf": "TAF VVTH 120200Z 1203/1212 25015KT 9999 FEW020 SCT050 TEMPO 1203/1209 25018G28KT", "raw": "METAR VVTH 120400Z VRB04KT 9999 BKN054 31/25 Q1003 NOSIG", "fltcat": "VFR", "wind": "VRB @ 4 kt", "vis": ">10 km", "clouds": "BKN054", "temp": 31, "dewp": 25, "qnh": "1003 hPa"}, {"icao": "VVTS", "name": "Tan Son Nhat — Ho Chi Minh City", "metar": "METAR VVTS 120400Z 25017KT 220V280 9999 SCT019 FEW021CB BKN038 33/25 Q1007 NOSIG", "speci": null, "taf": "TAF VVTS 112300Z 1200/1306 25008KT 9999 SCT017 SCT040 TEMPO 1205/1209 25015G26KT 3000 TSRA SCT015 SCT017CB BKN040", "raw": "METAR VVTS 120400Z 25017KT 220V280 9999 SCT019 FEW021CB BKN038 33/25 Q1007 NOSIG", "fltcat": "VFR", "wind": "250° @ 17 kt", "vis": ">10 km", "clouds": "SCT019 FEW021 BKN038", "temp": 33, "dewp": 25, "qnh": "1007 hPa", "atis": [{"kind": "ARR", "time": "2026-07-12 01:53 UTC", "text": "VVTS ARR ATIS C 0130Z VVTS INFO C 0130Z. ILSW APCH IN RWY 25R.. LDG RWY 25R AND DEP RWY 25L.. 0130Z. WIND RWY 25R TDZ 270/13KT VIS 10KM CLD SCT 1700FT T30 DP26 QNH 1007HPA TREND NOSIG. ADZ ON INITIAL CTC YOU HAVE INFO C."}, {"kind": "DEP", "time": "2026-07-10 22:52 UTC", "text": "VVTS DEP ATIS Z 1835Z VVTS INFO Z 1835Z. ILSW APCH IN RWY 25R.. LDG RWY 25R AND DEP RWY 25L.. 1830Z. WIND RWY 25L TDZ 200/5KT MID 200/6KT END 200/4KT MAX10 MNM2 VRB BTN 160/ AND 300/ RWY 25R TDZ 200/5KT END 200/6KT MAX12 MNM4 VRB BTN 180/ AND 270/ VIS RWY 25L TDZ 10KM MID 10KM END 10KM RWY 25R TDZ 10KM MID 10KM END 10KM CLD RWY 25L SCT 3500FT RWY 25R FEW 3500FT T29 DP26 QNH 1010HPA TREND NOSIG. ADZ ON INITIAL CTC YOU HAVE INFO Z."}]}, {"icao": "VVTX", "name": "Tho Xuan — Thanh Hoa", "metar": "METAR COR VVTX 120400Z VRB02KT 9999 SCT025 31/25 Q1000 NOSIG", "speci": null, "taf": "TAF VVTX 120200Z 1203/1212 04005KT 9999 SCT020 TEMPO 1208/1212 3500 TSRA SCT015 FEW027CB", "raw": "METAR COR VVTX 120400Z VRB02KT 9999 SCT025 31/25 Q1000 NOSIG", "fltcat": "VFR", "wind": "VRB @ 2 kt", "vis": ">10 km", "clouds": "SCT025", "temp": 31, "dewp": 25, "qnh": "1000 hPa"}, {"icao": "VVVD", "name": "Van Don — Quang Ninh", "metar": "METAR VVVD 120400Z VRB02KT 9999 FEW020 33/28 Q1001 NOSIG", "speci": null, "taf": "TAF VVVD 112300Z 1200/1224 VRB02KT 9999 SCT020 TEMPO 1203/1206 3500 TSRA SCT012 FEW027CB TEMPO 1211/1215 3000 TSRA SCT010 FEW027CB TEMPO 1219/1224 4000 SHRA SCT012 FEW025TCU", "raw": "METAR VVVD 120400Z VRB02KT 9999 FEW020 33/28 Q1001 NOSIG", "fltcat": "VFR", "wind": "VRB @ 2 kt", "vis": ">10 km", "clouds": "FEW020", "temp": 33, "dewp": 28, "qnh": "1001 hPa"}, {"icao": "VVVH", "name": "Vinh", "metar": "METAR VVVH 120400Z 23006KT 180V270 9999 SCT024 30/24 Q1001 NOSIG", "speci": null, "taf": "TAF VVVH 112300Z 1200/1218 25005KT 9999 FEW020 TEMPO 1208/1212 3000 TSRA SCT010 FEW027CB", "raw": "METAR VVVH 120400Z 23006KT 180V270 9999 SCT024 30/24 Q1001 NOSIG", "fltcat": "VFR", "wind": "230° @ 6 kt", "vis": ">10 km", "clouds": "SCT024", "temp": 30, "dewp": 24, "qnh": "1001 hPa"}]}