{"updated": "2026-07-23T14:21:10+00:00", "source": "VN MET", "stations": [{"icao": "VVBM", "name": "Buon Ma Thuot", "metar": "METAR VVBM 231400Z VRB02KT 9999 SCT015 23/21 Q1010 NOSIG", "speci": null, "taf": "TAF VVBM 231100Z 2312/2412 30008KT 9999 SCT017 TEMPO 2406/2410 5000 TSRA SCT015 FEW017CB", "raw": "METAR VVBM 231400Z VRB02KT 9999 SCT015 23/21 Q1010 NOSIG", "fltcat": "VFR", "wind": "VRB @ 2 kt", "vis": ">10 km", "clouds": "SCT015", "temp": 23, "dewp": 21, "qnh": "1010 hPa"}, {"icao": "VVCA", "name": "Chu Lai", "metar": "METAR VVCA 231400Z AUTO 15003KT 9999 OVC100/// 29/27 Q1005", "speci": null, "taf": "TAF VVCA 222300Z 2300/2309 23005KT 9999 FEW020 BECMG 2302/2304 08010KT TEMPO 2307/2309 23018G28KT 2500 +TSRA BKN013 SCT015CB BKN050", "raw": "METAR VVCA 231400Z AUTO 15003KT 9999 OVC100/// 29/27 Q1005", "fltcat": "VFR", "wind": "150° @ 3 kt", "vis": ">10 km", "clouds": "OVC100", "temp": 29, "dewp": 27, "qnh": "1005 hPa"}, {"icao": "VVCI", "name": "Cat Bi — Hai Phong", "metar": "METAR VVCI 231400Z 09007KT 9999 FEW022 30/25 Q1004 NOSIG", "speci": null, "taf": "TAF VVCI 231100Z 2312/2412 12008KT 9999 FEW030 TEMPO 2312/2316 3000 TSRA BKN010 FEW027CB TEMPO 2319/2324 4000 TSRA SCT010 FEW027CB TEMPO 2406/2412 3000 TSRA BKN010 FEW027CB", "raw": "METAR VVCI 231400Z 09007KT 9999 FEW022 30/25 Q1004 NOSIG", "fltcat": "VFR", "wind": "090° @ 7 kt", "vis": ">10 km", "clouds": "FEW022", "temp": 30, "dewp": 25, "qnh": "1004 hPa"}, {"icao": "VVCR", "name": "Cam Ranh — Nha Trang", "metar": "METAR VVCR 231400Z 36005KT 9999 FEW020 BKN067 30/25 Q1007 NOSIG", "speci": null, "taf": "TAF VVCR 231100Z 2312/2412 21007KT 9999 FEW020 SCT050 BECMG 2402/2403 11011KT TEMPO 2407/2411 26015G25KT 4000 TSRA BKN013 FEW017CB BKN050", "raw": "METAR VVCR 231400Z 36005KT 9999 FEW020 BKN067 30/25 Q1007 NOSIG", "fltcat": "VFR", "wind": "360° @ 5 kt", "vis": ">10 km", "clouds": "FEW020 BKN067", "temp": 30, "dewp": 25, "qnh": "1007 hPa", "atis": [{"kind": "ARR", "time": "2026-07-22 05:32 UTC", "text": "VVCR ARR ATIS O 1300Z VVCR INFO O 1300Z. ILS YANKEE APPROACH IN USE. LDG RWY 20L AND DPTG RWY 20R.. 1300Z. WIND RWY 20L TDZ 190/7KT MID 190/8KT END 180/7KT RWY 20R TDZ 190/7KT VIS RWY 20L TDZ 10KM END 10KM CLD RWY 20L SCT 7200FT T31 DP24 QNH 1007HPA TREND NOSIG. ADZ ON INITIAL CTC YOU HAVE INFO O."}, {"kind": "DEP", "time": "2026-05-29 05:57 UTC", "text": "VVCR DEP ATIS S 0533Z VVCR INFO S 0533Z. ILS Z APCH IN USE.. LDG RWY 02R AND DPTG RWY 02L.. 0532Z. WIND RWY 02R TDZ 080/9KT MID 090/8KT END 100/8KT RWY 02L TDZ 080/8KT CAVOK T31 DP26 QNH 1009HPA TREND TEMPO FM0630 VIS 4000M MOD TSRA. ADZ ON INITIAL CTC YOU HAVE INFO S."}]}, {"icao": "VVCT", "name": "Can Tho Intl", "metar": "METAR VVCT 231400Z VRB02KT 9999 FEW015 SCT050 26/25 Q1008 NOSIG", "speci": null, "taf": "TAF VVCT 231100Z 2312/2412 25008KT 9999 SCT017 SCT040 TEMPO 2400/2404 5000 TSRA SCT013 FEW015CB", "raw": "METAR VVCT 231400Z VRB02KT 9999 FEW015 SCT050 26/25 Q1008 NOSIG", "fltcat": "VFR", "wind": "VRB @ 2 kt", "vis": ">10 km", "clouds": "FEW015 SCT050", "temp": 26, "dewp": 25, "qnh": "1008 hPa"}, {"icao": "VVDB", "name": "Dien Bien Phu", "metar": "METAR VVDB 231400Z AUTO 24004KT 9999 // NSC 24/23 Q1006 RE//", "speci": null, "taf": "TAF VVDB 222300Z 2300/2309 VRB02KT 9999 SCT025 TEMPO 2300/2304 4000 TSRA SCT010 FEW027CB", "raw": "METAR VVDB 231400Z AUTO 24004KT 9999 // NSC 24/23 Q1006 RE//", "fltcat": "VFR", "wind": "240° @ 4 kt", "vis": ">10 km", "clouds": "NSC", "temp": 24, "dewp": 23, "qnh": "1006 hPa"}, {"icao": "VVDH", "name": "Dong Hoi", "metar": "METAR VVDH 231400Z 23003KT 150V310 CAVOK 31/26 Q1005 NOSIG", "speci": null, "taf": "TAF VVDH 222300Z 2300/2309 21006KT 9999 FEW035", "raw": "METAR VVDH 231400Z 23003KT 150V310 CAVOK 31/26 Q1005 NOSIG", "fltcat": "VFR", "wind": "230° @ 3 kt", "vis": "CAVOK", "clouds": "NSC", "temp": 31, "dewp": 26, "qnh": "1005 hPa"}, {"icao": "VVDN", "name": "Da Nang Intl", "metar": "METAR VVDN 231400Z VRB02KT 9999 FEW020 BKN080 28/25 Q1006 NOSIG", "speci": null, "taf": "TAF VVDN 231100Z 2312/2412 21007KT 9999 SCT017 BKN060 BECMG 2404/2405 08010KT TEMPO 2408/2412 23015G25KT 3500 TSRA BKN013 FEW017CB BKN060", "raw": "METAR VVDN 231400Z VRB02KT 9999 FEW020 BKN080 28/25 Q1006 NOSIG", "fltcat": "VFR", "wind": "VRB @ 2 kt", "vis": ">10 km", "clouds": "FEW020 BKN080", "temp": 28, "dewp": 25, "qnh": "1006 hPa", "atis": [{"kind": "ARR", "time": "2026-07-23 05:45 UTC", "text": "VVDN ARR ATIS U 2102Z VVDN INFO U 2102Z. ILS VICTOR APPROACH 35L.. DPTG RWY 35R.. 2102Z. WIND 260/02KT CAVOK T29 DP25 QNH 1003HPA TREND NOSIG. ADZ ON INITIAL CTC YOU HAVE INFO. U."}, {"kind": "DEP", "time": "2026-07-22 10:38 UTC", "text": "VVDN DEP ATIS G 1432Z VVDN INFO G 1432Z. ILS VICTOR APPROACH 35L.. DPTG RWY 35R.. 1432Z. WIND VRB/01KT CAVOK T32 DP24 QNH 1004HPA TREND NOSIG. ADZ ON INITIAL CTC YOU HAVE INFO. G."}]}, {"icao": "VVNB", "name": "Noi Bai — Ha Noi", "metar": "METAR VVNB 231400Z 09005KT CAVOK 28/26 Q1004 NOSIG", "speci": null, "taf": "TAF VVNB 231100Z 2312/2412 14006KT 9999 FEW030 TEMPO 2312/2316 3000 TSRA BKN010 FEW027CB TEMPO 2320/2401 4000 TSRA SCT010 FEW027CB TEMPO 2406/2412 3000 TSRA BKN010 FEW027CB", "raw": "METAR VVNB 231400Z 09005KT CAVOK 28/26 Q1004 NOSIG", "fltcat": "VFR", "wind": "090° @ 5 kt", "vis": "CAVOK", "clouds": "NSC", "temp": 28, "dewp": 26, "qnh": "1004 hPa", "atis": [{"kind": "ARR", "time": "2026-07-23 14:20 UTC", "text": "VVNB ARR ATIS K 0030Z VVNB INFO K 0030Z. ILS X RWY 11L. DPTG RWY 11R AND ARR RWY 11L .. 0030Z. WIND 040/6KT CAVOK T32 DP28 QNH 1001HPA TREND NOSIG. ADZ ON INITIAL CTC YOU HAVE INFO K."}, {"kind": "DEP", "time": "2026-07-23 09:36 UTC", "text": "VVNB DEP ATIS F 2246Z VVNB INFO F 2246Z. ILS X RWY 11R CAT I.. DPTG RWY 11R AND ARR RWY 11R. 2230Z. WIND RWY 11R TDZ 080/4KT MID 080/4KT END 080/3KT CAVOK T30 DP28 QNH 1000HPA QFE RWY 11R 0999HPA TREND NOSIG. ADZ ON INITIAL CTC YOU HAVE INFO F."}]}, {"icao": "VVPB", "name": "Phu Bai — Hue", "metar": "METAR VVPB 231400Z 22003KT 9999 FEW017 SCT070 30/24 Q1005 NOSIG", "speci": null, "taf": "TAF VVPB 231100Z 2312/2412 20006KT 9999 SCT017 SCT060 TEMPO 2316/2319 4500 TSRA BKN013 FEW017CB BKN060 BECMG 2404/2405 07010KT TEMPO 2408/2412 24015G25KT 4000 TSRA BKN013 FEW017CB BKN060", "raw": "METAR VVPB 231400Z 22003KT 9999 FEW017 SCT070 30/24 Q1005 NOSIG", "fltcat": "VFR", "wind": "220° @ 3 kt", "vis": ">10 km", "clouds": "FEW017 SCT070", "temp": 30, "dewp": 24, "qnh": "1005 hPa"}, {"icao": "VVPC", "name": "Phu Cat — Quy Nhon", "metar": "METAR VVPC 231400Z 27003KT 230V290 9999 FEW025 BKN070 30/23 Q1006 NOSIG", "speci": null, "taf": "TAF VVPC 231100Z 2312/2412 25007KT 9999 FEW020 SCT060 TEMPO 2312/2314 TS SCT013 FEW017CB TEMPO 2409/2412 28016G28KT 2500 +TSRA BKN010 SCT015CB BKN050", "raw": "METAR VVPC 231400Z 27003KT 230V290 9999 FEW025 BKN070 30/23 Q1006 NOSIG", "fltcat": "VFR", "wind": "270° @ 3 kt", "vis": ">10 km", "clouds": "FEW025 BKN070", "temp": 30, "dewp": 23, "qnh": "1006 hPa"}, {"icao": "VVPK", "name": "Pleiku", "metar": "METAR VVPK 231400Z 25004KT 9999 FEW020 SCT080 23/21 Q1012 NOSIG", "speci": null, "taf": "TAF VVPK 231100Z 2312/2412 24008KT 9999 FEW020 TEMPO 2322/2324 3500 RA BR BKN004 BKN008 TEMPO 2408/2412 27015G25KT 4000 TSRA BKN013 FEW017CB BKN050", "raw": "METAR VVPK 231400Z 25004KT 9999 FEW020 SCT080 23/21 Q1012 NOSIG", "fltcat": "VFR", "wind": "250° @ 4 kt", "vis": ">10 km", "clouds": "FEW020 SCT080", "temp": 23, "dewp": 21, "qnh": "1012 hPa"}, {"icao": "VVPQ", "name": "Phu Quoc Intl", "metar": "METAR VVPQ 231400Z 30013KT 9999 SCT015 SCT040 29/27 Q1008 NOSIG", "speci": null, "taf": "TAF VVPQ 231100Z 2312/2412 27012KT 9999 SCT015 SCT040 TEMPO 2322/2402 27015G26KT 5000 TSRA SCT013 FEW015CB BKN040", "raw": "METAR VVPQ 231400Z 30013KT 9999 SCT015 SCT040 29/27 Q1008 NOSIG", "fltcat": "VFR", "wind": "300° @ 13 kt", "vis": ">10 km", "clouds": "SCT015 SCT040", "temp": 29, "dewp": 27, "qnh": "1008 hPa"}, {"icao": "VVTH", "name": "Dong Tac — Tuy Hoa", "metar": "METAR VVTH 231400Z 16005KT CAVOK 29/23 Q1006 NOSIG", "speci": null, "taf": "TAF VVTH 222300Z 2300/2309 22010KT 9999 FEW020", "raw": "METAR VVTH 231400Z 16005KT CAVOK 29/23 Q1006 NOSIG", "fltcat": "VFR", "wind": "160° @ 5 kt", "vis": "CAVOK", "clouds": "NSC", "temp": 29, "dewp": 23, "qnh": "1006 hPa"}, {"icao": "VVTS", "name": "Tan Son Nhat — Ho Chi Minh City", "metar": "METAR VVTS 231400Z 27009KT 250V310 CAVOK 29/25 Q1008 NOSIG", "speci": null, "taf": "TAF AMD VVTS 231147Z 2312/2418 28008KT 9999 SCT017 TEMPO 2312/2318 4000 TSRA SCT015 FEW017CB BKN040 TEMPO 2407/2411 28015G28KT 3000 TSRA SCT013 SCT015CB", "raw": "METAR VVTS 231400Z 27009KT 250V310 CAVOK 29/25 Q1008 NOSIG", "fltcat": "VFR", "wind": "270° @ 9 kt", "vis": "CAVOK", "clouds": "NSC", "temp": 29, "dewp": 25, "qnh": "1008 hPa", "atis": [{"kind": "ARR", "time": "2026-07-23 13:03 UTC", "text": "VVTS ARR ATIS F 0000Z VVTS INFO F 0000Z. ILSW APCH IN RWY 25R.. LDG RWY 25R AND DEP RWY 25L.. 0000Z. WIND RWY 25R TDZ 240/8KT MAX13 MNM6 VIS 10KM CLD SCT 1500FT BKN 2400FT T29 DP27 QNH 1009HPA"}, {"kind": "DEP", "time": "2026-07-23 04:13 UTC", "text": "VVTS DEP ATIS Y 2030Z VVTS INFO Y 2030Z. ILSW APCH IN RWY 25R.. LDG RWY 25R AND DEP RWY 25L.. 2030Z. WIND RWY 25R TDZ 240/8KT MAX15 MNM6 END 240/8KT VIS 10KM CLD FEW 1600FT T29 DP27 QNH 1007HPA TREND NOSIG. ADZ ON INITIAL CTC YOU HAVE INFO Y."}]}, {"icao": "VVTX", "name": "Tho Xuan — Thanh Hoa", "metar": "METAR VVTX 231400Z 32001KT CAVOK 25/24 Q1004 NOSIG", "speci": null, "taf": "TAF VVTX 222300Z 2300/2309 32005KT 9999 FEW030", "raw": "METAR VVTX 231400Z 32001KT CAVOK 25/24 Q1004 NOSIG", "fltcat": "VFR", "wind": "320° @ 1 kt", "vis": "CAVOK", "clouds": "NSC", "temp": 25, "dewp": 24, "qnh": "1004 hPa"}, {"icao": "VVVD", "name": "Van Don — Quang Ninh", "metar": "METAR VVVD 231400Z AUTO 04003KT 9999 SCT019/// SCT024/// 28/27 Q1005", "speci": null, "taf": "TAF VVVD 231100Z 2312/2412 15005KT 9999 FEW030 TEMPO 2314/2318 4000 TSRA SCT010 FEW027CB TEMPO 2321/2402 3000 TSRA BKN010 FEW027CB TEMPO 2406/2412 3000 TSRA BKN010 FEW027CB", "raw": "METAR VVVD 231400Z AUTO 04003KT 9999 SCT019/// SCT024/// 28/27 Q1005", "fltcat": "VFR", "wind": "040° @ 3 kt", "vis": ">10 km", "clouds": "SCT019 SCT024", "temp": 28, "dewp": 27, "qnh": "1005 hPa"}, {"icao": "VVVH", "name": "Vinh", "metar": "METAR VVVH 231400Z 31007KT CAVOK 29/24 Q1005 NOSIG", "speci": null, "taf": "TAF VVVH 231100Z 2312/2412 24006KT 9999 FEW030 TEMPO 2313/2317 4000 TSRA SCT010 FEW027CB TEMPO 2409/2412 4000 TSRA SCT010 FEW027CB", "raw": "METAR VVVH 231400Z 31007KT CAVOK 29/24 Q1005 NOSIG", "fltcat": "VFR", "wind": "310° @ 7 kt", "vis": "CAVOK", "clouds": "NSC", "temp": 29, "dewp": 24, "qnh": "1005 hPa"}]}