{"updated": "2026-07-12T23:03:36+00:00", "source": "VN MET", "stations": [{"icao": "VVBM", "name": "Buon Ma Thuot", "metar": "METAR VVBM 122300Z VRB02KT 9000 SCT013 BKN040 23/21 Q1009 NOSIG", "speci": null, "taf": "TAF VVBM 112300Z 1200/1224 24010KT 9999 BKN013 BKN030 TEMPO 1205/1208 25015G25KT 4000 TSRA BKN010 FEW015CB BKN040", "raw": "METAR VVBM 122300Z VRB02KT 9000 SCT013 BKN040 23/21 Q1009 NOSIG", "fltcat": "VFR", "wind": "VRB @ 2 kt", "vis": "9.0 km", "clouds": "SCT013 BKN040", "temp": 23, "dewp": 21, "qnh": "1009 hPa"}, {"icao": "VVCA", "name": "Chu Lai", "metar": "METAR VVCA 122300Z 09003KT 050V120 CAVOK 27/27 Q1001 NOSIG", "speci": null, "taf": "TAF VVCA 122000Z 1221/1306 29005KT 9999 SCT015 SCT050 BECMG 1302/1303 08010KT", "raw": "METAR VVCA 122300Z 09003KT 050V120 CAVOK 27/27 Q1001 NOSIG", "fltcat": "VFR", "wind": "090° @ 3 kt", "vis": "CAVOK", "clouds": "NSC", "temp": 27, "dewp": 27, "qnh": "1001 hPa"}, {"icao": "VVCI", "name": "Cat Bi — Hai Phong", "metar": "METAR VVCI 122300Z 00000KT 9999 FEW014 29/27 Q1001 NOSIG", "speci": null, "taf": "TAF AMD VVCI 122200Z 1222/1318 12005KT 9999 SCT015 TEMPO 1304/1307 4000 TSRA SCT010 FEW027CB", "raw": "METAR VVCI 122300Z 00000KT 9999 FEW014 29/27 Q1001 NOSIG", "fltcat": "VFR", "wind": "000° @ 0 kt", "vis": ">10 km", "clouds": "FEW014", "temp": 29, "dewp": 27, "qnh": "1001 hPa"}, {"icao": "VVCR", "name": "Cam Ranh — Nha Trang", "metar": "METAR VVCR 122300Z 20010KT CAVOK 28/23 Q1005 NOSIG", "speci": null, "taf": "TAF VVCR 112300Z 1200/1224 20012KT 9999 FEW017 SCT060", "raw": "METAR VVCR 122300Z 20010KT CAVOK 28/23 Q1005 NOSIG", "fltcat": "VFR", "wind": "200° @ 10 kt", "vis": "CAVOK", "clouds": "NSC", "temp": 28, "dewp": 23, "qnh": "1005 hPa", "atis": [{"kind": "ARR", "time": "2026-07-12 04:42 UTC", "text": "VVCR ARR ATIS F 0501Z VVCR INFO F 0501Z. ILS YANKEE APPROACH IN USE. LDG RWY 20L AND DPTG RWY 20R.. 0501Z. WIND RWY 20L TDZ 150/9KT MAX15 MNM6 MID 130/11KT END 120/10KT RWY 20R TDZ 130/9KT CAVOK T35 DP24 QNH 1010HPA TREND NOSIG. ADZ ON INITIAL CTC YOU HAVE INFO F."}, {"kind": "DEP", "time": "2026-05-29 05:57 UTC", "text": "VVCR DEP ATIS S 0533Z VVCR INFO S 0533Z. ILS Z APCH IN USE.. LDG RWY 02R AND DPTG RWY 02L.. 0532Z. WIND RWY 02R TDZ 080/9KT MID 090/8KT END 100/8KT RWY 02L TDZ 080/8KT CAVOK T31 DP26 QNH 1009HPA TREND TEMPO FM0630 VIS 4000M MOD TSRA. ADZ ON INITIAL CTC YOU HAVE INFO S."}]}, {"icao": "VVCS", "name": "Con Dao", "metar": "METAR VVCS 122230Z 18006KT 9999 SCT015 SCT040 29/24 Q1007 NOSIG", "speci": null, "taf": "TAF VVCS 122000Z 1221/1306 23008KT 9999 SCT017 TEMPO 1300/1303 23015G26KT 4000 TSRA SCT015 FEW017CB", "raw": "METAR VVCS 122230Z 18006KT 9999 SCT015 SCT040 29/24 Q1007 NOSIG", "fltcat": "VFR", "wind": "180° @ 6 kt", "vis": ">10 km", "clouds": "SCT015 SCT040", "temp": 29, "dewp": 24, "qnh": "1007 hPa"}, {"icao": "VVCT", "name": "Can Tho Intl", "metar": "METAR VVCT 122230Z 22005KT 9999 FEW013 BKN040 23/23 Q1007 NOSIG", "speci": null, "taf": "TAF AMD VVCT 120134Z 1202/1224 24010KT 9999 SCT015 SCT050 TEMPO 1202/1205 24015G27KT 3000 TSRA BKN013 SCT015CB TEMPO 1205/1208 24015G26KT 5000 TSRA BKN013 FEW015CB", "raw": "METAR VVCT 122230Z 22005KT 9999 FEW013 BKN040 23/23 Q1007 NOSIG", "fltcat": "VFR", "wind": "220° @ 5 kt", "vis": ">10 km", "clouds": "FEW013 BKN040", "temp": 23, "dewp": 23, "qnh": "1007 hPa"}, {"icao": "VVDB", "name": "Dien Bien Phu", "metar": "METAR VVDB 122300Z 29002KT 9999 FEW005 SCT010 OVC013 23/23 Q1005 NOSIG", "speci": null, "taf": "TAF VVDB 122000Z 1221/1306 VRB02KT 6000 SCT015 BKN030 TEMPO 1222/1302 4000 TSRA SCT005 FEW027CB BKN030", "raw": "METAR VVDB 122300Z 29002KT 9999 FEW005 SCT010 OVC013 23/23 Q1005 NOSIG", "fltcat": "MVFR", "wind": "290° @ 2 kt", "vis": ">10 km", "clouds": "FEW005 SCT010 OVC013", "temp": 23, "dewp": 23, "qnh": "1005 hPa"}, {"icao": "VVDH", "name": "Dong Hoi", "metar": "METAR VVDH 122300Z VRB02KT 7000 -RA SCT045 25/25 Q1002 NOSIG", "speci": null, "taf": "TAF VVDH 122000Z 1221/1306 21008KT 9999 FEW030", "raw": "METAR VVDH 122300Z VRB02KT 7000 -RA SCT045 25/25 Q1002 NOSIG", "fltcat": "MVFR", "wind": "VRB @ 2 kt", "vis": "7.0 km", "clouds": "SCT045", "temp": 25, "dewp": 25, "qnh": "1002 hPa"}, {"icao": "VVDN", "name": "Da Nang Intl", "metar": "METAR VVDN 122300Z VRB01KT 9999 FEW017 SCT070 29/22 Q1002 NOSIG", "speci": null, "taf": "TAF VVDN 112300Z 1200/1224 22008KT 9999 FEW020 SCT070 BECMG 1203/1204 10010KT TEMPO 1209/1212 TS SCT013 FEW017CB BKN060 BECMG 1212/1213 22006KT", "raw": "METAR VVDN 122300Z VRB01KT 9999 FEW017 SCT070 29/22 Q1002 NOSIG", "fltcat": "VFR", "wind": "VRB @ 1 kt", "vis": ">10 km", "clouds": "FEW017 SCT070", "temp": 29, "dewp": 22, "qnh": "1002 hPa", "atis": [{"kind": "ARR", "time": "2026-07-12 22:46 UTC", "text": "VVDN ARR ATIS B 1032Z VVDN INFO B 1032Z. ILS VICTOR APPROACH 35L.. DPTG RWY 35R.. 1032Z. WIND 120/05KT CAVOK T32 DP26 QNH 1007HPA TREND NOSIG. ADZ ON INITIAL CTC YOU HAVE INFO. B."}, {"kind": "DEP", "time": "2026-07-12 02:50 UTC", "text": "VVDN DEP ATIS N 0423Z VVDN INFO N 0423Z. ILS VICTOR APPROACH 35L.. DPTG RWY 35R.. 0423Z. WIND 010/02KT CAVOK T36 DP24 QNH 1008HPA TREND NOSIG. WS ALL RWY. ADZ ON INITIAL CTC YOU HAVE INFO. N."}]}, {"icao": "VVNB", "name": "Noi Bai — Ha Noi", "metar": "METAR VVNB 122300Z 30002KT 9000 BKN012 27/26 Q1001 NOSIG", "speci": null, "taf": "TAF VVNB 112300Z 1200/1224 06005KT 8000 FEW020 TEMPO 1203/1208 3500 TSRA SCT012 FEW027CB TEMPO 1210/1214 3000 TSRA SCT010 FEW027CB TEMPO 1220/1224 4000 SHRA SCT012 FEW025TCU", "raw": "METAR VVNB 122300Z 30002KT 9000 BKN012 27/26 Q1001 NOSIG", "fltcat": "MVFR", "wind": "300° @ 2 kt", "vis": "9.0 km", "clouds": "BKN012", "temp": 27, "dewp": 26, "qnh": "1001 hPa", "atis": [{"kind": "ARR", "time": "2026-07-12 22:45 UTC", "text": "VVNB ARR ATIS H 1030Z VVNB INFO H 1030Z. ILS X RWY 11L. DPTG RWY 11R AND ARR RWY 11L .. 1030Z. WIND 150/7KT CAVOK T36 DP25 QNH 1002HPA TREND NOSIG. ADZ ON INITIAL CTC YOU HAVE INFO H."}, {"kind": "DEP", "time": "2026-07-12 20:27 UTC", "text": "VVNB DEP ATIS F 0930Z VVNB INFO F 0930Z. ILS X RWY 11L. DPTG RWY 11R AND ARR RWY 11L .. 0930Z. WIND 170/4KT CAVOK T36 DP25 QNH 1002HPA TREND NOSIG. ADZ ON INITIAL CTC YOU HAVE INFO F."}]}, {"icao": "VVPB", "name": "Phu Bai — Hue", "metar": "METAR VVPB 122300Z 32003KT 9999 FEW020 SCT060 28/23 Q1001 NOSIG", "speci": null, "taf": "TAF VVPB 112300Z 1200/1224 26008KT 9999 FEW020 SCT070 TEMPO 1209/1212 TS SCT013 FEW017CB BKN060", "raw": "METAR VVPB 122300Z 32003KT 9999 FEW020 SCT060 28/23 Q1001 NOSIG", "fltcat": "VFR", "wind": "320° @ 3 kt", "vis": ">10 km", "clouds": "FEW020 SCT060", "temp": 28, "dewp": 23, "qnh": "1001 hPa"}, {"icao": "VVPC", "name": "Phu Cat — Quy Nhon", "metar": "METAR VVPC 122300Z 24005KT 9999 FEW023 29/22 Q1003 NOSIG", "speci": null, "taf": "TAF VVPC 112300Z 1200/1224 23010KT 9999 FEW020 SCT050 TEMPO 1200/1209 24015G25KT", "raw": "METAR VVPC 122300Z 24005KT 9999 FEW023 29/22 Q1003 NOSIG", "fltcat": "VFR", "wind": "240° @ 5 kt", "vis": ">10 km", "clouds": "FEW023", "temp": 29, "dewp": 22, "qnh": "1003 hPa"}, {"icao": "VVPK", "name": "Pleiku", "metar": "METAR VVPK 122300Z 27011KT 240V300 9999 BKN003 21/21 Q1010 TEMPO 4000 RA BR", "speci": null, "taf": "TAF VVPK 112300Z 1200/1224 23014KT 8000 BKN012 TEMPO 1200/1201 23022G32KT 2000 RA BR BKN003 BKN007 TEMPO 1201/1203 23020G30KT 3500 RA BR BKN004 BKN008 TEMPO 1203/1208 23018G28KT TEMPO 1208/1214 23015G25KT 2800 +SHRA BKN005 BKN008 FEW015CB TEMPO 1222/1224 3500 RA BR BKN004 BKN008", "raw": "METAR VVPK 122300Z 27011KT 240V300 9999 BKN003 21/21 Q1010 TEMPO 4000 RA BR", "fltcat": "LIFR", "wind": "270° @ 11 kt", "vis": ">10 km", "clouds": "BKN003", "temp": 21, "dewp": 21, "qnh": "1010 hPa"}, {"icao": "VVPQ", "name": "Phu Quoc Intl", "metar": "METAR VVPQ 122300Z 19006KT 9999 SCT015 BKN040 27/27 Q1008 NOSIG", "speci": null, "taf": "TAF VVPQ 112300Z 1200/1224 25015KT 9999 SCT015 SCT040 TEMPO 1205/1208 26015G28KT 3000 TSRA SCT013 FEW015CB SCT040 TEMPO 1214/1218 25015G29KT 3000 TSRA SCT013 SCT015CB BKN040", "raw": "METAR VVPQ 122300Z 19006KT 9999 SCT015 BKN040 27/27 Q1008 NOSIG", "fltcat": "VFR", "wind": "190° @ 6 kt", "vis": ">10 km", "clouds": "SCT015 BKN040", "temp": 27, "dewp": 27, "qnh": "1008 hPa"}, {"icao": "VVRG", "name": "Rach Gia", "metar": "METAR VVRG 122300Z 21006KT 8000 -RA SCT013 FEW015CB OVC040 24/23 Q1007 NOSIG", "speci": null, "taf": "TAF VVRG 122000Z 1221/1306 24007KT 9999 SCT013 SCT040 TEMPO 1222/1303 24015G28KT 3000 TSRA SCT013 SCT015CB BKN040 TEMPO 1303/1306 5000 TSRA SCT013 FEW015CB BKN040", "raw": "METAR VVRG 122300Z 21006KT 8000 -RA SCT013 FEW015CB OVC040 24/23 Q1007 NOSIG", "fltcat": "MVFR", "wind": "210° @ 6 kt", "vis": "8.0 km", "clouds": "SCT013 FEW015 OVC040", "temp": 24, "dewp": 23, "qnh": "1007 hPa"}, {"icao": "VVTH", "name": "Dong Tac — Tuy Hoa", "metar": "METAR VVTH 122300Z 24010KT 200V270 CAVOK 29/23 Q1004 NOSIG", "speci": null, "taf": "TAF VVTH 122000Z 1221/1306 22010KT 9999 FEW017 SCT050 TEMPO 1300/1306 22015G25KT", "raw": "METAR VVTH 122300Z 24010KT 200V270 CAVOK 29/23 Q1004 NOSIG", "fltcat": "VFR", "wind": "240° @ 10 kt", "vis": "CAVOK", "clouds": "NSC", "temp": 29, "dewp": 23, "qnh": "1004 hPa"}, {"icao": "VVTS", "name": "Tan Son Nhat — Ho Chi Minh City", "metar": "METAR VVTS 122300Z 21007KT 9999 FEW043 26/24 Q1007 NOSIG", "speci": null, "taf": "TAF VVTS 112300Z 1200/1306 25008KT 9999 SCT017 SCT040 TEMPO 1205/1209 25015G26KT 3000 TSRA SCT015 SCT017CB BKN040", "raw": "METAR VVTS 122300Z 21007KT 9999 FEW043 26/24 Q1007 NOSIG", "fltcat": "VFR", "wind": "210° @ 7 kt", "vis": ">10 km", "clouds": "FEW043", "temp": 26, "dewp": 24, "qnh": "1007 hPa", "atis": [{"kind": "ARR", "time": "2026-07-12 22:32 UTC", "text": "VVTS ARR ATIS M 1021Z VVTS INFO M 1021Z. ILSW APCH IN RWY 25R.. LDG RWY 25R AND DEP RWY 25L.. 1021Z. WIND RWY 25R TDZ 260/8KT MAX14 MNM4 VIS RWY 25R TDZ 10KM CLD RWY 25R SCT 1700FT FEW CB 1900FT BKN 5000FT T27 DP24 QNH 1007HPA CB IN APCH TREND NOSIG. ADZ ON INITIAL CTC YOU HAVE INFO M."}, {"kind": "DEP", "time": "2026-07-10 22:52 UTC", "text": "VVTS DEP ATIS Z 1835Z VVTS INFO Z 1835Z. ILSW APCH IN RWY 25R.. LDG RWY 25R AND DEP RWY 25L.. 1830Z. WIND RWY 25L TDZ 200/5KT MID 200/6KT END 200/4KT MAX10 MNM2 VRB BTN 160/ AND 300/ RWY 25R TDZ 200/5KT END 200/6KT MAX12 MNM4 VRB BTN 180/ AND 270/ VIS RWY 25L TDZ 10KM MID 10KM END 10KM RWY 25R TDZ 10KM MID 10KM END 10KM CLD RWY 25L SCT 3500FT RWY 25R FEW 3500FT T29 DP26 QNH 1010HPA TREND NOSIG. ADZ ON INITIAL CTC YOU HAVE INFO Z."}]}, {"icao": "VVTX", "name": "Tho Xuan — Thanh Hoa", "metar": "METAR VVTX 122300Z 31004KT 9999 FEW025 26/24 Q1001 NOSIG", "speci": null, "taf": "TAF VVTX 122000Z 1221/1306 VRB02KT 6000 FEW020 TEMPO 1301/1306 4000 SHRA SCT010 FEW025TCU", "raw": "METAR VVTX 122300Z 31004KT 9999 FEW025 26/24 Q1001 NOSIG", "fltcat": "VFR", "wind": "310° @ 4 kt", "vis": ">10 km", "clouds": "FEW025", "temp": 26, "dewp": 24, "qnh": "1001 hPa"}, {"icao": "VVVD", "name": "Van Don — Quang Ninh", "metar": "METAR VVVD 122300Z 02001KT CAVOK 27/27 Q1002 NOSIG", "speci": null, "taf": "TAF AMD VVVD 122200Z 1222/1318 09005KT 9999 FEW020 TEMPO 1304/1307 4000 TSRA SCT010 FEW027CB", "raw": "METAR VVVD 122300Z 02001KT CAVOK 27/27 Q1002 NOSIG", "fltcat": "VFR", "wind": "020° @ 1 kt", "vis": "CAVOK", "clouds": "NSC", "temp": 27, "dewp": 27, "qnh": "1002 hPa"}, {"icao": "VVVH", "name": "Vinh", "metar": "METAR VVVH 122300Z 29003KT 250V320 9999 SCT017 27/23 Q1001 NOSIG", "speci": null, "taf": "TAF VVVH 112300Z 1200/1218 25005KT 9999 FEW020 TEMPO 1208/1212 3000 TSRA SCT010 FEW027CB", "raw": "METAR VVVH 122300Z 29003KT 250V320 9999 SCT017 27/23 Q1001 NOSIG", "fltcat": "VFR", "wind": "290° @ 3 kt", "vis": ">10 km", "clouds": "SCT017", "temp": 27, "dewp": 23, "qnh": "1001 hPa"}]}