{"updated": "2026-07-14T11:02:28+00:00", "source": "VN MET", "stations": [{"icao": "VVBM", "name": "Buon Ma Thuot", "metar": "METAR VVBM 141030Z 27004KT 230V290 9999 SCT013 FEW015CB 27/23 Q1009 NOSIG", "speci": null, "taf": "TAF VVBM 132300Z 1400/1424 24006KT 9999 SCT013 BKN040 TEMPO 1408/1411 3000 TSRA BKN010 FEW013CB TEMPO 1411/1414 5000 SHRA SCT013 FEW015CB BKN040", "raw": "METAR VVBM 141030Z 27004KT 230V290 9999 SCT013 FEW015CB 27/23 Q1009 NOSIG", "fltcat": "VFR", "wind": "270° @ 4 kt", "vis": ">10 km", "clouds": "SCT013 FEW015", "temp": 27, "dewp": 23, "qnh": "1009 hPa"}, {"icao": "VVCA", "name": "Chu Lai", "metar": "METAR VVCA 141100Z 18004KT 9999 SCT050 31/24 Q1003 NOSIG", "speci": null, "taf": "TAF VVCA 140800Z 1409/1418 10008KT 9999 FEW020 SCT050 TEMPO 1410/1412 TS SCT013 FEW015CB SCT050", "raw": "METAR VVCA 141100Z 18004KT 9999 SCT050 31/24 Q1003 NOSIG", "fltcat": "VFR", "wind": "180° @ 4 kt", "vis": ">10 km", "clouds": "SCT050", "temp": 31, "dewp": 24, "qnh": "1003 hPa"}, {"icao": "VVCI", "name": "Cat Bi — Hai Phong", "metar": "METAR VVCI 141100Z 17010KT 9999 FEW027CB 31/27 Q1001 NOSIG", "speci": null, "taf": "TAF VVCI 132300Z 1400/1424 11006KT 9999 FEW020 TEMPO 1420/1424 4000 TSRA SCT015 FEW027CB", "raw": "METAR VVCI 141100Z 17010KT 9999 FEW027CB 31/27 Q1001 NOSIG", "fltcat": "VFR", "wind": "170° @ 10 kt", "vis": ">10 km", "clouds": "FEW027", "temp": 31, "dewp": 27, "qnh": "1001 hPa"}, {"icao": "VVCR", "name": "Cam Ranh — Nha Trang", "metar": "METAR VVCR 141100Z 19013KT CAVOK 31/25 Q1006 NOSIG", "speci": null, "taf": "TAF VVCR 132300Z 1400/1424 19012KT 9999 FEW020 TEMPO 1407/1412 TS SCT013 FEW017CB", "raw": "METAR VVCR 141100Z 19013KT CAVOK 31/25 Q1006 NOSIG", "fltcat": "VFR", "wind": "190° @ 13 kt", "vis": "CAVOK", "clouds": "NSC", "temp": 31, "dewp": 25, "qnh": "1006 hPa", "atis": [{"kind": "ARR", "time": "2026-07-13 09:29 UTC", "text": "VVCR ARR ATIS W 1330Z VVCR INFO W 1330Z. ILS YANKEE APPROACH IN USE. LDG RWY 20L AND DPTG RWY 20R.. 1330Z. WIND RWY 20L TDZ 330/3KT VRB BTN 260/ AND 360/ MID 310/3KT VRB BTN 280/ AND 340/ END 320/3KT RWY 20R TDZ 320/1KT CAVOK T29 DP25 QNH 1010HPA TREND NOSIG. ADZ ON INITIAL CTC YOU HAVE INFO W."}, {"kind": "DEP", "time": "2026-05-29 05:57 UTC", "text": "VVCR DEP ATIS S 0533Z VVCR INFO S 0533Z. ILS Z APCH IN USE.. LDG RWY 02R AND DPTG RWY 02L.. 0532Z. WIND RWY 02R TDZ 080/9KT MID 090/8KT END 100/8KT RWY 02L TDZ 080/8KT CAVOK T31 DP26 QNH 1009HPA TREND TEMPO FM0630 VIS 4000M MOD TSRA. ADZ ON INITIAL CTC YOU HAVE INFO S."}]}, {"icao": "VVCS", "name": "Con Dao", "metar": "METAR VVCS 141100Z VRB01KT 9999 FEW017 26/24 Q1008 NOSIG", "speci": null, "taf": "TAF VVCS 132300Z 1400/1409 22012KT 9999 SCT017 SCT040 TEMPO 1401/1406 22015G26KT 4000 TSRA BKN015 FEW017CB BKN040", "raw": "METAR VVCS 141100Z VRB01KT 9999 FEW017 26/24 Q1008 NOSIG", "fltcat": "VFR", "wind": "VRB @ 1 kt", "vis": ">10 km", "clouds": "FEW017", "temp": 26, "dewp": 24, "qnh": "1008 hPa"}, {"icao": "VVCT", "name": "Can Tho Intl", "metar": "METAR VVCT 141100Z 25005KT 9999 SCT015 BKN050 28/26 Q1008 NOSIG", "speci": null, "taf": "TAF VVCT 132300Z 1400/1424 24010KT 9999 SCT015 SCT050 TEMPO 1400/1404 4000 TSRA SCT013 FEW015CB TEMPO 1407/1410 25015G27KT 3000 TSRA BKN013 FEW015CB BKN040", "raw": "METAR VVCT 141100Z 25005KT 9999 SCT015 BKN050 28/26 Q1008 NOSIG", "fltcat": "VFR", "wind": "250° @ 5 kt", "vis": ">10 km", "clouds": "SCT015 BKN050", "temp": 28, "dewp": 26, "qnh": "1008 hPa"}, {"icao": "VVDB", "name": "Dien Bien Phu", "metar": "METAR VVDB 141100Z AUTO 23007KT 190V270 9999 // FEW047/// 31/25 Q1003 RE// NOSIG", "speci": null, "taf": "TAF VVDB 132300Z 1400/1409 VRB02KT 9999 SCT030 TEMPO 1407/1409 4500 TSRA SCT010 FEW027CB", "raw": "METAR VVDB 141100Z AUTO 23007KT 190V270 9999 // FEW047/// 31/25 Q1003 RE// NOSIG", "fltcat": "VFR", "wind": "230° @ 7 kt", "vis": ">10 km", "clouds": "FEW047", "temp": 31, "dewp": 25, "qnh": "1003 hPa"}, {"icao": "VVDH", "name": "Dong Hoi", "metar": "METAR VVDH 141100Z VRB02KT CAVOK 32/24 Q1002 NOSIG", "speci": null, "taf": "TAF VVDH 132300Z 1400/1409 21005KT 9999 FEW030", "raw": "METAR VVDH 141100Z VRB02KT CAVOK 32/24 Q1002 NOSIG", "fltcat": "VFR", "wind": "VRB @ 2 kt", "vis": "CAVOK", "clouds": "NSC", "temp": 32, "dewp": 24, "qnh": "1002 hPa"}, {"icao": "VVDN", "name": "Da Nang Intl", "metar": "METAR VVDN 141100Z 10005KT 060V130 9999 FEW017 31/26 Q1004 NOSIG", "speci": null, "taf": "TAF VVDN 132300Z 1400/1424 22008KT 9999 FEW020 SCT070 BECMG 1404/1405 01010KT TEMPO 1409/1413 TS SCT013 FEW015CB BKN060 BECMG 1413/1414 22006KT", "raw": "METAR VVDN 141100Z 10005KT 060V130 9999 FEW017 31/26 Q1004 NOSIG", "fltcat": "VFR", "wind": "100° @ 5 kt", "vis": ">10 km", "clouds": "FEW017", "temp": 31, "dewp": 26, "qnh": "1004 hPa", "atis": [{"kind": "ARR", "time": "2026-07-14 03:48 UTC", "text": "VVDN ARR ATIS T 1932Z VVDN INFO T 1932Z. ILS VICTOR APPROACH 35L.. DPTG RWY 35R.. 1932Z. WIND 220/05KT CAVOK T27 DP25 QNH 1008HPA TREND NOSIG. ADZ ON INITIAL CTC YOU HAVE INFO. T."}, {"kind": "DEP", "time": "2026-07-12 02:50 UTC", "text": "VVDN DEP ATIS N 0423Z VVDN INFO N 0423Z. ILS VICTOR APPROACH 35L.. DPTG RWY 35R.. 0423Z. WIND 010/02KT CAVOK T36 DP24 QNH 1008HPA TREND NOSIG. WS ALL RWY. ADZ ON INITIAL CTC YOU HAVE INFO. N."}]}, {"icao": "VVNB", "name": "Noi Bai — Ha Noi", "metar": "METAR VVNB 141100Z 13006KT CAVOK 35/24 Q1000 NOSIG", "speci": null, "taf": "TAF VVNB 132300Z 1400/1424 08006KT 9999 FEW025 PROB30 TEMPO 1408/1412 4000 TSRA SCT010 FEW027CB", "raw": "METAR VVNB 141100Z 13006KT CAVOK 35/24 Q1000 NOSIG", "fltcat": "VFR", "wind": "130° @ 6 kt", "vis": "CAVOK", "clouds": "NSC", "temp": 35, "dewp": 24, "qnh": "1000 hPa", "atis": [{"kind": "ARR", "time": "2026-07-14 09:05 UTC", "text": "VVNB ARR ATIS C 0902Z VVNB INFO C 0902Z. ILS X RWY 11L. DPTG RWY 11R AND ARR RWY 11L .. 0902Z. WIND 070/7KT VRB BTN 030/ AND 200/ VIS 10KM RVR RWY 11L TDZ ABV 2000M MID ABV 2000M CLD NSC T37 DP26 QNH 0"}, {"kind": "DEP", "time": "2026-07-14 04:00 UTC", "text": "VVNB DEP ATIS E 1930Z VVNB INFO E 1930Z. ILS X RWY 11L. DPTG RWY 11R AND ARR RWY 11L .. 1930Z. WIND 100/3KT VIS 10KM CLD NSC T27 DP26 QNH 1005HPA TREND NOSIG. RWY CONDITION REPORT 5 5 5.. ADZ ON INITIAL CTC YOU HAVE INFO E."}]}, {"icao": "VVNS", "name": "Na San — Son La", "metar": "METAR VVNS 141000Z /////KT CAVOK 29/23 Q1001 NOSIG", "speci": null, "taf": null, "raw": "METAR VVNS 141000Z /////KT CAVOK 29/23 Q1001 NOSIG", "fltcat": "VFR", "wind": "—", "vis": "CAVOK", "clouds": "NSC", "temp": 29, "dewp": 23, "qnh": "1001 hPa"}, {"icao": "VVPB", "name": "Phu Bai — Hue", "metar": "METAR VVPB 141100Z 21003KT 9999 FEW025 BKN070 33/20 Q1003 NOSIG", "speci": null, "taf": "TAF VVPB 132300Z 1400/1424 20008KT 9999 FEW020 SCT060 BECMG 1406/1407 10010KT TEMPO 1408/1412 TS SCT012 FEW015CB BKN050 BECMG 1412/1413 20006KT", "raw": "METAR VVPB 141100Z 21003KT 9999 FEW025 BKN070 33/20 Q1003 NOSIG", "fltcat": "VFR", "wind": "210° @ 3 kt", "vis": ">10 km", "clouds": "FEW025 BKN070", "temp": 33, "dewp": 20, "qnh": "1003 hPa"}, {"icao": "VVPC", "name": "Phu Cat — Quy Nhon", "metar": "METAR VVPC 141100Z 19005KT 170V240 9999 FEW025 31/23 Q1005 NOSIG", "speci": null, "taf": "TAF VVPC 132300Z 1400/1424 20006KT 9999 FEW020 SCT070 TEMPO 1401/1408 24015G25KT TEMPO 1408/1412 TS SCT013 FEW015CB BKN060", "raw": "METAR VVPC 141100Z 19005KT 170V240 9999 FEW025 31/23 Q1005 NOSIG", "fltcat": "VFR", "wind": "190° @ 5 kt", "vis": ">10 km", "clouds": "FEW025", "temp": 31, "dewp": 23, "qnh": "1005 hPa"}, {"icao": "VVPK", "name": "Pleiku", "metar": "METAR VVPK 141100Z 25005KT 9999 VCTS FEW020 FEW023CB SCT050 24/22 Q1011 TEMPO 25015G25KT 4000 TSRA", "speci": null, "taf": "TAF AMD VVPK 140100Z 1401/1424 26010KT 2000 RA BR BKN002 BKN004 BECMG 1401/1402 4000 RA BR BKN004 BKN008 BECMG 1402/1403 8000 NSW SCT013 TEMPO 1403/1406 25015G25KT TEMPO 1408/1412 27015G27KT 3500 TSRA BKN010 FEW015CB BKN050 TEMPO 1422/1424 0800 FG VV002", "raw": "METAR VVPK 141100Z 25005KT 9999 VCTS FEW020 FEW023CB SCT050 24/22 Q1011 TEMPO 25015G25KT 4000 TSRA", "fltcat": "VFR", "wind": "250° @ 5 kt", "vis": ">10 km", "clouds": "FEW020 FEW023 SCT050", "temp": 24, "dewp": 22, "qnh": "1011 hPa"}, {"icao": "VVPQ", "name": "Phu Quoc Intl", "metar": "METAR VVPQ 141100Z 28008KT 7000 TSRA SCT013 FEW017CB 27/26 Q1009 NOSIG", "speci": null, "taf": "TAF VVPQ 132300Z 1400/1424 27010KT 9999 SCT015 SCT040 TEMPO 1400/1403 3000 TSRA BKN013 FEW015CB BKN040 TEMPO 1403/1407 28020G30KT 2000 +TSRA SCT013 SCT015CB BKN040 TEMPO 1407/1410 5000 SHRA SCT013 FEW015CB BKN040", "raw": "METAR VVPQ 141100Z 28008KT 7000 TSRA SCT013 FEW017CB 27/26 Q1009 NOSIG", "fltcat": "MVFR", "wind": "280° @ 8 kt", "vis": "7.0 km", "clouds": "SCT013 FEW017", "temp": 27, "dewp": 26, "qnh": "1009 hPa"}, {"icao": "VVRG", "name": "Rach Gia", "metar": "METAR VVRG 141100Z 25005KT 220V280 9999 FEW015 SCT050 27/24 Q1008 NOSIG", "speci": null, "taf": "TAF VVRG 132300Z 1400/1409 23009KT 9999 SCT013 SCT040 TEMPO 1400/1403 4000 TSRA SCT013 FEW015CB BKN040", "raw": "METAR VVRG 141100Z 25005KT 220V280 9999 FEW015 SCT050 27/24 Q1008 NOSIG", "fltcat": "VFR", "wind": "250° @ 5 kt", "vis": ">10 km", "clouds": "FEW015 SCT050", "temp": 27, "dewp": 24, "qnh": "1008 hPa"}, {"icao": "VVTH", "name": "Dong Tac — Tuy Hoa", "metar": "METAR VVTH 141030Z 24006KT 230V290 CAVOK 28/24 Q1005 NOSIG", "speci": null, "taf": "TAF VVTH 140800Z 1409/1418 24009KT 9999 FEW020 SCT060 TEMPO 1410/1412 TS SCT013 FEW015CB SCT050", "raw": "METAR VVTH 141030Z 24006KT 230V290 CAVOK 28/24 Q1005 NOSIG", "fltcat": "VFR", "wind": "240° @ 6 kt", "vis": "CAVOK", "clouds": "NSC", "temp": 28, "dewp": 24, "qnh": "1005 hPa"}, {"icao": "VVTS", "name": "Tan Son Nhat — Ho Chi Minh City", "metar": "METAR VVTS 141100Z 26011KT CAVOK 30/24 Q1008 NOSIG", "speci": null, "taf": "TAF VVTS 132300Z 1400/1506 24010KT 9999 SCT017 TEMPO 1402/1405 24015G25KT 5000 TSRA BKN015 FEW017CB TEMPO 1405/1410 24018G30KT 2500 +TSRA BKN015 SCT017CB", "raw": "METAR VVTS 141100Z 26011KT CAVOK 30/24 Q1008 NOSIG", "fltcat": "VFR", "wind": "260° @ 11 kt", "vis": "CAVOK", "clouds": "NSC", "temp": 30, "dewp": 24, "qnh": "1008 hPa", "atis": [{"kind": "ARR", "time": "2026-07-14 09:44 UTC", "text": "VVTS ARR ATIS K 2200Z VVTS INFO K 2200Z. ILSW APCH IN RWY 25R.. LDG RWY 25R AND DEP RWY 25L.. 2200Z. WIND RWY 25R TDZ VRB BTN 250/ AND 310/2KT CAVOK T27 DP26 QNH 1009HPA TREND NOSIG. ADZ ON INITIAL CTC YOU HAVE INFO K."}, {"kind": "DEP", "time": "2026-07-14 04:23 UTC", "text": "VVTS DEP ATIS F 1930Z VVTS INFO F 1930Z. ILSW APCH IN RWY 25R.. LDG RWY 25R AND DEP RWY 25L.. 1930Z. WIND RWY 25R TDZ 240/5KT VRB BTN 200/ AND 290/ CAVOK T28 DP26 QNH 1009HPA TREND NOSIG. ADZ ON INITIAL CTC YOU HAVE INFO F."}]}, {"icao": "VVTX", "name": "Tho Xuan — Thanh Hoa", "metar": "METAR VVTX 141100Z 32008KT 9999 FEW027CB BKN040 26/23 Q1001 NOSIG", "speci": null, "taf": "TAF VVTX 140800Z 1409/1418 20006KT 9999 SCT020 TEMPO 1409/1413 4000 TSRA SCT012 FEW027CB", "raw": "METAR VVTX 141100Z 32008KT 9999 FEW027CB BKN040 26/23 Q1001 NOSIG", "fltcat": "VFR", "wind": "320° @ 8 kt", "vis": ">10 km", "clouds": "FEW027 BKN040", "temp": 26, "dewp": 23, "qnh": "1001 hPa"}, {"icao": "VVVD", "name": "Van Don — Quang Ninh", "metar": "METAR VVVD 141100Z AUTO 14004KT 9999 FEW073/// 31/27 Q1001", "speci": null, "taf": "TAF VVVD 132300Z 1400/1424 21005KT 9999 FEW025 TEMPO 1419/1424 3500 TSRA SCT015 FEW027CB", "raw": "METAR VVVD 141100Z AUTO 14004KT 9999 FEW073/// 31/27 Q1001", "fltcat": "VFR", "wind": "140° @ 4 kt", "vis": ">10 km", "clouds": "FEW073", "temp": 31, "dewp": 27, "qnh": "1001 hPa"}, {"icao": "VVVH", "name": "Vinh", "metar": "METAR VVVH 141100Z 23006KT 170V280 9999 FEW040 33/22 Q1001 NOSIG", "speci": null, "taf": "TAF VVVH 132300Z 1400/1424 23005KT 9999 FEW020", "raw": "METAR VVVH 141100Z 23006KT 170V280 9999 FEW040 33/22 Q1001 NOSIG", "fltcat": "VFR", "wind": "230° @ 6 kt", "vis": ">10 km", "clouds": "FEW040", "temp": 33, "dewp": 22, "qnh": "1001 hPa"}]}