{"updated": "2026-07-17T13:00:45+00:00", "source": "VN MET", "stations": [{"icao": "VVBM", "name": "Buon Ma Thuot", "metar": "METAR VVBM 171300Z 27003KT 240V300 9999 SCT013 24/22 Q1012 NOSIG", "speci": null, "taf": "TAF VVBM 171100Z 1712/1812 27008KT 9999 SCT013 SCT040 TEMPO 1712/1716 25015G27KT 4000 TSRA BKN013 FEW015CB BKN040", "raw": "METAR VVBM 171300Z 27003KT 240V300 9999 SCT013 24/22 Q1012 NOSIG", "fltcat": "VFR", "wind": "270° @ 3 kt", "vis": ">10 km", "clouds": "SCT013", "temp": 24, "dewp": 22, "qnh": "1012 hPa"}, {"icao": "VVCA", "name": "Chu Lai", "metar": "METAR VVCA 171300Z AUTO 18005KT 9999 FEW082/// 31/23 Q1005", "speci": null, "taf": "TAF VVCA 162300Z 1700/1709 21007KT 9999 FEW020 SCT060 BECMG 1703/1704 08011KT", "raw": "METAR VVCA 171300Z AUTO 18005KT 9999 FEW082/// 31/23 Q1005", "fltcat": "VFR", "wind": "180° @ 5 kt", "vis": ">10 km", "clouds": "FEW082", "temp": 31, "dewp": 23, "qnh": "1005 hPa"}, {"icao": "VVCI", "name": "Cat Bi — Hai Phong", "metar": "METAR VVCI 171300Z 19007KT CAVOK 31/26 Q1001 NOSIG", "speci": null, "taf": "TAF VVCI 171100Z 1712/1812 21006KT 9999 FEW030 TEMPO 1723/1803 4000 SHRA SCT012 FEW025TCU", "raw": "METAR VVCI 171300Z 19007KT CAVOK 31/26 Q1001 NOSIG", "fltcat": "VFR", "wind": "190° @ 7 kt", "vis": "CAVOK", "clouds": "NSC", "temp": 31, "dewp": 26, "qnh": "1001 hPa"}, {"icao": "VVCR", "name": "Cam Ranh — Nha Trang", "metar": "METAR VVCR 171230Z 36004KT CAVOK 30/25 Q1008 NOSIG", "speci": null, "taf": "TAF VVCR 171100Z 1712/1812 11010KT 9999 FEW017 BECMG 1712/1713 20008KT BECMG 1803/1804 10010KT", "raw": "METAR VVCR 171230Z 36004KT CAVOK 30/25 Q1008 NOSIG", "fltcat": "VFR", "wind": "360° @ 4 kt", "vis": "CAVOK", "clouds": "NSC", "temp": 30, "dewp": 25, "qnh": "1008 hPa", "atis": [{"kind": "ARR", "time": "2026-07-13 09:29 UTC", "text": "VVCR ARR ATIS W 1330Z VVCR INFO W 1330Z. ILS YANKEE APPROACH IN USE. LDG RWY 20L AND DPTG RWY 20R.. 1330Z. WIND RWY 20L TDZ 330/3KT VRB BTN 260/ AND 360/ MID 310/3KT VRB BTN 280/ AND 340/ END 320/3KT RWY 20R TDZ 320/1KT CAVOK T29 DP25 QNH 1010HPA TREND NOSIG. ADZ ON INITIAL CTC YOU HAVE INFO W."}, {"kind": "DEP", "time": "2026-05-29 05:57 UTC", "text": "VVCR DEP ATIS S 0533Z VVCR INFO S 0533Z. ILS Z APCH IN USE.. LDG RWY 02R AND DPTG RWY 02L.. 0532Z. WIND RWY 02R TDZ 080/9KT MID 090/8KT END 100/8KT RWY 02L TDZ 080/8KT CAVOK T31 DP26 QNH 1009HPA TREND TEMPO FM0630 VIS 4000M MOD TSRA. ADZ ON INITIAL CTC YOU HAVE INFO S."}]}, {"icao": "VVCT", "name": "Can Tho Intl", "metar": "METAR VVCT 171230Z 25003KT 9999 FEW013 FEW015CB SCT050 28/25 Q1010 NOSIG", "speci": null, "taf": "TAF VVCT 171100Z 1712/1812 26008KT 9999 SCT013 TEMPO 1712/1715 5000 TSRA BKN013 FEW015CB TEMPO 1807/1810 5000 TSRA SCT013 FEW015CB", "raw": "METAR VVCT 171230Z 25003KT 9999 FEW013 FEW015CB SCT050 28/25 Q1010 NOSIG", "fltcat": "VFR", "wind": "250° @ 3 kt", "vis": ">10 km", "clouds": "FEW013 FEW015 SCT050", "temp": 28, "dewp": 25, "qnh": "1010 hPa"}, {"icao": "VVDB", "name": "Dien Bien Phu", "metar": "METAR VVDB 171230Z VRB02KT 9999 -RA SCT019 BKN028 OVC033 24/23 Q1006 NOSIG", "speci": null, "taf": "TAF VVDB 162300Z 1700/1709 14005KT 8000 -RA SCT020 BKN030 TEMPO 1700/1705 2500 +SHRA SCT012 FEW025TCU BKN030", "raw": "METAR VVDB 171230Z VRB02KT 9999 -RA SCT019 BKN028 OVC033 24/23 Q1006 NOSIG", "fltcat": "MVFR", "wind": "VRB @ 2 kt", "vis": ">10 km", "clouds": "SCT019 BKN028 OVC033", "temp": 24, "dewp": 23, "qnh": "1006 hPa"}, {"icao": "VVDH", "name": "Dong Hoi", "metar": "METAR VVDH 171300Z VRB02KT CAVOK 31/24 Q1004 NOSIG", "speci": null, "taf": "TAF VVDH 162300Z 1700/1709 21010KT 9999 FEW030 TEMPO 1700/1704 3000 TSRA SCT010 FEW027CB", "raw": "METAR VVDH 171300Z VRB02KT CAVOK 31/24 Q1004 NOSIG", "fltcat": "VFR", "wind": "VRB @ 2 kt", "vis": "CAVOK", "clouds": "NSC", "temp": 31, "dewp": 24, "qnh": "1004 hPa"}, {"icao": "VVDN", "name": "Da Nang Intl", "metar": "METAR VVDN 171230Z 10006KT 9999 FEW020 31/26 Q1006 NOSIG", "speci": null, "taf": "TAF VVDN 171100Z 1712/1812 15010KT 9999 FEW020 BECMG 1713/1714 22008KT BECMG 1804/1805 36010KT", "raw": "METAR VVDN 171230Z 10006KT 9999 FEW020 31/26 Q1006 NOSIG", "fltcat": "VFR", "wind": "100° @ 6 kt", "vis": ">10 km", "clouds": "FEW020", "temp": 31, "dewp": 26, "qnh": "1006 hPa", "atis": [{"kind": "ARR", "time": "2026-07-17 12:03 UTC", "text": "VVDN ARR ATIS S 1202Z VVDN INFO S 1202Z. ILS VICTOR APPROACH 35R. DPTG RWY 35R.. 1202Z. WIND 110/06KT CAVOK T31 DP25 QNH 1005HPA TREND NOSIG. ADZ ON INITIAL CTC YOU HAVE INFO. S."}, {"kind": "DEP", "time": "2026-07-12 02:50 UTC", "text": "VVDN DEP ATIS N 0423Z VVDN INFO N 0423Z. ILS VICTOR APPROACH 35L.. DPTG RWY 35R.. 0423Z. WIND 010/02KT CAVOK T36 DP24 QNH 1008HPA TREND NOSIG. WS ALL RWY. ADZ ON INITIAL CTC YOU HAVE INFO. N."}]}, {"icao": "VVNB", "name": "Noi Bai — Ha Noi", "metar": "METAR VVNB 171300Z 24004KT 190V270 CAVOK 32/24 Q1000 NOSIG", "speci": null, "taf": "TAF VVNB 171100Z 1712/1812 24007KT 9999 FEW025 TEMPO 1722/1802 4000 SHRA SCT012 FEW025TCU", "raw": "METAR VVNB 171300Z 24004KT 190V270 CAVOK 32/24 Q1000 NOSIG", "fltcat": "VFR", "wind": "240° @ 4 kt", "vis": "CAVOK", "clouds": "NSC", "temp": 32, "dewp": 24, "qnh": "1000 hPa", "atis": [{"kind": "ARR", "time": "2026-07-17 12:09 UTC", "text": "VVNB ARR ATIS K 2300Z VVNB INFO K 2300Z. ILS X RWY 11L. DPTG RWY 11R AND ARR RWY 11L .. 2300Z. WIND 090/3KT CAVOK T28 DP27 QNH 1000HPA TREND NOSIG. ADZ ON INITIAL CTC YOU HAVE INFO K."}, {"kind": "DEP", "time": "2026-07-16 02:01 UTC", "text": "VVNB DEP ATIS K 1100Z VVNB INFO K 1100Z. ILS X RWY 11L. DPTG RWY 11R AND ARR RWY 11L .. 1100Z. WIND 200/6KT CAVOK T34 DP25 QNH 1001HPA TREND NOSIG. ADZ ON INITIAL CTC YOU HAVE INFO K."}]}, {"icao": "VVPB", "name": "Phu Bai — Hue", "metar": "METAR VVPB 171230Z 10003KT 9999 FEW020 31/25 Q1005 NOSIG", "speci": null, "taf": "TAF VVPB 171100Z 1712/1812 10010KT 9999 FEW020 BECMG 1712/1713 23008KT BECMG 1805/1806 08010KT", "raw": "METAR VVPB 171230Z 10003KT 9999 FEW020 31/25 Q1005 NOSIG", "fltcat": "VFR", "wind": "100° @ 3 kt", "vis": ">10 km", "clouds": "FEW020", "temp": 31, "dewp": 25, "qnh": "1005 hPa"}, {"icao": "VVPC", "name": "Phu Cat — Quy Nhon", "metar": "METAR VVPC 171230Z 23011KT CAVOK 31/22 Q1006 NOSIG", "speci": null, "taf": "TAF VVPC 171100Z 1712/1812 22010KT 9999 FEW020", "raw": "METAR VVPC 171230Z 23011KT CAVOK 31/22 Q1006 NOSIG", "fltcat": "VFR", "wind": "230° @ 11 kt", "vis": "CAVOK", "clouds": "NSC", "temp": 31, "dewp": 22, "qnh": "1006 hPa"}, {"icao": "VVPK", "name": "Pleiku", "metar": "METAR VVPK 171300Z 24009KT 9999 SCT007 BKN020 23/21 Q1014 NOSIG", "speci": null, "taf": "TAF VVPK 171100Z 1712/1812 24010KT 9999 SCT015 TEMPO 1722/1801 2500 RA BR BKN003 BKN005", "raw": "METAR VVPK 171300Z 24009KT 9999 SCT007 BKN020 23/21 Q1014 NOSIG", "fltcat": "MVFR", "wind": "240° @ 9 kt", "vis": ">10 km", "clouds": "SCT007 BKN020", "temp": 23, "dewp": 21, "qnh": "1014 hPa"}, {"icao": "VVPQ", "name": "Phu Quoc Intl", "metar": "METAR VVPQ 171230Z 27004KT 9999 SCT015 28/28 Q1010 NOSIG", "speci": null, "taf": "TAF VVPQ 171100Z 1712/1812 26007KT 9999 SCT015 PROB30 TEMPO 1712/1716 26015G25KT 4000 TSRA SCT015 FEW017CB BKN040 TEMPO 1720/1724 TS SCT015 FEW017CB BKN040", "raw": "METAR VVPQ 171230Z 27004KT 9999 SCT015 28/28 Q1010 NOSIG", "fltcat": "VFR", "wind": "270° @ 4 kt", "vis": ">10 km", "clouds": "SCT015", "temp": 28, "dewp": 28, "qnh": "1010 hPa"}, {"icao": "VVTH", "name": "Dong Tac — Tuy Hoa", "metar": "METAR VVTH 171230Z 24006KT 200V270 9999 FEW015 30/22 Q1007 NOSIG", "speci": null, "taf": "TAF VVTH 162300Z 1700/1709 25013KT 9999 FEW020", "raw": "METAR VVTH 171230Z 24006KT 200V270 9999 FEW015 30/22 Q1007 NOSIG", "fltcat": "VFR", "wind": "240° @ 6 kt", "vis": ">10 km", "clouds": "FEW015", "temp": 30, "dewp": 22, "qnh": "1007 hPa"}, {"icao": "VVTS", "name": "Tan Son Nhat — Ho Chi Minh City", "metar": "METAR VVTS 171300Z 25009KT 9999 FEW020 SCT037 30/25 Q1009 NOSIG", "speci": null, "taf": "TAF VVTS 171100Z 1712/1818 26010KT 9999 SCT017 PROB40 TEMPO 1712/1715 5000 TSRA BKN015 FEW017CB TEMPO 1805/1810 5000 TSRA BKN015 FEW017CB", "raw": "METAR VVTS 171300Z 25009KT 9999 FEW020 SCT037 30/25 Q1009 NOSIG", "fltcat": "VFR", "wind": "250° @ 9 kt", "vis": ">10 km", "clouds": "FEW020 SCT037", "temp": 30, "dewp": 25, "qnh": "1009 hPa", "atis": [{"kind": "ARR", "time": "2026-07-17 05:11 UTC", "text": "VVTS ARR ATIS B 1930Z VVTS INFO B 1930Z. ILSW APCH IN RWY 25R.. LDG RWY 25R AND DEP RWY 25L.. 1930Z. WIND RWY 25R TDZ 240/8KT MAX14 MNM5 CAVOK T29 DP27 QNH 1007HPA TREND NOSIG. ADZ ON INITIAL CTC YOU HAVE INFO B."}, {"kind": "DEP", "time": "2026-07-17 01:54 UTC", "text": "VVTS DEP ATIS Z 1830Z VVTS INFO Z 1830Z. ILSW APCH IN RWY 25R.. LDG RWY 25R AND DEP RWY 25L.. 1830Z. WIND RWY 25L TDZ 240/10KT MAX15 MNM7 MID 230/11KT MAX17 MNM8 END 240/11KT MAX16 MNM5 VRB BTN 210/ AND 270/ RWY 25R TDZ 240/10KT MAX15 MNM7 END 230/11KT VIS 10KM CLD NSC T29 DP27 QNH 1007HPA TREND NOSIG. ADZ ON INITIAL CTC YOU HAVE INFO Z."}]}, {"icao": "VVTX", "name": "Tho Xuan — Thanh Hoa", "metar": "METAR VVTX 171300Z 17004KT CAVOK 29/24 Q1001 NOSIG", "speci": null, "taf": "TAF VVTX 162300Z 1700/1709 24008KT 9999 FEW030 TEMPO 1702/1706 4000 SHRA SCT015 FEW025TCU", "raw": "METAR VVTX 171300Z 17004KT CAVOK 29/24 Q1001 NOSIG", "fltcat": "VFR", "wind": "170° @ 4 kt", "vis": "CAVOK", "clouds": "NSC", "temp": 29, "dewp": 24, "qnh": "1001 hPa"}, {"icao": "VVVD", "name": "Van Don — Quang Ninh", "metar": "METAR VVVD 171300Z AUTO 20007KT 170V230 9999 SCT049/// 31/27 Q1002", "speci": null, "taf": "TAF VVVD 171100Z 1712/1812 22008KT 9999 FEW025 TEMPO 1723/1803 4000 SHRA SCT012 FEW025TCU", "raw": "METAR VVVD 171300Z AUTO 20007KT 170V230 9999 SCT049/// 31/27 Q1002", "fltcat": "VFR", "wind": "200° @ 7 kt", "vis": ">10 km", "clouds": "SCT049", "temp": 31, "dewp": 27, "qnh": "1002 hPa"}, {"icao": "VVVH", "name": "Vinh", "metar": "METAR VVVH 171200Z 24004KT 170V340 CAVOK 31/21 Q1002 NOSIG", "speci": null, "taf": "TAF VVVH 171100Z 1712/1812 26008KT 9999 FEW025", "raw": "METAR VVVH 171200Z 24004KT 170V340 CAVOK 31/21 Q1002 NOSIG", "fltcat": "VFR", "wind": "240° @ 4 kt", "vis": "CAVOK", "clouds": "NSC", "temp": 31, "dewp": 21, "qnh": "1002 hPa"}]}