{"updated": "2026-07-15T02:03:13+00:00", "source": "VN MET", "stations": [{"icao": "VVBM", "name": "Buon Ma Thuot", "metar": "METAR VVBM 150200Z 20006KT 150V240 9999 SCT015 BKN040 26/23 Q1014 NOSIG", "speci": null, "taf": "TAF VVBM 142300Z 1500/1524 24008KT 9999 BKN015 BKN040 TEMPO 1506/1510 26015G26KT 3000 TSRA BKN010 FEW013CB BKN030", "raw": "METAR VVBM 150200Z 20006KT 150V240 9999 SCT015 BKN040 26/23 Q1014 NOSIG", "fltcat": "VFR", "wind": "200° @ 6 kt", "vis": ">10 km", "clouds": "SCT015 BKN040", "temp": 26, "dewp": 23, "qnh": "1014 hPa"}, {"icao": "VVCA", "name": "Chu Lai", "metar": "METAR VVCA 150200Z 30005KT 260V350 9999 FEW020 BKN080 31/24 Q1006 NOSIG", "speci": null, "taf": "TAF VVCA 142300Z 1500/1509 16008KT 9999 FEW020 BKN060", "raw": "METAR VVCA 150200Z 30005KT 260V350 9999 FEW020 BKN080 31/24 Q1006 NOSIG", "fltcat": "VFR", "wind": "300° @ 5 kt", "vis": ">10 km", "clouds": "FEW020 BKN080", "temp": 31, "dewp": 24, "qnh": "1006 hPa"}, {"icao": "VVCI", "name": "Cat Bi — Hai Phong", "metar": "METAR VVCI 150200Z 16004KT 130V200 9999 FEW017 31/27 Q1003 NOSIG", "speci": null, "taf": "TAF VVCI 142300Z 1500/1524 13006KT 9999 FEW020 TEMPO 1500/1504 4000 SHRA SCT015 FEW027CB", "raw": "METAR VVCI 150200Z 16004KT 130V200 9999 FEW017 31/27 Q1003 NOSIG", "fltcat": "VFR", "wind": "160° @ 4 kt", "vis": ">10 km", "clouds": "FEW017", "temp": 31, "dewp": 27, "qnh": "1003 hPa"}, {"icao": "VVCR", "name": "Cam Ranh — Nha Trang", "metar": "METAR VVCR 150200Z 20011KT CAVOK 32/23 Q1010 NOSIG", "speci": null, "taf": "TAF VVCR 142300Z 1500/1524 20013KT 9999 FEW020", "raw": "METAR VVCR 150200Z 20011KT CAVOK 32/23 Q1010 NOSIG", "fltcat": "VFR", "wind": "200° @ 11 kt", "vis": "CAVOK", "clouds": "NSC", "temp": 32, "dewp": 23, "qnh": "1010 hPa", "atis": [{"kind": "ARR", "time": "2026-07-13 09:29 UTC", "text": "VVCR ARR ATIS W 1330Z VVCR INFO W 1330Z. ILS YANKEE APPROACH IN USE. LDG RWY 20L AND DPTG RWY 20R.. 1330Z. WIND RWY 20L TDZ 330/3KT VRB BTN 260/ AND 360/ MID 310/3KT VRB BTN 280/ AND 340/ END 320/3KT RWY 20R TDZ 320/1KT CAVOK T29 DP25 QNH 1010HPA TREND NOSIG. ADZ ON INITIAL CTC YOU HAVE INFO W."}, {"kind": "DEP", "time": "2026-05-29 05:57 UTC", "text": "VVCR DEP ATIS S 0533Z VVCR INFO S 0533Z. ILS Z APCH IN USE.. LDG RWY 02R AND DPTG RWY 02L.. 0532Z. WIND RWY 02R TDZ 080/9KT MID 090/8KT END 100/8KT RWY 02L TDZ 080/8KT CAVOK T31 DP26 QNH 1009HPA TREND TEMPO FM0630 VIS 4000M MOD TSRA. ADZ ON INITIAL CTC YOU HAVE INFO S."}]}, {"icao": "VVCS", "name": "Con Dao", "metar": "METAR VVCS 150200Z VRB07KT 9999 FEW017 31/26 Q1011 NOSIG", "speci": null, "taf": "TAF VVCS 142300Z 1500/1509 22008KT 9999 SCT017 SCT040 TEMPO 1502/1509 24015G28KT 4000 TSRA SCT015 SCT017CB BKN040", "raw": "METAR VVCS 150200Z VRB07KT 9999 FEW017 31/26 Q1011 NOSIG", "fltcat": "VFR", "wind": "VRB @ 7 kt", "vis": ">10 km", "clouds": "FEW017", "temp": 31, "dewp": 26, "qnh": "1011 hPa"}, {"icao": "VVCT", "name": "Can Tho Intl", "metar": "METAR VVCT 150200Z 20004KT 160V250 9999 SCT013 FEW015CB 29/26 Q1012 NOSIG", "speci": null, "taf": "TAF VVCT 142300Z 1500/1524 24008KT 9999 SCT015 BKN050 TEMPO 1502/1504 5000 SHRA SCT015 FEW017CB TEMPO 1506/1510 25015G26KT 3000 TSRA SCT013 SCT015CB", "raw": "METAR VVCT 150200Z 20004KT 160V250 9999 SCT013 FEW015CB 29/26 Q1012 NOSIG", "fltcat": "VFR", "wind": "200° @ 4 kt", "vis": ">10 km", "clouds": "SCT013 FEW015", "temp": 29, "dewp": 26, "qnh": "1012 hPa"}, {"icao": "VVDB", "name": "Dien Bien Phu", "metar": "METAR VVDB 150200Z 18004KT 130V220 9999 FEW018 SCT026 OVC041 27/24 Q1008 NOSIG", "speci": null, "taf": "TAF VVDB 142300Z 1500/1509 VRB02KT 9999 FEW025 TEMPO 1500/1503 3500 SHRA SCT010 FEW020TCU", "raw": "METAR VVDB 150200Z 18004KT 130V220 9999 FEW018 SCT026 OVC041 27/24 Q1008 NOSIG", "fltcat": "VFR", "wind": "180° @ 4 kt", "vis": ">10 km", "clouds": "FEW018 SCT026 OVC041", "temp": 27, "dewp": 24, "qnh": "1008 hPa"}, {"icao": "VVDH", "name": "Dong Hoi", "metar": "METAR VVDH 150200Z 27009KT 210V320 CAVOK 31/23 Q1006 NOSIG", "speci": null, "taf": "TAF VVDH 142300Z 1500/1509 24005KT 9999 FEW030", "raw": "METAR VVDH 150200Z 27009KT 210V320 CAVOK 31/23 Q1006 NOSIG", "fltcat": "VFR", "wind": "270° @ 9 kt", "vis": "CAVOK", "clouds": "NSC", "temp": 31, "dewp": 23, "qnh": "1006 hPa"}, {"icao": "VVDN", "name": "Da Nang Intl", "metar": "METAR VVDN 150200Z 23009KT 9999 FEW017 SCT070 31/22 Q1007 NOSIG", "speci": null, "taf": "TAF VVDN 142300Z 1500/1524 21008KT 9999 FEW020 BKN060 BECMG 1505/1506 02010KT BECMG 1510/1511 21008KT", "raw": "METAR VVDN 150200Z 23009KT 9999 FEW017 SCT070 31/22 Q1007 NOSIG", "fltcat": "VFR", "wind": "230° @ 9 kt", "vis": ">10 km", "clouds": "FEW017 SCT070", "temp": 31, "dewp": 22, "qnh": "1007 hPa", "atis": [{"kind": "ARR", "time": "2026-07-15 00:36 UTC", "text": "VVDN ARR ATIS I 0302Z VVDN INFO I 0302Z. ILS VICTOR APPROACH 35L.. DPTG RWY 35R.. 0302Z. WIND 220/08KT CAVOK T35 DP23 QNH 1008HPA TREND NOSIG. ADZ ON INITIAL CTC YOU HAVE INFO. I."}, {"kind": "DEP", "time": "2026-07-12 02:50 UTC", "text": "VVDN DEP ATIS N 0423Z VVDN INFO N 0423Z. ILS VICTOR APPROACH 35L.. DPTG RWY 35R.. 0423Z. WIND 010/02KT CAVOK T36 DP24 QNH 1008HPA TREND NOSIG. WS ALL RWY. ADZ ON INITIAL CTC YOU HAVE INFO. N."}]}, {"icao": "VVNB", "name": "Noi Bai — Ha Noi", "metar": "METAR VVNB 150200Z 08003KT 020V120 CAVOK 32/26 Q1003 NOSIG", "speci": null, "taf": "TAF VVNB 142300Z 1500/1524 12006KT 9999 FEW025 TEMPO 1503/1507 4000 SHRA SCT012 FEW025TCU", "raw": "METAR VVNB 150200Z 08003KT 020V120 CAVOK 32/26 Q1003 NOSIG", "fltcat": "VFR", "wind": "080° @ 3 kt", "vis": "CAVOK", "clouds": "NSC", "temp": 32, "dewp": 26, "qnh": "1003 hPa", "atis": [{"kind": "ARR", "time": "2026-07-15 01:19 UTC", "text": "VVNB ARR ATIS U 0300Z VVNB INFO U 0300Z. ILS X RWY 11L. DPTG RWY 11R AND ARR RWY 11L .. 0300Z. WIND 060/4KT VIS 9KM CLD NSC T30 DP28 QNH 1005HPA TREND NOSIG. ADZ ON INITIAL CTC YOU HAVE INFO U."}, {"kind": "DEP", "time": "2026-07-14 15:56 UTC", "text": "VVNB DEP ATIS O 0000Z VVNB INFO O 0000Z. ILS X RWY 11L. DPTG RWY 11R AND ARR RWY 11L .. 0000Z. WIND 080/3KT VIS 7KM FBL RA CLD FEW 2700FT T27 DP27 QNH 1004HPA TREND TEMPO VIS 4000M FBL RA BR. ADZ ON INITIAL CTC YOU HAVE INFO O."}]}, {"icao": "VVPB", "name": "Phu Bai — Hue", "metar": "METAR VVPB 150200Z 24008KT 9999 FEW020 SCT070 33/21 Q1006 NOSIG", "speci": null, "taf": "TAF VVPB 142300Z 1500/1524 24007KT 9999 FEW020 SCT060", "raw": "METAR VVPB 150200Z 24008KT 9999 FEW020 SCT070 33/21 Q1006 NOSIG", "fltcat": "VFR", "wind": "240° @ 8 kt", "vis": ">10 km", "clouds": "FEW020 SCT070", "temp": 33, "dewp": 21, "qnh": "1006 hPa"}, {"icao": "VVPC", "name": "Phu Cat — Quy Nhon", "metar": "METAR VVPC 150200Z 24010KT 9999 FEW025 BKN080 31/23 Q1008 NOSIG", "speci": null, "taf": "TAF VVPC 142300Z 1500/1524 26010KT 9999 FEW020 SCT060", "raw": "METAR VVPC 150200Z 24010KT 9999 FEW025 BKN080 31/23 Q1008 NOSIG", "fltcat": "VFR", "wind": "240° @ 10 kt", "vis": ">10 km", "clouds": "FEW025 BKN080", "temp": 31, "dewp": 23, "qnh": "1008 hPa"}, {"icao": "VVPK", "name": "Pleiku", "metar": "METAR VVPK 150200Z 26011KT 230V290 9999 SCT007 BKN012 23/22 Q1014 NOSIG", "speci": null, "taf": "TAF VVPK 142300Z 1500/1524 25012KT 8000 BKN015 TEMPO 1500/1502 3000 RA BR SCT002 BKN004 TEMPO 1503/1507 25015G25KT TEMPO 1507/1512 25015G25KT 4000 TSRA BKN008 FEW015CB BKN050 TEMPO 1522/1524 3000 RA BR BKN002 BKN006", "raw": "METAR VVPK 150200Z 26011KT 230V290 9999 SCT007 BKN012 23/22 Q1014 NOSIG", "fltcat": "MVFR", "wind": "260° @ 11 kt", "vis": ">10 km", "clouds": "SCT007 BKN012", "temp": 23, "dewp": 22, "qnh": "1014 hPa"}, {"icao": "VVPQ", "name": "Phu Quoc Intl", "metar": "METAR VVPQ 150200Z VRB01KT 9999 SCT015 SCT040 26/26 Q1012 NOSIG", "speci": null, "taf": "TAF VVPQ 142300Z 1500/1524 25007KT 9999 SCT015 SCT040 TEMPO 1502/1505 28015G26KT 3000 TSRA SCT013 SCT015CB TEMPO 1505/1507 5000 SHRA SCT015 FEW017CB BKN040", "raw": "METAR VVPQ 150200Z VRB01KT 9999 SCT015 SCT040 26/26 Q1012 NOSIG", "fltcat": "VFR", "wind": "VRB @ 1 kt", "vis": ">10 km", "clouds": "SCT015 SCT040", "temp": 26, "dewp": 26, "qnh": "1012 hPa"}, {"icao": "VVRG", "name": "Rach Gia", "metar": "METAR VVRG 150130Z 27007KT 230V300 3000 TSRA SCT013 FEW015CB OVC040 27/25 Q1012 TEMPO TL0145 27015G25KT 2000 +TSRA", "speci": "SPECI VVRG 150200Z 23004KT 170V260 8000 -RA FEW013 FEW015CB OVC040 26/25 Q1012 NOSIG", "taf": "TAF VVRG 142300Z 1500/1509 25007KT 9999 SCT015 SCT040 TEMPO 1500/1502 4000 TSRA SCT015 FEW017CB TEMPO 1506/1508 3000 TSRA SCT013 FEW015CB BKN040", "raw": "SPECI VVRG 150200Z 23004KT 170V260 8000 -RA FEW013 FEW015CB OVC040 26/25 Q1012 NOSIG", "fltcat": "MVFR", "wind": "230° @ 4 kt", "vis": "8.0 km", "clouds": "FEW013 FEW015 OVC040", "temp": 26, "dewp": 25, "qnh": "1012 hPa"}, {"icao": "VVTH", "name": "Dong Tac — Tuy Hoa", "metar": "METAR VVTH 150200Z 27004KT CAVOK 32/23 Q1009 NOSIG", "speci": null, "taf": "TAF VVTH 142300Z 1500/1509 24012KT 9999 FEW020", "raw": "METAR VVTH 150200Z 27004KT CAVOK 32/23 Q1009 NOSIG", "fltcat": "VFR", "wind": "270° @ 4 kt", "vis": "CAVOK", "clouds": "NSC", "temp": 32, "dewp": 23, "qnh": "1009 hPa"}, {"icao": "VVTS", "name": "Tan Son Nhat — Ho Chi Minh City", "metar": "METAR VVTS 150200Z 23008KT 9999 SCT024 FEW027CB BKN043 31/26 Q1011 NOSIG", "speci": null, "taf": "TAF VVTS 142300Z 1500/1606 25008KT 9999 SCT017 SCT040 TEMPO 1506/1511 24015G28KT 2500 +TSRA SCT015 SCT017CB BKN040", "raw": "METAR VVTS 150200Z 23008KT 9999 SCT024 FEW027CB BKN043 31/26 Q1011 NOSIG", "fltcat": "VFR", "wind": "230° @ 8 kt", "vis": ">10 km", "clouds": "SCT024 FEW027 BKN043", "temp": 31, "dewp": 26, "qnh": "1011 hPa", "atis": [{"kind": "ARR", "time": "2026-07-15 01:59 UTC", "text": "VVTS ARR ATIS V 0330Z VVTS INFO V 0330Z. ILSW APCH IN RWY 25R.. LDG RWY 25R AND DEP RWY 25L.. 0330Z. WIND RWY 25R TDZ 300/4KT MAX09 MNM2 VRB BTN 270/ AND 040/ VIS 10KM CLD FEW 2900FT T33 DP26 QNH 1009HPA TREND NOSIG. ADZ ON INITIAL CTC YOU HAVE INFO V."}, {"kind": "DEP", "time": "2026-07-14 15:01 UTC", "text": "VVTS DEP ATIS O 0000Z VVTS INFO O 0000Z. ILSW APCH IN RWY 25R.. LDG RWY 25R AND DEP RWY 25L.. 0000Z. WIND RWY 25R TDZ 280/3KT VRB BTN 250/ AND 310/ CAVOK T28 DP27 QNH 1010HPA TREND NOSIG. ADZ ON INITIAL CTC YOU HAVE INFO O."}]}, {"icao": "VVTX", "name": "Tho Xuan — Thanh Hoa", "metar": "METAR VVTX 150200Z 29002KT 9999 FEW017 30/24 Q1003 NOSIG", "speci": null, "taf": "TAF VVTX 142300Z 1500/1509 20005KT 9999 FEW030 TEMPO 1505/1509 3500 SHRA SCT010 FEW020TCU", "raw": "METAR VVTX 150200Z 29002KT 9999 FEW017 30/24 Q1003 NOSIG", "fltcat": "VFR", "wind": "290° @ 2 kt", "vis": ">10 km", "clouds": "FEW017", "temp": 30, "dewp": 24, "qnh": "1003 hPa"}, {"icao": "VVVD", "name": "Van Don — Quang Ninh", "metar": "METAR VVVD 150200Z VRB02KT 9999 FEW015 29/28 Q1004 NOSIG", "speci": null, "taf": "TAF VVVD 142300Z 1500/1524 14005KT 9999 FEW025 TEMPO 1500/1503 4000 SHRA SCT015 FEW027CB", "raw": "METAR VVVD 150200Z VRB02KT 9999 FEW015 29/28 Q1004 NOSIG", "fltcat": "VFR", "wind": "VRB @ 2 kt", "vis": ">10 km", "clouds": "FEW015", "temp": 29, "dewp": 28, "qnh": "1004 hPa"}, {"icao": "VVVH", "name": "Vinh", "metar": "METAR VVVH 150200Z 24007KT 190V300 CAVOK 33/22 Q1004 NOSIG", "speci": null, "taf": "TAF VVVH 142300Z 1500/1524 26005KT 9999 FEW025", "raw": "METAR VVVH 150200Z 24007KT 190V300 CAVOK 33/22 Q1004 NOSIG", "fltcat": "VFR", "wind": "240° @ 7 kt", "vis": "CAVOK", "clouds": "NSC", "temp": 33, "dewp": 22, "qnh": "1004 hPa"}]}