{"updated": "2026-07-17T04:31:24+00:00", "source": "VN MET", "stations": [{"icao": "VVBM", "name": "Buon Ma Thuot", "metar": "METAR VVBM 170430Z 27007KT 230V290 9999 BKN013 FEW015CB BKN040 27/22 Q1013 NOSIG", "speci": null, "taf": "TAF VVBM 162300Z 1700/1724 25008KT 9999 SCT015 TEMPO 1709/1711 5000 TSRA BKN013 FEW015CB", "raw": "METAR VVBM 170430Z 27007KT 230V290 9999 BKN013 FEW015CB BKN040 27/22 Q1013 NOSIG", "fltcat": "MVFR", "wind": "270° @ 7 kt", "vis": ">10 km", "clouds": "BKN013 FEW015 BKN040", "temp": 27, "dewp": 22, "qnh": "1013 hPa"}, {"icao": "VVCA", "name": "Chu Lai", "metar": "METAR VVCA 170400Z VRB05KT CAVOK 37/22 Q1005 NOSIG", "speci": null, "taf": "TAF VVCA 170200Z 1703/1712 07010KT 9999 FEW020", "raw": "METAR VVCA 170400Z VRB05KT CAVOK 37/22 Q1005 NOSIG", "fltcat": "VFR", "wind": "VRB @ 5 kt", "vis": "CAVOK", "clouds": "NSC", "temp": 37, "dewp": 22, "qnh": "1005 hPa"}, {"icao": "VVCI", "name": "Cat Bi — Hai Phong", "metar": "METAR VVCI 170430Z 21007KT 150V230 CAVOK 33/24 Q1002 NOSIG", "speci": null, "taf": "TAF VVCI 162300Z 1700/1724 21008KT 9999 FEW020 TEMPO 1702/1706 4000 TSRA SCT010 FEW027CB", "raw": "METAR VVCI 170430Z 21007KT 150V230 CAVOK 33/24 Q1002 NOSIG", "fltcat": "VFR", "wind": "210° @ 7 kt", "vis": "CAVOK", "clouds": "NSC", "temp": 33, "dewp": 24, "qnh": "1002 hPa"}, {"icao": "VVCR", "name": "Cam Ranh — Nha Trang", "metar": "METAR VVCR 170400Z 10007KT 090V150 CAVOK 33/24 Q1009 NOSIG", "speci": null, "taf": "TAF VVCR 162300Z 1700/1724 20008KT 9999 FEW020 BECMG 1703/1704 12010KT TEMPO 1709/1712 TS SCT013 FEW017CB BECMG 1712/1713 22007KT", "raw": "METAR VVCR 170400Z 10007KT 090V150 CAVOK 33/24 Q1009 NOSIG", "fltcat": "VFR", "wind": "100° @ 7 kt", "vis": "CAVOK", "clouds": "NSC", "temp": 33, "dewp": 24, "qnh": "1009 hPa", "atis": [{"kind": "ARR", "time": "2026-07-13 09:29 UTC", "text": "VVCR ARR ATIS W 1330Z VVCR INFO W 1330Z. ILS YANKEE APPROACH IN USE. LDG RWY 20L AND DPTG RWY 20R.. 1330Z. WIND RWY 20L TDZ 330/3KT VRB BTN 260/ AND 360/ MID 310/3KT VRB BTN 280/ AND 340/ END 320/3KT RWY 20R TDZ 320/1KT CAVOK T29 DP25 QNH 1010HPA TREND NOSIG. ADZ ON INITIAL CTC YOU HAVE INFO W."}, {"kind": "DEP", "time": "2026-05-29 05:57 UTC", "text": "VVCR DEP ATIS S 0533Z VVCR INFO S 0533Z. ILS Z APCH IN USE.. LDG RWY 02R AND DPTG RWY 02L.. 0532Z. WIND RWY 02R TDZ 080/9KT MID 090/8KT END 100/8KT RWY 02L TDZ 080/8KT CAVOK T31 DP26 QNH 1009HPA TREND TEMPO FM0630 VIS 4000M MOD TSRA. ADZ ON INITIAL CTC YOU HAVE INFO S."}]}, {"icao": "VVCS", "name": "Con Dao", "metar": "METAR VVCS 170430Z 11004KT 010V160 9999 FEW017 32/25 Q1011 NOSIG", "speci": null, "taf": "TAF VVCS 170200Z 1703/1712 22008KT 9999 SCT017", "raw": "METAR VVCS 170430Z 11004KT 010V160 9999 FEW017 32/25 Q1011 NOSIG", "fltcat": "VFR", "wind": "110° @ 4 kt", "vis": ">10 km", "clouds": "FEW017", "temp": 32, "dewp": 25, "qnh": "1011 hPa"}, {"icao": "VVCT", "name": "Can Tho Intl", "metar": "METAR VVCT 170430Z 27006KT 220V320 9999 BKN013 33/26 Q1011 NOSIG", "speci": null, "taf": "TAF VVCT 162300Z 1700/1724 26010KT 9999 SCT015 SCT040", "raw": "METAR VVCT 170430Z 27006KT 220V320 9999 BKN013 33/26 Q1011 NOSIG", "fltcat": "MVFR", "wind": "270° @ 6 kt", "vis": ">10 km", "clouds": "BKN013", "temp": 33, "dewp": 26, "qnh": "1011 hPa"}, {"icao": "VVDB", "name": "Dien Bien Phu", "metar": "METAR VVDB 170400Z 22004KT 170V270 9999 -RA FEW005 BKN012 OVC022 24/23 Q1007 NOSIG", "speci": null, "taf": "TAF VVDB 170200Z 1703/1712 VRB03KT 6000 SCT025 TEMPO 1703/1707 3500 SHRA SCT015 FEW025TCU", "raw": "METAR VVDB 170400Z 22004KT 170V270 9999 -RA FEW005 BKN012 OVC022 24/23 Q1007 NOSIG", "fltcat": "MVFR", "wind": "220° @ 4 kt", "vis": ">10 km", "clouds": "FEW005 BKN012 OVC022", "temp": 24, "dewp": 23, "qnh": "1007 hPa"}, {"icao": "VVDH", "name": "Dong Hoi", "metar": "METAR VVDH 170430Z 25013KT 220V290 CAVOK 33/23 Q1005 NOSIG", "speci": null, "taf": "TAF VVDH 170200Z 1703/1712 24006KT 9999 FEW030", "raw": "METAR VVDH 170430Z 25013KT 220V290 CAVOK 33/23 Q1005 NOSIG", "fltcat": "VFR", "wind": "250° @ 13 kt", "vis": "CAVOK", "clouds": "NSC", "temp": 33, "dewp": 23, "qnh": "1005 hPa"}, {"icao": "VVDN", "name": "Da Nang Intl", "metar": "METAR VVDN 170400Z VRB09KT 9999 FEW020 36/21 Q1006 NOSIG", "speci": null, "taf": "TAF VVDN 162300Z 1700/1724 23013KT 9999 FEW017 SCT060 TEMPO 1709/1712 TS SCT013 FEW015CB SCT060", "raw": "METAR VVDN 170400Z VRB09KT 9999 FEW020 36/21 Q1006 NOSIG", "fltcat": "VFR", "wind": "VRB @ 9 kt", "vis": ">10 km", "clouds": "FEW020", "temp": 36, "dewp": 21, "qnh": "1006 hPa", "atis": [{"kind": "ARR", "time": "2026-07-17 03:47 UTC", "text": "VVDN ARR ATIS R 1902Z VVDN INFO R 1902Z. ILS VICTOR APPROACH 35L.. DPTG RWY 35R.. 1902Z. WIND 200/02KT CAVOK T28 DP24 QNH 1004HPA TREND NOSIG. ADZ ON INITIAL CTC YOU HAVE INFO. R."}, {"kind": "DEP", "time": "2026-07-12 02:50 UTC", "text": "VVDN DEP ATIS N 0423Z VVDN INFO N 0423Z. ILS VICTOR APPROACH 35L.. DPTG RWY 35R.. 0423Z. WIND 010/02KT CAVOK T36 DP24 QNH 1008HPA TREND NOSIG. WS ALL RWY. ADZ ON INITIAL CTC YOU HAVE INFO. N."}]}, {"icao": "VVNB", "name": "Noi Bai — Ha Noi", "metar": "METAR VVNB 170430Z 26006KT 210V300 CAVOK 32/25 Q1002 NOSIG", "speci": null, "taf": "TAF AMD VVNB 170250Z 1703/1724 24006KT 9999 SCT025 TEMPO 1705/1708 4000 SHRA SCT012 FEW025TCU TEMPO 1711/1715 3500 TSRA SCT010 FEW027CB", "raw": "METAR VVNB 170430Z 26006KT 210V300 CAVOK 32/25 Q1002 NOSIG", "fltcat": "VFR", "wind": "260° @ 6 kt", "vis": "CAVOK", "clouds": "NSC", "temp": 32, "dewp": 25, "qnh": "1002 hPa", "atis": [{"kind": "ARR", "time": "2026-07-17 03:40 UTC", "text": "VVNB ARR ATIS M 0331Z VVNB INFO M 0331Z. ILS X RWY 11L. DPTG RWY 11R AND ARR RWY 11L .. 0330Z. WIND 280/7KT VIS 10KM RVR RWY 11L TDZ ABV 2000M MID ABV 2000M CLD FEW 3100FT T32 DP25 QNH 1002HPA TREND NOSIG. ADZ ON INITIAL CTC YOU HAVE INFO M."}, {"kind": "DEP", "time": "2026-07-16 02:01 UTC", "text": "VVNB DEP ATIS K 1100Z VVNB INFO K 1100Z. ILS X RWY 11L. DPTG RWY 11R AND ARR RWY 11L .. 1100Z. WIND 200/6KT CAVOK T34 DP25 QNH 1001HPA TREND NOSIG. ADZ ON INITIAL CTC YOU HAVE INFO K."}]}, {"icao": "VVNS", "name": "Na San — Son La", "metar": "METAR VVNS 170400Z /////KT 8000 -RA SCT020 BKN050 25/25 Q1009 NOSIG", "speci": null, "taf": null, "raw": "METAR VVNS 170400Z /////KT 8000 -RA SCT020 BKN050 25/25 Q1009 NOSIG", "fltcat": "MVFR", "wind": "—", "vis": "8.0 km", "clouds": "SCT020 BKN050", "temp": 25, "dewp": 25, "qnh": "1009 hPa"}, {"icao": "VVPB", "name": "Phu Bai — Hue", "metar": "METAR VVPB 170430Z 24013KT 9999 FEW020 37/20 Q1005 NOSIG", "speci": null, "taf": "TAF VVPB 162300Z 1700/1724 24010KT 9999 FEW020 SCT060 TEMPO 1708/1712 TS SCT013 FEW017CB SCT060", "raw": "METAR VVPB 170430Z 24013KT 9999 FEW020 37/20 Q1005 NOSIG", "fltcat": "VFR", "wind": "240° @ 13 kt", "vis": ">10 km", "clouds": "FEW020", "temp": 37, "dewp": 20, "qnh": "1005 hPa"}, {"icao": "VVPC", "name": "Phu Cat — Quy Nhon", "metar": "METAR VVPC 170400Z 24012KT 210V270 9999 FEW030 34/22 Q1007 NOSIG", "speci": null, "taf": "TAF VVPC 162300Z 1700/1724 24013KT 9999 FEW020 SCT060 TEMPO 1703/1708 24015G25KT", "raw": "METAR VVPC 170400Z 24012KT 210V270 9999 FEW030 34/22 Q1007 NOSIG", "fltcat": "VFR", "wind": "240° @ 12 kt", "vis": ">10 km", "clouds": "FEW030", "temp": 34, "dewp": 22, "qnh": "1007 hPa"}, {"icao": "VVPK", "name": "Pleiku", "metar": "METAR VVPK 170430Z 30011KT 240V330 9999 BKN015 25/21 Q1014 NOSIG", "speci": null, "taf": "TAF VVPK 162300Z 1700/1724 26012KT 8000 BKN015 TEMPO 1700/1703 4000 RA BR BKN004 BKN006 TEMPO 1708/1713 4000 SHRA BKN010 FEW015CB BKN040 TEMPO 1722/1724 2500 RA BR BKN003 BKN005", "raw": "METAR VVPK 170430Z 30011KT 240V330 9999 BKN015 25/21 Q1014 NOSIG", "fltcat": "MVFR", "wind": "300° @ 11 kt", "vis": ">10 km", "clouds": "BKN015", "temp": 25, "dewp": 21, "qnh": "1014 hPa"}, {"icao": "VVPQ", "name": "Phu Quoc Intl", "metar": "METAR VVPQ 170430Z 27007KT 9999 FEW017 31/29 Q1012 NOSIG", "speci": null, "taf": "TAF VVPQ 162300Z 1700/1724 27008KT 9999 SCT015 PROB30 TEMPO 1706/1708 27015G26KT 3000 TSRA BKN015 SCT017CB BKN040", "raw": "METAR VVPQ 170430Z 27007KT 9999 FEW017 31/29 Q1012 NOSIG", "fltcat": "VFR", "wind": "270° @ 7 kt", "vis": ">10 km", "clouds": "FEW017", "temp": 31, "dewp": 29, "qnh": "1012 hPa"}, {"icao": "VVRG", "name": "Rach Gia", "metar": "METAR VVRG 170400Z 27007KT 230V310 9999 SCT020 32/26 Q1011 NOSIG", "speci": null, "taf": "TAF VVRG 170200Z 1703/1712 24008KT 9999 SCT017 PROB30 TEMPO 1706/1709 5000 TSRA SCT015 FEW017CB", "raw": "METAR VVRG 170400Z 27007KT 230V310 9999 SCT020 32/26 Q1011 NOSIG", "fltcat": "VFR", "wind": "270° @ 7 kt", "vis": ">10 km", "clouds": "SCT020", "temp": 32, "dewp": 26, "qnh": "1011 hPa"}, {"icao": "VVTH", "name": "Dong Tac — Tuy Hoa", "metar": "METAR VVTH 170400Z 24012KT 210V270 9999 SCT045 33/22 Q1008 NOSIG", "speci": null, "taf": "TAF VVTH 170200Z 1703/1712 26015KT 9999 FEW017", "raw": "METAR VVTH 170400Z 24012KT 210V270 9999 SCT045 33/22 Q1008 NOSIG", "fltcat": "VFR", "wind": "240° @ 12 kt", "vis": ">10 km", "clouds": "SCT045", "temp": 33, "dewp": 22, "qnh": "1008 hPa"}, {"icao": "VVTS", "name": "Tan Son Nhat — Ho Chi Minh City", "metar": "METAR VVTS 170430Z 28011KT 250V310 CAVOK 32/24 Q1010 NOSIG", "speci": null, "taf": "TAF VVTS 162300Z 1700/1806 25008KT 9999 SCT017 TEMPO 1708/1713 5000 TSRA SCT015 FEW017CB", "raw": "METAR VVTS 170430Z 28011KT 250V310 CAVOK 32/24 Q1010 NOSIG", "fltcat": "VFR", "wind": "280° @ 11 kt", "vis": "CAVOK", "clouds": "NSC", "temp": 32, "dewp": 24, "qnh": "1010 hPa", "atis": [{"kind": "ARR", "time": "2026-07-17 02:28 UTC", "text": "VVTS ARR ATIS Z 1830Z VVTS INFO Z 1830Z. ILSW APCH IN RWY 25R.. LDG RWY 25R AND DEP RWY 25L.. 1830Z. WIND RWY 25L TDZ 240/10KT MAX15 MNM7 MID 230/11KT MAX17 MNM8 END 240/11KT MAX16 MNM5 VRB BTN 210/ AND 270/ RWY 25R TDZ 240/10KT MAX15 MNM7 END 230/11KT VIS 10KM CLD NSC T29 DP27 QNH 1007HPA TREND NOSIG. ADZ ON INITIAL CTC YOU HAVE INFO Z."}, {"kind": "DEP", "time": "2026-07-17 01:54 UTC", "text": "VVTS DEP ATIS Z 1830Z VVTS INFO Z 1830Z. ILSW APCH IN RWY 25R.. LDG RWY 25R AND DEP RWY 25L.. 1830Z. WIND RWY 25L TDZ 240/10KT MAX15 MNM7 MID 230/11KT MAX17 MNM8 END 240/11KT MAX16 MNM5 VRB BTN 210/ AND 270/ RWY 25R TDZ 240/10KT MAX15 MNM7 END 230/11KT VIS 10KM CLD NSC T29 DP27 QNH 1007HPA TREND NOSIG. ADZ ON INITIAL CTC YOU HAVE INFO Z."}]}, {"icao": "VVTX", "name": "Tho Xuan — Thanh Hoa", "metar": "METAR VVTX 170400Z 23005KT 160V330 CAVOK 32/22 Q1002 NOSIG", "speci": null, "taf": "TAF VVTX 170200Z 1703/1712 22006KT 9999 FEW030 TEMPO 1706/1710 3500 SHRA SCT012 FEW025TCU", "raw": "METAR VVTX 170400Z 23005KT 160V330 CAVOK 32/22 Q1002 NOSIG", "fltcat": "VFR", "wind": "230° @ 5 kt", "vis": "CAVOK", "clouds": "NSC", "temp": 32, "dewp": 22, "qnh": "1002 hPa"}, {"icao": "VVVD", "name": "Van Don — Quang Ninh", "metar": "METAR VVVD 170430Z 20009KT CAVOK 34/27 Q1003 NOSIG", "speci": null, "taf": "TAF VVVD 162300Z 1700/1724 21005KT 9999 SCT020 TEMPO 1702/1707 4000 TSRA SCT010 FEW027CB TEMPO 1713/1718 4000 TSRA SCT010 FEW027CB", "raw": "METAR VVVD 170430Z 20009KT CAVOK 34/27 Q1003 NOSIG", "fltcat": "VFR", "wind": "200° @ 9 kt", "vis": "CAVOK", "clouds": "NSC", "temp": 34, "dewp": 27, "qnh": "1003 hPa"}, {"icao": "VVVH", "name": "Vinh", "metar": "METAR VVVH 170400Z 26009KT 210V290 CAVOK 33/21 Q1004 NOSIG", "speci": null, "taf": "TAF VVVH 162300Z 1700/1724 24010KT 9999 FEW030", "raw": "METAR VVVH 170400Z 26009KT 210V290 CAVOK 33/21 Q1004 NOSIG", "fltcat": "VFR", "wind": "260° @ 9 kt", "vis": "CAVOK", "clouds": "NSC", "temp": 33, "dewp": 21, "qnh": "1004 hPa"}]}