{"updated": "2026-07-11T06:00:59+00:00", "source": "VN MET", "stations": [{"icao": "VVBM", "name": "Buon Ma Thuot", "metar": "METAR VVBM 110530Z 27013KT 220V310 9999 SCT013 FEW015CB 29/22 Q1007 NOSIG", "speci": null, "taf": "TAF VVBM 110500Z 1106/1206 27010KT 9999 SCT013 SCT040 TEMPO 1106/1109 27015G26KT 5000 TSRA BKN013 FEW015CB BKN040 TEMPO 1109/1112 27015G26KT 3000 TSRA BKN013 SCT015CB BKN040", "raw": "METAR VVBM 110530Z 27013KT 220V310 9999 SCT013 FEW015CB 29/22 Q1007 NOSIG", "fltcat": "VFR", "wind": "270° @ 13 kt", "vis": ">10 km", "clouds": "SCT013 FEW015", "temp": 29, "dewp": 22, "qnh": "1007 hPa"}, {"icao": "VVCA", "name": "Chu Lai", "metar": "METAR VVCA 110530Z 07008KT 030V110 9999 FEW020 BKN049 34/24 Q0999 NOSIG", "speci": null, "taf": "TAF VVCA 110500Z 1106/1115 16007KT 9999 FEW020", "raw": "METAR VVCA 110530Z 07008KT 030V110 9999 FEW020 BKN049 34/24 Q0999 NOSIG", "fltcat": "VFR", "wind": "070° @ 8 kt", "vis": ">10 km", "clouds": "FEW020 BKN049", "temp": 34, "dewp": 24, "qnh": "999 hPa"}, {"icao": "VVCI", "name": "Cat Bi — Hai Phong", "metar": "METAR VVCI 110530Z 19003KT 160V250 9999 FEW015 SCT045 31/27 Q0998 NOSIG", "speci": null, "taf": "TAF VVCI 110500Z 1106/1206 12005KT 9999 SCT015 BKN030 TEMPO 1106/1110 4000 TSRA SCT010 FEW027CB BKN030 TEMPO 1112/1117 3000 TSRA SCT012 FEW027CB BKN030 TEMPO 1121/1201 4000 TSRA SCT010 FEW027CB BKN030", "raw": "METAR VVCI 110530Z 19003KT 160V250 9999 FEW015 SCT045 31/27 Q0998 NOSIG", "fltcat": "VFR", "wind": "190° @ 3 kt", "vis": ">10 km", "clouds": "FEW015 SCT045", "temp": 31, "dewp": 27, "qnh": "998 hPa"}, {"icao": "VVCR", "name": "Cam Ranh — Nha Trang", "metar": "METAR VVCR 110530Z 17006KT 130V210 9999 FEW020 SCT070 35/24 Q1003 NOSIG", "speci": null, "taf": "TAF VVCR 110500Z 1106/1206 18010KT 9999 FEW020", "raw": "METAR VVCR 110530Z 17006KT 130V210 9999 FEW020 SCT070 35/24 Q1003 NOSIG", "fltcat": "VFR", "wind": "170° @ 6 kt", "vis": ">10 km", "clouds": "FEW020 SCT070", "temp": 35, "dewp": 24, "qnh": "1003 hPa", "atis": [{"kind": "ARR", "time": "2026-07-10 21:26 UTC", "text": "VVCR ARR ATIS J 1800Z VVCR INFO J 1800Z. ILS YANKEE APPROACH IN USE. LDG RWY 20L AND DPTG RWY 20R.. 1800Z. WIND RWY 20L TDZ 230/3KT MID 230/4KT END 260/4KT RWY 20R TDZ 210/3KT CAVOK T29 DP25 QNH 1011HPA TREND NOSIG. ADZ ON INITIAL CTC YOU HAVE INFO J."}, {"kind": "DEP", "time": "2026-05-29 05:57 UTC", "text": "VVCR DEP ATIS S 0533Z VVCR INFO S 0533Z. ILS Z APCH IN USE.. LDG RWY 02R AND DPTG RWY 02L.. 0532Z. WIND RWY 02R TDZ 080/9KT MID 090/8KT END 100/8KT RWY 02L TDZ 080/8KT CAVOK T31 DP26 QNH 1009HPA TREND TEMPO FM0630 VIS 4000M MOD TSRA. ADZ ON INITIAL CTC YOU HAVE INFO S."}]}, {"icao": "VVCS", "name": "Con Dao", "metar": "METAR VVCS 110530Z 27007KT 190V340 9999 SCT017 FEW020TCU 31/26 Q1008 NOSIG", "speci": null, "taf": "TAF VVCS 110500Z 1106/1115 27009KT 9999 SCT017 TEMPO 1106/1109 27015G26KT", "raw": "METAR VVCS 110530Z 27007KT 190V340 9999 SCT017 FEW020TCU 31/26 Q1008 NOSIG", "fltcat": "VFR", "wind": "270° @ 7 kt", "vis": ">10 km", "clouds": "SCT017 FEW020", "temp": 31, "dewp": 26, "qnh": "1008 hPa"}, {"icao": "VVCT", "name": "Can Tho Intl", "metar": "METAR VVCT 110530Z 26011KT 230V320 9999 BKN015 33/26 Q1007 NOSIG", "speci": null, "taf": "TAF VVCT 110500Z 1106/1206 25012KT 9999 SCT015 SCT040 TEMPO 1106/1110 25015G26KT 5000 TSRA BKN015 FEW017CB BKN040", "raw": "METAR VVCT 110530Z 26011KT 230V320 9999 BKN015 33/26 Q1007 NOSIG", "fltcat": "MVFR", "wind": "260° @ 11 kt", "vis": ">10 km", "clouds": "BKN015", "temp": 33, "dewp": 26, "qnh": "1007 hPa"}, {"icao": "VVDB", "name": "Dien Bien Phu", "metar": "METAR VVDB 110530Z 20005KT 150V260 9999 FEW032 SCT045 29/24 Q1002 NOSIG", "speci": null, "taf": "TAF VVDB 110500Z 1106/1115 16005KT 9999 SCT025 TEMPO 1109/1113 4800 SHRA SCT010 FEW025TCU", "raw": "METAR VVDB 110530Z 20005KT 150V260 9999 FEW032 SCT045 29/24 Q1002 NOSIG", "fltcat": "VFR", "wind": "200° @ 5 kt", "vis": ">10 km", "clouds": "FEW032 SCT045", "temp": 29, "dewp": 24, "qnh": "1002 hPa"}, {"icao": "VVDH", "name": "Dong Hoi", "metar": "METAR VVDH 110530Z 25010G21KT 200V330 CAVOK 34/23 Q0999 NOSIG", "speci": null, "taf": "TAF VVDH 110500Z 1106/1115 22015KT 9999 FEW035 TEMPO 1106/1112 24017G27KT", "raw": "METAR VVDH 110530Z 25010G21KT 200V330 CAVOK 34/23 Q0999 NOSIG", "fltcat": "VFR", "wind": "250° @ 10 kt G21", "vis": "CAVOK", "clouds": "NSC", "temp": 34, "dewp": 23, "qnh": "999 hPa"}, {"icao": "VVDN", "name": "Da Nang Intl", "metar": "METAR VVDN 110530Z 33008KT 250V040 9999 FEW020 34/23 Q0999 WS ALL RWY NOSIG", "speci": null, "taf": "TAF VVDN 110500Z 1106/1206 21010KT 9999 FEW020 BECMG 1106/1107 02010KT BECMG 1111/1112 23007KT", "raw": "METAR VVDN 110530Z 33008KT 250V040 9999 FEW020 34/23 Q0999 WS ALL RWY NOSIG", "fltcat": "VFR", "wind": "330° @ 8 kt", "vis": ">10 km", "clouds": "FEW020", "temp": 34, "dewp": 23, "qnh": "999 hPa", "atis": [{"kind": "ARR", "time": "2026-07-10 17:26 UTC", "text": "VVDN ARR ATIS O 1632Z VVDN INFO O 1632Z. ILS VICTOR APPROACH 35L.. DPTG RWY 35R.. 1632Z. WIND 240/02KT CAVOK T29 DP25 QNH 1009HPA TREND NOSIG. ADZ ON INITIAL CTC YOU HAVE INFO. O."}, {"kind": "DEP", "time": "2026-07-09 06:26 UTC", "text": "VVDN DEP ATIS R 0503Z VVDN INFO R 0503Z. ILS VICTOR APPROACH 35L.. DPTG RWY 35R.. 0502Z. WIND 090/05KT VRB BTN 070/ AND 140/ CAVOK T37 DP23 QNH 1007HPA TREND NOSIG. ADZ ON INITIAL CTC YOU HAVE INFO. R."}]}, {"icao": "VVNB", "name": "Noi Bai — Ha Noi", "metar": "METAR VVNB 110530Z VRB02KT CAVOK 32/27 Q0998 NOSIG", "speci": null, "taf": "TAF VVNB 110500Z 1106/1206 05005KT 9999 SCT025 TEMPO 1106/1110 3000 TSRA SCT010 FEW027CB TEMPO 1112/1118 2500 +TSRA SCT012 FEW027CB TEMPO 1122/1202 4000 TSRA SCT010 FEW027CB", "raw": "METAR VVNB 110530Z VRB02KT CAVOK 32/27 Q0998 NOSIG", "fltcat": "VFR", "wind": "VRB @ 2 kt", "vis": "CAVOK", "clouds": "NSC", "temp": 32, "dewp": 27, "qnh": "998 hPa", "atis": [{"kind": "ARR", "time": "2026-07-11 05:36 UTC", "text": "VVNB ARR ATIS C 0530Z VVNB INFO C 0530Z. ILS X RWY 11L. DPTG RWY 11R AND ARR RWY 11L .. 0530Z. WIND 350/4KT VRB BTN 280/ AND 080/ VIS 10KM RVR RWY 11L TDZ ABV 2000M MID ABV 2000M CLD RWY 11R NSC RWY 11L NSC T32 DP27 QNH 0998HPA TREND NOSIG. ADZ ON INITIAL CTC YOU HAVE INFO C."}, {"kind": "DEP", "time": "2026-07-11 04:33 UTC", "text": "VVNB DEP ATIS E 2040Z VVNB INFO E 2040Z. ILS W RWY 29L .. DEP 29L AND ARR 29L.. 2031Z. WIND 070/4KT VIS 10KM CLD 1600FT T26 DP25 QNH 1006HPA TREND NOSIG. ADZ ON INITIAL CTC YOU HAVE INFO E."}]}, {"icao": "VVPB", "name": "Phu Bai — Hue", "metar": "METAR VVPB 110530Z 26011KT 9999 FEW020 SCT070 35/21 Q1000 NOSIG", "speci": null, "taf": "TAF VVPB 110500Z 1106/1206 26014KT 9999 FEW020 SCT060 BECMG 1112/1113 26004KT", "raw": "METAR VVPB 110530Z 26011KT 9999 FEW020 SCT070 35/21 Q1000 NOSIG", "fltcat": "VFR", "wind": "260° @ 11 kt", "vis": ">10 km", "clouds": "FEW020 SCT070", "temp": 35, "dewp": 21, "qnh": "1000 hPa"}, {"icao": "VVPC", "name": "Phu Cat — Quy Nhon", "metar": "METAR VVPC 110530Z 27015G25KT 9999 SCT025 33/22 Q1002 NOSIG", "speci": null, "taf": "TAF VVPC 110500Z 1106/1206 26010KT 9999 FEW025 TEMPO 1106/1110 26015G25KT TEMPO 1202/1206 26015G25KT", "raw": "METAR VVPC 110530Z 27015G25KT 9999 SCT025 33/22 Q1002 NOSIG", "fltcat": "VFR", "wind": "270° @ 15 kt G25", "vis": ">10 km", "clouds": "SCT025", "temp": 33, "dewp": 22, "qnh": "1002 hPa"}, {"icao": "VVPK", "name": "Pleiku", "metar": "METAR VVPK 110530Z 27014KT 240V300 9999 BKN015 FEW017TCU 25/21 Q1008 TEMPO 27015G25KT", "speci": "SPECI VVPK 110536Z 28017G30KT 9999 BKN015 FEW017TCU 25/21 Q1008 NOSIG", "taf": "TAF VVPK 110500Z 1106/1206 27012KT 8000 SCT007 BKN015 TEMPO 1106/1112 27015G25KT 4000 RA BR BKN005 BKN010 TEMPO 1122/1203 26015G25KT 3500 RA BR BKN005 BKN010 TEMPO 1203/1206 27016G26KT", "raw": "SPECI VVPK 110536Z 28017G30KT 9999 BKN015 FEW017TCU 25/21 Q1008 NOSIG", "fltcat": "MVFR", "wind": "280° @ 17 kt G30", "vis": ">10 km", "clouds": "BKN015 FEW017", "temp": 25, "dewp": 21, "qnh": "1008 hPa"}, {"icao": "VVPQ", "name": "Phu Quoc Intl", "metar": "METAR VVPQ 110530Z 27017KT 9999 SCT015 32/29 Q1008 NOSIG", "speci": null, "taf": "TAF VVPQ 110500Z 1106/1206 27014KT 9999 SCT015 TEMPO 1106/1109 27016G28KT", "raw": "METAR VVPQ 110530Z 27017KT 9999 SCT015 32/29 Q1008 NOSIG", "fltcat": "VFR", "wind": "270° @ 17 kt", "vis": ">10 km", "clouds": "SCT015", "temp": 32, "dewp": 29, "qnh": "1008 hPa"}, {"icao": "VVRG", "name": "Rach Gia", "metar": "METAR VVRG 110530Z 25014KT 220V290 9999 SCT020 33/25 Q1007 NOSIG", "speci": null, "taf": "TAF VVRG 110500Z 1106/1115 25012KT 9999 SCT015 TEMPO 1106/1110 25015G26KT TS SCT015 FEW017CB", "raw": "METAR VVRG 110530Z 25014KT 220V290 9999 SCT020 33/25 Q1007 NOSIG", "fltcat": "VFR", "wind": "250° @ 14 kt", "vis": ">10 km", "clouds": "SCT020", "temp": 33, "dewp": 25, "qnh": "1007 hPa"}, {"icao": "VVTH", "name": "Dong Tac — Tuy Hoa", "metar": "METAR VVTH 110530Z 24018G28KT 220V290 9999 FEW056 SCT083 34/22 Q1002 NOSIG", "speci": null, "taf": "TAF VVTH 110500Z 1106/1115 24016KT 9999 FEW015 SCT050 TEMPO 1106/1111 24020G30KT", "raw": "METAR VVTH 110530Z 24018G28KT 220V290 9999 FEW056 SCT083 34/22 Q1002 NOSIG", "fltcat": "VFR", "wind": "240° @ 18 kt G28", "vis": ">10 km", "clouds": "FEW056 SCT083", "temp": 34, "dewp": 22, "qnh": "1002 hPa"}, {"icao": "VVTS", "name": "Tan Son Nhat — Ho Chi Minh City", "metar": "METAR VVTS 110530Z 26017KT 9999 SCT025 BKN043 33/25 Q1006 NOSIG", "speci": null, "taf": "TAF VVTS 110500Z 1106/1212 26014KT 9999 SCT017 TEMPO 1106/1110 26016G28KT", "raw": "METAR VVTS 110530Z 26017KT 9999 SCT025 BKN043 33/25 Q1006 NOSIG", "fltcat": "VFR", "wind": "260° @ 17 kt", "vis": ">10 km", "clouds": "SCT025 BKN043", "temp": 33, "dewp": 25, "qnh": "1006 hPa", "atis": [{"kind": "ARR", "time": "2026-07-11 01:26 UTC", "text": "VVTS ARR ATIS Z 0100Z VVTS INFO Z 0100Z. ILSW APCH IN RWY 25R.. LDG RWY 25R AND DEP RWY 25L.. 0100Z. WIND RWY 25L TDZ 250/13KT MAX18 MNM9 MID 250/12KT MAX22 MNM8 END 270/13KT VRB BTN 230/ AND 290/ RWY 25R TDZ 250/13KT MAX18 MNM9 VIS 10KM CLD FEW 1400FT T30 DP27 QNH 1007HPA TREND NOSIG. ADZ ON INITIAL CTC YOU HAVE INFO Z."}, {"kind": "DEP", "time": "2026-07-10 22:52 UTC", "text": "VVTS DEP ATIS Z 1835Z VVTS INFO Z 1835Z. ILSW APCH IN RWY 25R.. LDG RWY 25R AND DEP RWY 25L.. 1830Z. WIND RWY 25L TDZ 200/5KT MID 200/6KT END 200/4KT MAX10 MNM2 VRB BTN 160/ AND 300/ RWY 25R TDZ 200/5KT END 200/6KT MAX12 MNM4 VRB BTN 180/ AND 270/ VIS RWY 25L TDZ 10KM MID 10KM END 10KM RWY 25R TDZ 10KM MID 10KM END 10KM CLD RWY 25L SCT 3500FT RWY 25R FEW 3500FT T29 DP26 QNH 1010HPA TREND NOSIG. ADZ ON INITIAL CTC YOU HAVE INFO Z."}]}, {"icao": "VVTX", "name": "Tho Xuan — Thanh Hoa", "metar": "METAR VVTX 110530Z 34008KT 9999 SCT025 33/23 Q0998 NOSIG", "speci": null, "taf": "TAF VVTX 110500Z 1106/1115 24008KT 9999 FEW030 TEMPO 1109/1114 4000 TSRA SCT010 FEW027CB", "raw": "METAR VVTX 110530Z 34008KT 9999 SCT025 33/23 Q0998 NOSIG", "fltcat": "VFR", "wind": "340° @ 8 kt", "vis": ">10 km", "clouds": "SCT025", "temp": 33, "dewp": 23, "qnh": "998 hPa"}, {"icao": "VVVD", "name": "Van Don — Quang Ninh", "metar": "METAR VVVD 110530Z AUTO 14006KT 100V190 9999 FEW023/// SCT150/// BKN200/// 33/28 Q0998", "speci": null, "taf": "TAF VVVD 110500Z 1106/1206 12006KT 9999 FEW030 TEMPO 1106/1110 4000 TSRA SCT010 FEW027CB TEMPO 1112/1117 3000 TSRA SCT012 FEW027CB TEMPO 1121/1201 4000 TSRA SCT010 FEW027CB", "raw": "METAR VVVD 110530Z AUTO 14006KT 100V190 9999 FEW023/// SCT150/// BKN200/// 33/28 Q0998", "fltcat": "VFR", "wind": "140° @ 6 kt", "vis": ">10 km", "clouds": "FEW023 SCT150 BKN200", "temp": 33, "dewp": 28, "qnh": "998 hPa"}, {"icao": "VVVH", "name": "Vinh", "metar": "METAR VVVH 110530Z 23006KT 170V270 CAVOK 33/22 Q0998 NOSIG", "speci": null, "taf": "TAF VVVH 110500Z 1106/1206 27008KT 9999 FEW035 PROB40 TEMPO 1110/1115 4000 TSRA SCT010 FEW027CB", "raw": "METAR VVVH 110530Z 23006KT 170V270 CAVOK 33/22 Q0998 NOSIG", "fltcat": "VFR", "wind": "230° @ 6 kt", "vis": "CAVOK", "clouds": "NSC", "temp": 33, "dewp": 22, "qnh": "998 hPa"}]}