{"updated": "2026-07-24T08:32:59+00:00", "source": "VN MET", "stations": [{"icao": "VVBM", "name": "Buon Ma Thuot", "metar": "METAR VVBM 240830Z 31003KT 240V350 9999 SCT015 FEW017CB 29/23 Q1007 NOSIG", "speci": null, "taf": "TAF VVBM 240500Z 2406/2506 25008KT 9999 SCT017 TEMPO 2408/2412 5000 TSRA SCT015 FEW017CB", "raw": "METAR VVBM 240830Z 31003KT 240V350 9999 SCT015 FEW017CB 29/23 Q1007 NOSIG", "fltcat": "VFR", "wind": "310° @ 3 kt", "vis": ">10 km", "clouds": "SCT015 FEW017", "temp": 29, "dewp": 23, "qnh": "1007 hPa"}, {"icao": "VVCA", "name": "Chu Lai", "metar": "METAR VVCA 240830Z 08010KT 040V110 9999 FEW020 32/27 Q1002 NOSIG", "speci": null, "taf": "TAF VVCA 240500Z 2406/2415 07010KT 9999 FEW020 TEMPO 2408/2411 24015G25KT 4000 TSRA BKN013 FEW015CB BKN060 TEMPO 2411/2413 TS SCT013 FEW015CB BECMG 2413/2414 20006KT", "raw": "METAR VVCA 240830Z 08010KT 040V110 9999 FEW020 32/27 Q1002 NOSIG", "fltcat": "VFR", "wind": "080° @ 10 kt", "vis": ">10 km", "clouds": "FEW020", "temp": 32, "dewp": 27, "qnh": "1002 hPa"}, {"icao": "VVCI", "name": "Cat Bi — Hai Phong", "metar": "METAR VVCI 240830Z 08008KT 9999 FEW021 30/25 Q1003 NOSIG", "speci": null, "taf": "TAF VVCI 240500Z 2406/2506 09005KT 9999 FEW030 TEMPO 2408/2413 4000 TSRA BKN015 FEW027CB TEMPO 2416/2420 3000 TSRA BKN010 FEW027CB TEMPO 2422/2503 4000 TSRA BKN015 FEW027CB", "raw": "METAR VVCI 240830Z 08008KT 9999 FEW021 30/25 Q1003 NOSIG", "fltcat": "VFR", "wind": "080° @ 8 kt", "vis": ">10 km", "clouds": "FEW021", "temp": 30, "dewp": 25, "qnh": "1003 hPa"}, {"icao": "VVCR", "name": "Cam Ranh — Nha Trang", "metar": "METAR VVCR 240830Z 11008KT 090V150 9999 FEW021 33/22 Q1004 NOSIG", "speci": null, "taf": "TAF VVCR 240500Z 2406/2506 08012KT 9999 FEW020 TEMPO 2407/2412 TS SCT013 FEW015CB BECMG 2412/2413 30007KT", "raw": "METAR VVCR 240830Z 11008KT 090V150 9999 FEW021 33/22 Q1004 NOSIG", "fltcat": "VFR", "wind": "110° @ 8 kt", "vis": ">10 km", "clouds": "FEW021", "temp": 33, "dewp": 22, "qnh": "1004 hPa", "atis": [{"kind": "ARR", "time": "2026-07-22 05:32 UTC", "text": "VVCR ARR ATIS O 1300Z VVCR INFO O 1300Z. ILS YANKEE APPROACH IN USE. LDG RWY 20L AND DPTG RWY 20R.. 1300Z. WIND RWY 20L TDZ 190/7KT MID 190/8KT END 180/7KT RWY 20R TDZ 190/7KT VIS RWY 20L TDZ 10KM END 10KM CLD RWY 20L SCT 7200FT T31 DP24 QNH 1007HPA TREND NOSIG. ADZ ON INITIAL CTC YOU HAVE INFO O."}, {"kind": "DEP", "time": "2026-05-29 05:57 UTC", "text": "VVCR DEP ATIS S 0533Z VVCR INFO S 0533Z. ILS Z APCH IN USE.. LDG RWY 02R AND DPTG RWY 02L.. 0532Z. WIND RWY 02R TDZ 080/9KT MID 090/8KT END 100/8KT RWY 02L TDZ 080/8KT CAVOK T31 DP26 QNH 1009HPA TREND TEMPO FM0630 VIS 4000M MOD TSRA. ADZ ON INITIAL CTC YOU HAVE INFO S."}]}, {"icao": "VVCS", "name": "Con Dao", "metar": "METAR VVCS 240830Z 28008KT 230V340 9999 FEW017 SCT040 29/22 Q1004 NOSIG", "speci": null, "taf": "TAF VVCS 240500Z 2406/2415 27010KT 9999 SCT017 TEMPO 2406/2410 27015G25KT 4000 TSRA SCT015 FEW017CB", "raw": "METAR VVCS 240830Z 28008KT 230V340 9999 FEW017 SCT040 29/22 Q1004 NOSIG", "fltcat": "VFR", "wind": "280° @ 8 kt", "vis": ">10 km", "clouds": "FEW017 SCT040", "temp": 29, "dewp": 22, "qnh": "1004 hPa"}, {"icao": "VVCT", "name": "Can Tho Intl", "metar": "METAR VVCT 240830Z 22009KT 9999 BKN015 FEW017CB SCT050 30/25 Q1004 NOSIG", "speci": null, "taf": "TAF VVCT 240500Z 2406/2506 27010KT 9999 SCT017 TEMPO 2406/2410 27015G26KT 5000 TSRA SCT013 FEW015CB", "raw": "METAR VVCT 240830Z 22009KT 9999 BKN015 FEW017CB SCT050 30/25 Q1004 NOSIG", "fltcat": "MVFR", "wind": "220° @ 9 kt", "vis": ">10 km", "clouds": "BKN015 FEW017 SCT050", "temp": 30, "dewp": 25, "qnh": "1004 hPa"}, {"icao": "VVDB", "name": "Dien Bien Phu", "metar": "METAR VVDB 240830Z VRB02KT CAVOK 32/21 Q1003 TEMPO 4000 TSRA FEW027CB", "speci": null, "taf": "TAF VVDB 240500Z 2406/2415 32005KT 8000 -RA SCT027 TEMPO 2407/2410 4000 TSRA SCT015 FEW027CB TEMPO 2412/2415 3500 SHRA SCT012 FEW025TCU", "raw": "METAR VVDB 240830Z VRB02KT CAVOK 32/21 Q1003 TEMPO 4000 TSRA FEW027CB", "fltcat": "VFR", "wind": "VRB @ 2 kt", "vis": "CAVOK", "clouds": "FEW027", "temp": 32, "dewp": 21, "qnh": "1003 hPa"}, {"icao": "VVDH", "name": "Dong Hoi", "metar": "METAR VVDH 240830Z 09005KT CAVOK 32/24 Q1002 NOSIG", "speci": null, "taf": "TAF VVDH 240500Z 2406/2415 24010KT 9999 FEW030 TEMPO 2411/2415 4000 TSRA SCT015 FEW027CB", "raw": "METAR VVDH 240830Z 09005KT CAVOK 32/24 Q1002 NOSIG", "fltcat": "VFR", "wind": "090° @ 5 kt", "vis": "CAVOK", "clouds": "NSC", "temp": 32, "dewp": 24, "qnh": "1002 hPa"}, {"icao": "VVDL", "name": "Lien Khuong — Da Lat", "metar": "METAR VVDL 240830Z 28009KT 9999 SCT013 FEW015CB 29/19 Q1010 NOSIG", "speci": null, "taf": "TAF VVDL 240500Z 2406/2506 30010KT 9999 SCT013 TEMPO 2408/2412 4000 TSRA SCT013 FEW015CB", "raw": "METAR VVDL 240830Z 28009KT 9999 SCT013 FEW015CB 29/19 Q1010 NOSIG", "fltcat": "VFR", "wind": "280° @ 9 kt", "vis": ">10 km", "clouds": "SCT013 FEW015", "temp": 29, "dewp": 19, "qnh": "1010 hPa"}, {"icao": "VVDN", "name": "Da Nang Intl", "metar": "METAR VVDN 240830Z 10009KT 060V130 9999 FEW020 32/25 Q1003 NOSIG", "speci": null, "taf": "TAF VVDN 240500Z 2406/2506 04012KT 9999 FEW020 TEMPO 2406/2408 TS SCT015 FEW017CB TEMPO 2408/2410 24015G27KT 4000 TSRA BKN013 FEW015CB BKN050 TEMPO 2410/2413 24015G28KT 2500 +TSRA BKN013 SCT015CB BKN050 BECMG 2414/2415 22006KT", "raw": "METAR VVDN 240830Z 10009KT 060V130 9999 FEW020 32/25 Q1003 NOSIG", "fltcat": "VFR", "wind": "100° @ 9 kt", "vis": ">10 km", "clouds": "FEW020", "temp": 32, "dewp": 25, "qnh": "1003 hPa", "atis": [{"kind": "ARR", "time": "2026-07-24 05:12 UTC", "text": "VVDN ARR ATIS H 0502Z VVDN INFO H 0502Z. ILS VICTOR APPROACH 35L.. DPTG RWY 35R.. 0502Z. WIND 020/13KT VIS 10KM CLD FEW 2700FT T32 DP26 QNH 1004HPA TREND NOSIG. ADZ ON INITIAL CTC YOU HAVE INFO. H."}, {"kind": "DEP", "time": "2026-07-22 10:38 UTC", "text": "VVDN DEP ATIS G 1432Z VVDN INFO G 1432Z. ILS VICTOR APPROACH 35L.. DPTG RWY 35R.. 1432Z. WIND VRB/01KT CAVOK T32 DP24 QNH 1004HPA TREND NOSIG. ADZ ON INITIAL CTC YOU HAVE INFO. G."}]}, {"icao": "VVNB", "name": "Noi Bai — Ha Noi", "metar": "METAR VVNB 240830Z 20007KT 180V240 8000 -RA FEW030CB BKN040 28/26 Q1003 TEMPO TL0930 2500 +TSRA", "speci": null, "taf": "TAF VVNB 240500Z 2406/2506 12005KT 9999 SCT020 TEMPO 2406/2411 3500 TSRA BKN012 FEW027CB TEMPO 2414/2418 3500 TSRA BKN012 FEW027CB TEMPO 2420/2501 3200 TSRA BKN010 FEW027CB", "raw": "METAR VVNB 240830Z 20007KT 180V240 8000 -RA FEW030CB BKN040 28/26 Q1003 TEMPO TL0930 2500 +TSRA", "fltcat": "MVFR", "wind": "200° @ 7 kt", "vis": "8.0 km", "clouds": "FEW030 BKN040", "temp": 28, "dewp": 26, "qnh": "1003 hPa", "atis": [{"kind": "ARR", "time": "2026-07-24 07:58 UTC", "text": "VVNB ARR ATIS U 0530Z VVNB INFO U 0530Z. ILS X RWY 11L. DPTG RWY 11R AND ARR RWY 11L .. 0530Z. WIND VRB5KT CAVOK T36 DP28 QNH 1001HPA TREND NOSIG. ADZ ON INITIAL CTC YOU HAVE INFO U."}, {"kind": "DEP", "time": "2026-07-24 07:41 UTC", "text": "VVNB DEP ATIS U 0530Z VVNB INFO U 0530Z. ILS X RWY 11L. DPTG RWY 11R AND ARR RWY 11L .. 0530Z. WIND VRB5KT CAVOK T36 DP28 QNH 1001HPA TREND NOSIG. ADZ ON INITIAL CTC YOU HAVE INFO U."}]}, {"icao": "VVNS", "name": "Na San — Son La", "metar": "METAR VVNS 240800Z /////KT 9999 SCT025 BKN045 30/22 Q1005 NOSIG", "speci": null, "taf": null, "raw": "METAR VVNS 240800Z /////KT 9999 SCT025 BKN045 30/22 Q1005 NOSIG", "fltcat": "VFR", "wind": "—", "vis": ">10 km", "clouds": "SCT025 BKN045", "temp": 30, "dewp": 22, "qnh": "1005 hPa"}, {"icao": "VVPB", "name": "Phu Bai — Hue", "metar": "METAR VVPB 240830Z 10011KT 9999 FEW017 33/24 Q1002 NOSIG", "speci": null, "taf": "TAF VVPB 240500Z 2406/2506 05010KT 9999 FEW020 TEMPO 2406/2408 TS SCT013 FEW015CB SCT060 TEMPO 2408/2412 25015G25KT 3500 TSRA BKN013 FEW015CB BKN050 BECMG 2414/2415 23005KT", "raw": "METAR VVPB 240830Z 10011KT 9999 FEW017 33/24 Q1002 NOSIG", "fltcat": "VFR", "wind": "100° @ 11 kt", "vis": ">10 km", "clouds": "FEW017", "temp": 33, "dewp": 24, "qnh": "1002 hPa"}, {"icao": "VVPC", "name": "Phu Cat — Quy Nhon", "metar": "METAR VVPC 240830Z 33006KT 300V020 9999 VCSH SCT024 FEW027CB 32/23 Q1003 TEMPO 4500 TSRA", "speci": null, "taf": "TAF VVPC 240500Z 2406/2506 26011KT 9999 FEW020 TEMPO 2406/2408 TS SCT013 FEW015CB TEMPO 2408/2412 26015G25KT 4500 TSRA BKN013 FEW015CB BKN050 TEMPO 2412/2414 TS BKN013 FEW015CB BKN050", "raw": "METAR VVPC 240830Z 33006KT 300V020 9999 VCSH SCT024 FEW027CB 32/23 Q1003 TEMPO 4500 TSRA", "fltcat": "VFR", "wind": "330° @ 6 kt", "vis": ">10 km", "clouds": "SCT024 FEW027", "temp": 32, "dewp": 23, "qnh": "1003 hPa"}, {"icao": "VVPK", "name": "Pleiku", "metar": "METAR VVPK 240830Z 25007KT 210V290 9999 FEW018 SCT060 27/21 Q1008 NOSIG", "speci": null, "taf": "TAF VVPK 240500Z 2406/2506 25010KT 9999 FEW015 SCT050 TEMPO 2407/2412 4000 TSRA BKN008 BKN013 FEW015CB TEMPO 2422/2424 2000 RA BR BKN003 BKN006 TEMPO 2500/2503 4000 RA BR BKN004 BKN008", "raw": "METAR VVPK 240830Z 25007KT 210V290 9999 FEW018 SCT060 27/21 Q1008 NOSIG", "fltcat": "VFR", "wind": "250° @ 7 kt", "vis": ">10 km", "clouds": "FEW018 SCT060", "temp": 27, "dewp": 21, "qnh": "1008 hPa"}, {"icao": "VVPQ", "name": "Phu Quoc Intl", "metar": "METAR VVPQ 240830Z 10004KT 5000 TSRA SCT015 FEW017CB SCT040 25/25 Q1005 NOSIG", "speci": null, "taf": "TAF VVPQ 240500Z 2406/2506 30012KT 9999 SCT015 TEMPO 2406/2410 30015G26KT 5000 TSRA SCT013 FEW015CB TEMPO 2422/2502 5000 TSRA SCT013 FEW015CB", "raw": "METAR VVPQ 240830Z 10004KT 5000 TSRA SCT015 FEW017CB SCT040 25/25 Q1005 NOSIG", "fltcat": "MVFR", "wind": "100° @ 4 kt", "vis": "5.0 km", "clouds": "SCT015 FEW017 SCT040", "temp": 25, "dewp": 25, "qnh": "1005 hPa"}, {"icao": "VVRG", "name": "Rach Gia", "metar": "METAR VVRG 240830Z 26011KT 230V300 9999 SCT015 SCT050 30/25 Q1005 NOSIG", "speci": null, "taf": "TAF VVRG 240500Z 2406/2415 25008KT 9999 SCT015 SCT040 TEMPO 2407/2411 5000 TSRA SCT013 FEW015CB BKN040", "raw": "METAR VVRG 240830Z 26011KT 230V300 9999 SCT015 SCT050 30/25 Q1005 NOSIG", "fltcat": "VFR", "wind": "260° @ 11 kt", "vis": ">10 km", "clouds": "SCT015 SCT050", "temp": 30, "dewp": 25, "qnh": "1005 hPa"}, {"icao": "VVTH", "name": "Dong Tac — Tuy Hoa", "metar": "METAR VVTH 240830Z 11012KT 9999 FEW020TCU SCT070 31/24 Q1002 NOSIG", "speci": null, "taf": "TAF VVTH 240500Z 2406/2415 25013KT 9999 FEW020 TEMPO 2407/2412 TS SCT013 FEW015CB", "raw": "METAR VVTH 240830Z 11012KT 9999 FEW020TCU SCT070 31/24 Q1002 NOSIG", "fltcat": "VFR", "wind": "110° @ 12 kt", "vis": ">10 km", "clouds": "FEW020 SCT070", "temp": 31, "dewp": 24, "qnh": "1002 hPa"}, {"icao": "VVTS", "name": "Tan Son Nhat — Ho Chi Minh City", "metar": "METAR VVTS 240830Z 26013KT 9999 SCT025 33/25 Q1003 TEMPO FM0915 TL0945 30016G28KT 5000 SHRA", "speci": null, "taf": "TAF AMD VVTS 240543Z 2406/2512 28010KT 9999 SCT017 TEMPO 2406/2408 5000 TSRA SCT015 FEW017CB TEMPO 2408/2412 28015G30KT 2000 +TSRA BKN013 SCT015CB TEMPO 2412/2416 5000 SHRA SCT015 FEW017CB BKN040 TEMPO 2507/2511 28015G28KT 3000 TSRA SCT013 SCT015CB", "raw": "METAR VVTS 240830Z 26013KT 9999 SCT025 33/25 Q1003 TEMPO FM0915 TL0945 30016G28KT 5000 SHRA", "fltcat": "VFR", "wind": "260° @ 13 kt", "vis": ">10 km", "clouds": "SCT025", "temp": 33, "dewp": 25, "qnh": "1003 hPa", "atis": [{"kind": "ARR", "time": "2026-07-24 06:51 UTC", "text": "VVTS ARR ATIS P 0500Z VVTS INFO P 0500Z. ILSW APCH IN RWY 25R.. LDG RWY 25R AND DEP RWY 25L.. 0500Z. WIND RWY 25R TDZ 290/10KT MAX18 MNM7 VIS 10KM CLD FEW 4000FT SCT 9100FT T35 DP26 QNH 1007HPA TREND TEMPO FM0630 200/16KT MAX28 VIS 4000M MOD TSRA CLD SCT 1500FT FEW CB 1700FT. ADZ ON INITIAL CTC YOU HAVE INFO P."}, {"kind": "DEP", "time": "2026-07-23 04:13 UTC", "text": "VVTS DEP ATIS Y 2030Z VVTS INFO Y 2030Z. ILSW APCH IN RWY 25R.. LDG RWY 25R AND DEP RWY 25L.. 2030Z. WIND RWY 25R TDZ 240/8KT MAX15 MNM6 END 240/8KT VIS 10KM CLD FEW 1600FT T29 DP27 QNH 1007HPA TREND NOSIG. ADZ ON INITIAL CTC YOU HAVE INFO Y."}]}, {"icao": "VVTX", "name": "Tho Xuan — Thanh Hoa", "metar": "METAR VVTX 240830Z 09009KT 9999 FEW025 FEW030TCU 32/23 Q1002 NOSIG", "speci": null, "taf": "TAF VVTX 240500Z 2406/2415 12005KT 9999 FEW030 TEMPO 2407/2411 4000 TSRA SCT015 FEW027CB", "raw": "METAR VVTX 240830Z 09009KT 9999 FEW025 FEW030TCU 32/23 Q1002 NOSIG", "fltcat": "VFR", "wind": "090° @ 9 kt", "vis": ">10 km", "clouds": "FEW025 FEW030", "temp": 32, "dewp": 23, "qnh": "1002 hPa"}, {"icao": "VVVD", "name": "Van Don — Quang Ninh", "metar": "METAR VVVD 240830Z 01003KT 280V080 9999 FEW013 SCT021 BKN029 29/29 Q1004 NOSIG", "speci": null, "taf": "TAF VVVD 240500Z 2406/2506 12005KT 9999 SCT015 BKN030 TEMPO 2406/2411 4000 TSRA BKN015 FEW027CB TEMPO 2415/2420 3000 TSRA BKN010 FEW027CB TEMPO 2422/2503 4000 TSRA SCT015 FEW027CB", "raw": "METAR VVVD 240830Z 01003KT 280V080 9999 FEW013 SCT021 BKN029 29/29 Q1004 NOSIG", "fltcat": "MVFR", "wind": "010° @ 3 kt", "vis": ">10 km", "clouds": "FEW013 SCT021 BKN029", "temp": 29, "dewp": 29, "qnh": "1004 hPa"}, {"icao": "VVVH", "name": "Vinh", "metar": "METAR VVVH 240830Z 05006KT 010V120 9999 FEW017 SCT021 31/25 Q1002 NOSIG", "speci": null, "taf": "TAF VVVH 240500Z 2406/2506 21005KT 9999 FEW030 TEMPO 2408/2412 4000 TSRA SCT015 FEW027CB TEMPO 2414/2418 3500 TSRA SCT010 FEW027CB", "raw": "METAR VVVH 240830Z 05006KT 010V120 9999 FEW017 SCT021 31/25 Q1002 NOSIG", "fltcat": "VFR", "wind": "050° @ 6 kt", "vis": ">10 km", "clouds": "FEW017 SCT021", "temp": 31, "dewp": 25, "qnh": "1002 hPa"}]}