{"updated": "2026-07-15T01:49:12+00:00", "source": "VN MET", "stations": [{"icao": "VVBM", "name": "Buon Ma Thuot", "metar": "METAR VVBM 150130Z 21005KT 170V250 9999 SCT015 BKN040 26/22 Q1014 NOSIG", "speci": null, "taf": "TAF VVBM 142300Z 1500/1524 24008KT 9999 BKN015 BKN040 TEMPO 1506/1510 26015G26KT 3000 TSRA BKN010 FEW013CB BKN030", "raw": "METAR VVBM 150130Z 21005KT 170V250 9999 SCT015 BKN040 26/22 Q1014 NOSIG", "fltcat": "VFR", "wind": "210° @ 5 kt", "vis": ">10 km", "clouds": "SCT015 BKN040", "temp": 26, "dewp": 22, "qnh": "1014 hPa"}, {"icao": "VVCA", "name": "Chu Lai", "metar": "METAR VVCA 150130Z 31004KT 260V350 9999 FEW020 BKN080 32/24 Q1006 NOSIG", "speci": null, "taf": "TAF VVCA 142300Z 1500/1509 16008KT 9999 FEW020 BKN060", "raw": "METAR VVCA 150130Z 31004KT 260V350 9999 FEW020 BKN080 32/24 Q1006 NOSIG", "fltcat": "VFR", "wind": "310° @ 4 kt", "vis": ">10 km", "clouds": "FEW020 BKN080", "temp": 32, "dewp": 24, "qnh": "1006 hPa"}, {"icao": "VVCI", "name": "Cat Bi — Hai Phong", "metar": "METAR VVCI 150130Z 14003KT 110V180 9999 FEW016 31/27 Q1002 NOSIG", "speci": null, "taf": "TAF VVCI 142300Z 1500/1524 13006KT 9999 FEW020 TEMPO 1500/1504 4000 SHRA SCT015 FEW027CB", "raw": "METAR VVCI 150130Z 14003KT 110V180 9999 FEW016 31/27 Q1002 NOSIG", "fltcat": "VFR", "wind": "140° @ 3 kt", "vis": ">10 km", "clouds": "FEW016", "temp": 31, "dewp": 27, "qnh": "1002 hPa"}, {"icao": "VVCR", "name": "Cam Ranh — Nha Trang", "metar": "METAR VVCR 150130Z 20006KT 170V230 CAVOK 31/23 Q1010 NOSIG", "speci": null, "taf": "TAF VVCR 142300Z 1500/1524 20013KT 9999 FEW020", "raw": "METAR VVCR 150130Z 20006KT 170V230 CAVOK 31/23 Q1010 NOSIG", "fltcat": "VFR", "wind": "200° @ 6 kt", "vis": "CAVOK", "clouds": "NSC", "temp": 31, "dewp": 23, "qnh": "1010 hPa", "atis": [{"kind": "ARR", "time": "2026-07-13 09:29 UTC", "text": "VVCR ARR ATIS W 1330Z VVCR INFO W 1330Z. ILS YANKEE APPROACH IN USE. LDG RWY 20L AND DPTG RWY 20R.. 1330Z. WIND RWY 20L TDZ 330/3KT VRB BTN 260/ AND 360/ MID 310/3KT VRB BTN 280/ AND 340/ END 320/3KT RWY 20R TDZ 320/1KT CAVOK T29 DP25 QNH 1010HPA TREND NOSIG. ADZ ON INITIAL CTC YOU HAVE INFO W."}, {"kind": "DEP", "time": "2026-05-29 05:57 UTC", "text": "VVCR DEP ATIS S 0533Z VVCR INFO S 0533Z. ILS Z APCH IN USE.. LDG RWY 02R AND DPTG RWY 02L.. 0532Z. WIND RWY 02R TDZ 080/9KT MID 090/8KT END 100/8KT RWY 02L TDZ 080/8KT CAVOK T31 DP26 QNH 1009HPA TREND TEMPO FM0630 VIS 4000M MOD TSRA. ADZ ON INITIAL CTC YOU HAVE INFO S."}]}, {"icao": "VVCS", "name": "Con Dao", "metar": "METAR VVCS 150130Z 20007KT 110V260 9999 FEW017 31/26 Q1011 NOSIG", "speci": null, "taf": "TAF VVCS 142300Z 1500/1509 22008KT 9999 SCT017 SCT040 TEMPO 1502/1509 24015G28KT 4000 TSRA SCT015 SCT017CB BKN040", "raw": "METAR VVCS 150130Z 20007KT 110V260 9999 FEW017 31/26 Q1011 NOSIG", "fltcat": "VFR", "wind": "200° @ 7 kt", "vis": ">10 km", "clouds": "FEW017", "temp": 31, "dewp": 26, "qnh": "1011 hPa"}, {"icao": "VVCT", "name": "Can Tho Intl", "metar": "METAR VVCT 150130Z 22006KT 180V250 7000 SCT013 FEW015TCU SCT050 28/26 Q1012 NOSIG", "speci": null, "taf": "TAF VVCT 142300Z 1500/1524 24008KT 9999 SCT015 BKN050 TEMPO 1502/1504 5000 SHRA SCT015 FEW017CB TEMPO 1506/1510 25015G26KT 3000 TSRA SCT013 SCT015CB", "raw": "METAR VVCT 150130Z 22006KT 180V250 7000 SCT013 FEW015TCU SCT050 28/26 Q1012 NOSIG", "fltcat": "MVFR", "wind": "220° @ 6 kt", "vis": "7.0 km", "clouds": "SCT013 FEW015 SCT050", "temp": 28, "dewp": 26, "qnh": "1012 hPa"}, {"icao": "VVDB", "name": "Dien Bien Phu", "metar": "METAR VVDB 150130Z 21004KT 9999 FEW026 SCT030 BKN041 27/24 Q1008 NOSIG", "speci": null, "taf": "TAF VVDB 142300Z 1500/1509 VRB02KT 9999 FEW025 TEMPO 1500/1503 3500 SHRA SCT010 FEW020TCU", "raw": "METAR VVDB 150130Z 21004KT 9999 FEW026 SCT030 BKN041 27/24 Q1008 NOSIG", "fltcat": "VFR", "wind": "210° @ 4 kt", "vis": ">10 km", "clouds": "FEW026 SCT030 BKN041", "temp": 27, "dewp": 24, "qnh": "1008 hPa"}, {"icao": "VVDH", "name": "Dong Hoi", "metar": "METAR VVDH 150130Z 28009KT CAVOK 31/23 Q1005 NOSIG", "speci": null, "taf": "TAF VVDH 142300Z 1500/1509 24005KT 9999 FEW030", "raw": "METAR VVDH 150130Z 28009KT CAVOK 31/23 Q1005 NOSIG", "fltcat": "VFR", "wind": "280° @ 9 kt", "vis": "CAVOK", "clouds": "NSC", "temp": 31, "dewp": 23, "qnh": "1005 hPa"}, {"icao": "VVDN", "name": "Da Nang Intl", "metar": "METAR VVDN 150130Z 23006KT 9999 FEW017 BKN070 31/21 Q1007 NOSIG", "speci": null, "taf": "TAF VVDN 142300Z 1500/1524 21008KT 9999 FEW020 BKN060 BECMG 1505/1506 02010KT BECMG 1510/1511 21008KT", "raw": "METAR VVDN 150130Z 23006KT 9999 FEW017 BKN070 31/21 Q1007 NOSIG", "fltcat": "VFR", "wind": "230° @ 6 kt", "vis": ">10 km", "clouds": "FEW017 BKN070", "temp": 31, "dewp": 21, "qnh": "1007 hPa", "atis": [{"kind": "ARR", "time": "2026-07-15 00:36 UTC", "text": "VVDN ARR ATIS I 0302Z VVDN INFO I 0302Z. ILS VICTOR APPROACH 35L.. DPTG RWY 35R.. 0302Z. WIND 220/08KT CAVOK T35 DP23 QNH 1008HPA TREND NOSIG. ADZ ON INITIAL CTC YOU HAVE INFO. I."}, {"kind": "DEP", "time": "2026-07-12 02:50 UTC", "text": "VVDN DEP ATIS N 0423Z VVDN INFO N 0423Z. ILS VICTOR APPROACH 35L.. DPTG RWY 35R.. 0423Z. WIND 010/02KT CAVOK T36 DP24 QNH 1008HPA TREND NOSIG. WS ALL RWY. ADZ ON INITIAL CTC YOU HAVE INFO. N."}]}, {"icao": "VVNB", "name": "Noi Bai — Ha Noi", "metar": "METAR VVNB 150130Z 07004KT 010V110 CAVOK 30/26 Q1003 NOSIG", "speci": null, "taf": "TAF VVNB 142300Z 1500/1524 12006KT 9999 FEW025 TEMPO 1503/1507 4000 SHRA SCT012 FEW025TCU", "raw": "METAR VVNB 150130Z 07004KT 010V110 CAVOK 30/26 Q1003 NOSIG", "fltcat": "VFR", "wind": "070° @ 4 kt", "vis": "CAVOK", "clouds": "NSC", "temp": 30, "dewp": 26, "qnh": "1003 hPa", "atis": [{"kind": "ARR", "time": "2026-07-15 01:19 UTC", "text": "VVNB ARR ATIS U 0300Z VVNB INFO U 0300Z. ILS X RWY 11L. DPTG RWY 11R AND ARR RWY 11L .. 0300Z. WIND 060/4KT VIS 9KM CLD NSC T30 DP28 QNH 1005HPA TREND NOSIG. ADZ ON INITIAL CTC YOU HAVE INFO U."}, {"kind": "DEP", "time": "2026-07-14 15:56 UTC", "text": "VVNB DEP ATIS O 0000Z VVNB INFO O 0000Z. ILS X RWY 11L. DPTG RWY 11R AND ARR RWY 11L .. 0000Z. WIND 080/3KT VIS 7KM FBL RA CLD FEW 2700FT T27 DP27 QNH 1004HPA TREND TEMPO VIS 4000M FBL RA BR. ADZ ON INITIAL CTC YOU HAVE INFO O."}]}, {"icao": "VVPB", "name": "Phu Bai — Hue", "metar": "METAR VVPB 150130Z 25005KT 9999 FEW020 SCT070 32/20 Q1006 NOSIG", "speci": null, "taf": "TAF VVPB 142300Z 1500/1524 24007KT 9999 FEW020 SCT060", "raw": "METAR VVPB 150130Z 25005KT 9999 FEW020 SCT070 32/20 Q1006 NOSIG", "fltcat": "VFR", "wind": "250° @ 5 kt", "vis": ">10 km", "clouds": "FEW020 SCT070", "temp": 32, "dewp": 20, "qnh": "1006 hPa"}, {"icao": "VVPC", "name": "Phu Cat — Quy Nhon", "metar": "METAR VVPC 150130Z 23011KT 200V260 9999 FEW025 SCT080 31/22 Q1008 NOSIG", "speci": null, "taf": "TAF VVPC 142300Z 1500/1524 26010KT 9999 FEW020 SCT060", "raw": "METAR VVPC 150130Z 23011KT 200V260 9999 FEW025 SCT080 31/22 Q1008 NOSIG", "fltcat": "VFR", "wind": "230° @ 11 kt", "vis": ">10 km", "clouds": "FEW025 SCT080", "temp": 31, "dewp": 22, "qnh": "1008 hPa"}, {"icao": "VVPK", "name": "Pleiku", "metar": "METAR VVPK 150130Z 26011G21KT 9999 SCT005 BKN009 FEW015CB 22/21 Q1015 TEMPO TL0200 4000 RA BR", "speci": null, "taf": "TAF VVPK 142300Z 1500/1524 25012KT 8000 BKN015 TEMPO 1500/1502 3000 RA BR SCT002 BKN004 TEMPO 1503/1507 25015G25KT TEMPO 1507/1512 25015G25KT 4000 TSRA BKN008 FEW015CB BKN050 TEMPO 1522/1524 3000 RA BR BKN002 BKN006", "raw": "METAR VVPK 150130Z 26011G21KT 9999 SCT005 BKN009 FEW015CB 22/21 Q1015 TEMPO TL0200 4000 RA BR", "fltcat": "IFR", "wind": "260° @ 11 kt G21", "vis": ">10 km", "clouds": "SCT005 BKN009 FEW015", "temp": 22, "dewp": 21, "qnh": "1015 hPa"}, {"icao": "VVPQ", "name": "Phu Quoc Intl", "metar": "METAR VVPQ 150130Z VRB01KT 9999 SCT015 SCT040 25/25 Q1012 NOSIG", "speci": null, "taf": "TAF VVPQ 142300Z 1500/1524 25007KT 9999 SCT015 SCT040 TEMPO 1502/1505 28015G26KT 3000 TSRA SCT013 SCT015CB TEMPO 1505/1507 5000 SHRA SCT015 FEW017CB BKN040", "raw": "METAR VVPQ 150130Z VRB01KT 9999 SCT015 SCT040 25/25 Q1012 NOSIG", "fltcat": "VFR", "wind": "VRB @ 1 kt", "vis": ">10 km", "clouds": "SCT015 SCT040", "temp": 25, "dewp": 25, "qnh": "1012 hPa"}, {"icao": "VVRG", "name": "Rach Gia", "metar": "METAR VVRG 150130Z 27007KT 230V300 3000 TSRA SCT013 FEW015CB OVC040 27/25 Q1012 TEMPO TL0145 27015G25KT 2000 +TSRA", "speci": "SPECI VVRG 150145Z 25004KT 210V340 8000 -TSRA FEW013 FEW015CB OVC040 26/25 Q1012 NOSIG", "taf": "TAF VVRG 142300Z 1500/1509 25007KT 9999 SCT015 SCT040 TEMPO 1500/1502 4000 TSRA SCT015 FEW017CB TEMPO 1506/1508 3000 TSRA SCT013 FEW015CB BKN040", "raw": "SPECI VVRG 150145Z 25004KT 210V340 8000 -TSRA FEW013 FEW015CB OVC040 26/25 Q1012 NOSIG", "fltcat": "MVFR", "wind": "250° @ 4 kt", "vis": "8.0 km", "clouds": "FEW013 FEW015 OVC040", "temp": 26, "dewp": 25, "qnh": "1012 hPa"}, {"icao": "VVTH", "name": "Dong Tac — Tuy Hoa", "metar": "METAR VVTH 150130Z 18005KT CAVOK 32/23 Q1009 NOSIG", "speci": null, "taf": "TAF VVTH 142300Z 1500/1509 24012KT 9999 FEW020", "raw": "METAR VVTH 150130Z 18005KT CAVOK 32/23 Q1009 NOSIG", "fltcat": "VFR", "wind": "180° @ 5 kt", "vis": "CAVOK", "clouds": "NSC", "temp": 32, "dewp": 23, "qnh": "1009 hPa"}, {"icao": "VVTS", "name": "Tan Son Nhat — Ho Chi Minh City", "metar": "METAR VVTS 150130Z 22009KT 190V250 9999 SCT022 BKN053 31/26 Q1011 NOSIG", "speci": null, "taf": "TAF VVTS 142300Z 1500/1606 25008KT 9999 SCT017 SCT040 TEMPO 1506/1511 24015G28KT 2500 +TSRA SCT015 SCT017CB BKN040", "raw": "METAR VVTS 150130Z 22009KT 190V250 9999 SCT022 BKN053 31/26 Q1011 NOSIG", "fltcat": "VFR", "wind": "220° @ 9 kt", "vis": ">10 km", "clouds": "SCT022 BKN053", "temp": 31, "dewp": 26, "qnh": "1011 hPa", "atis": [{"kind": "ARR", "time": "2026-07-15 01:22 UTC", "text": "VVTS ARR ATIS U 0300Z VVTS INFO U 0300Z. ILSW APCH IN RWY 25R.. LDG RWY 25R AND DEP RWY 25L.. 0300Z. WIND RWY 25R TDZ 320/4KT VRB BTN 280/ AND 360/ VIS 10KM CLD BKN 2800FT T32 DP26 QNH 1009HPA TREND NOSIG. ADZ ON INITIAL CTC YOU HAVE INFO U."}, {"kind": "DEP", "time": "2026-07-14 15:01 UTC", "text": "VVTS DEP ATIS O 0000Z VVTS INFO O 0000Z. ILSW APCH IN RWY 25R.. LDG RWY 25R AND DEP RWY 25L.. 0000Z. WIND RWY 25R TDZ 280/3KT VRB BTN 250/ AND 310/ CAVOK T28 DP27 QNH 1010HPA TREND NOSIG. ADZ ON INITIAL CTC YOU HAVE INFO O."}]}, {"icao": "VVTX", "name": "Tho Xuan — Thanh Hoa", "metar": "METAR VVTX 150130Z 33003KT CAVOK 30/24 Q1003 NOSIG", "speci": null, "taf": "TAF VVTX 142300Z 1500/1509 20005KT 9999 FEW030 TEMPO 1505/1509 3500 SHRA SCT010 FEW020TCU", "raw": "METAR VVTX 150130Z 33003KT CAVOK 30/24 Q1003 NOSIG", "fltcat": "VFR", "wind": "330° @ 3 kt", "vis": "CAVOK", "clouds": "NSC", "temp": 30, "dewp": 24, "qnh": "1003 hPa"}, {"icao": "VVVD", "name": "Van Don — Quang Ninh", "metar": "METAR VVVD 150130Z VRB02KT 9999 FEW007 29/28 Q1003 NOSIG", "speci": null, "taf": "TAF VVVD 142300Z 1500/1524 14005KT 9999 FEW025 TEMPO 1500/1503 4000 SHRA SCT015 FEW027CB", "raw": "METAR VVVD 150130Z VRB02KT 9999 FEW007 29/28 Q1003 NOSIG", "fltcat": "VFR", "wind": "VRB @ 2 kt", "vis": ">10 km", "clouds": "FEW007", "temp": 29, "dewp": 28, "qnh": "1003 hPa"}, {"icao": "VVVH", "name": "Vinh", "metar": "METAR VVVH 150130Z 24008KT 200V280 CAVOK 32/22 Q1004 NOSIG", "speci": null, "taf": "TAF VVVH 142300Z 1500/1524 26005KT 9999 FEW025", "raw": "METAR VVVH 150130Z 24008KT 200V280 CAVOK 32/22 Q1004 NOSIG", "fltcat": "VFR", "wind": "240° @ 8 kt", "vis": "CAVOK", "clouds": "NSC", "temp": 32, "dewp": 22, "qnh": "1004 hPa"}]}