{"updated": "2026-07-16T18:44:47+00:00", "source": "VN MET", "stations": [{"icao": "VVCA", "name": "Chu Lai", "metar": "METAR VVCA 161830Z AUTO VRB02KT 9999 SCT200/// 28/25 Q1005", "speci": null, "taf": "TAF VVCA 152300Z 1600/1609 14008KT 9999 FEW020", "raw": "METAR VVCA 161830Z AUTO VRB02KT 9999 SCT200/// 28/25 Q1005", "fltcat": "VFR", "wind": "VRB @ 2 kt", "vis": ">10 km", "clouds": "SCT200", "temp": 28, "dewp": 25, "qnh": "1005 hPa"}, {"icao": "VVCI", "name": "Cat Bi — Hai Phong", "metar": "METAR VVCI 161830Z 18005KT CAVOK 31/26 Q1001 NOSIG", "speci": null, "taf": "TAF VVCI 161700Z 1618/1718 21005KT 9999 SCT020 TEMPO 1620/1701 4000 TSRA SCT008 FEW027CB TEMPO 1702/1706 4000 TSRA SCT010 FEW027CB", "raw": "METAR VVCI 161830Z 18005KT CAVOK 31/26 Q1001 NOSIG", "fltcat": "VFR", "wind": "180° @ 5 kt", "vis": "CAVOK", "clouds": "NSC", "temp": 31, "dewp": 26, "qnh": "1001 hPa"}, {"icao": "VVCR", "name": "Cam Ranh — Nha Trang", "metar": "METAR VVCR 161830Z 21005KT CAVOK 29/24 Q1009 NOSIG", "speci": null, "taf": "TAF VVCR 161700Z 1618/1718 25005KT 9999 FEW017 SCT070 BECMG 1702/1703 10010KT TEMPO 1709/1712 TS SCT013 FEW017CB SCT070 BECMG 1712/1713 20006KT", "raw": "METAR VVCR 161830Z 21005KT CAVOK 29/24 Q1009 NOSIG", "fltcat": "VFR", "wind": "210° @ 5 kt", "vis": "CAVOK", "clouds": "NSC", "temp": 29, "dewp": 24, "qnh": "1009 hPa", "atis": [{"kind": "ARR", "time": "2026-07-13 09:29 UTC", "text": "VVCR ARR ATIS W 1330Z VVCR INFO W 1330Z. ILS YANKEE APPROACH IN USE. LDG RWY 20L AND DPTG RWY 20R.. 1330Z. WIND RWY 20L TDZ 330/3KT VRB BTN 260/ AND 360/ MID 310/3KT VRB BTN 280/ AND 340/ END 320/3KT RWY 20R TDZ 320/1KT CAVOK T29 DP25 QNH 1010HPA TREND NOSIG. ADZ ON INITIAL CTC YOU HAVE INFO W."}, {"kind": "DEP", "time": "2026-05-29 05:57 UTC", "text": "VVCR DEP ATIS S 0533Z VVCR INFO S 0533Z. ILS Z APCH IN USE.. LDG RWY 02R AND DPTG RWY 02L.. 0532Z. WIND RWY 02R TDZ 080/9KT MID 090/8KT END 100/8KT RWY 02L TDZ 080/8KT CAVOK T31 DP26 QNH 1009HPA TREND TEMPO FM0630 VIS 4000M MOD TSRA. ADZ ON INITIAL CTC YOU HAVE INFO S."}]}, {"icao": "VVCT", "name": "Can Tho Intl", "metar": "METAR VVCT 161830Z VRB01KT 9999 FEW015 SCT040 26/25 Q1011 NOSIG", "speci": null, "taf": "TAF VVCT 161700Z 1618/1718 VRB03KT 9999 SCT015 SCT040 BECMG 1702/1703 26010KT", "raw": "METAR VVCT 161830Z VRB01KT 9999 FEW015 SCT040 26/25 Q1011 NOSIG", "fltcat": "VFR", "wind": "VRB @ 1 kt", "vis": ">10 km", "clouds": "FEW015 SCT040", "temp": 26, "dewp": 25, "qnh": "1011 hPa"}, {"icao": "VVDB", "name": "Dien Bien Phu", "metar": "METAR VVDB 161830Z AUTO VRB01KT 4400 // FEW007/// SCT035/// OVC041/// 24/24 Q1006 RE//", "speci": "SPECI VVDB 161841Z AUTO VRB02KT 5000 // FEW008/// BKN034/// OVC064/// 24/24 Q1006 RE//", "taf": "TAF VVDB 152300Z 1600/1609 21005KT 9999 SCT030 TEMPO 1607/1609 4000 TSRA SCT015 FEW027CB", "raw": "SPECI VVDB 161841Z AUTO VRB02KT 5000 // FEW008/// BKN034/// OVC064/// 24/24 Q1006 RE//", "fltcat": "MVFR", "wind": "VRB @ 2 kt", "vis": "5.0 km", "clouds": "FEW008 BKN034 OVC064", "temp": 24, "dewp": 24, "qnh": "1006 hPa"}, {"icao": "VVDH", "name": "Dong Hoi", "metar": "METAR VVDH 161830Z AUTO 18003KT 140V240 9999 OVC130/// 31/24 Q1004", "speci": null, "taf": "TAF VVDH 152300Z 1600/1609 21008KT 9999 FEW030", "raw": "METAR VVDH 161830Z AUTO 18003KT 140V240 9999 OVC130/// 31/24 Q1004", "fltcat": "VFR", "wind": "180° @ 3 kt", "vis": ">10 km", "clouds": "OVC130", "temp": 31, "dewp": 24, "qnh": "1004 hPa"}, {"icao": "VVDN", "name": "Da Nang Intl", "metar": "METAR VVDN 161830Z 21003KT 170V260 9999 FEW017 30/23 Q1006 NOSIG", "speci": null, "taf": "TAF VVDN 161700Z 1618/1718 23007KT 9999 FEW017 SCT060 TEMPO 1709/1712 TS SCT013 FEW015CB SCT060", "raw": "METAR VVDN 161830Z 21003KT 170V260 9999 FEW017 30/23 Q1006 NOSIG", "fltcat": "VFR", "wind": "210° @ 3 kt", "vis": ">10 km", "clouds": "FEW017", "temp": 30, "dewp": 23, "qnh": "1006 hPa", "atis": [{"kind": "ARR", "time": "2026-07-16 11:15 UTC", "text": "VVDN ARR ATIS E 1402Z VVDN INFO E 1402Z. ILS VICTOR APPROACH 35L.. DPTG RWY 35R.. 1402Z. WIND VRB/01KT CAVOK T31 DP25 QNH 1006HPA TREND NOSIG. ADZ ON INITIAL CTC YOU HAVE INFO. E."}, {"kind": "DEP", "time": "2026-07-12 02:50 UTC", "text": "VVDN DEP ATIS N 0423Z VVDN INFO N 0423Z. ILS VICTOR APPROACH 35L.. DPTG RWY 35R.. 0423Z. WIND 010/02KT CAVOK T36 DP24 QNH 1008HPA TREND NOSIG. WS ALL RWY. ADZ ON INITIAL CTC YOU HAVE INFO. N."}]}, {"icao": "VVNB", "name": "Noi Bai — Ha Noi", "metar": "METAR VVNB 161830Z 07003KT 030V090 7000 NSC 28/27 Q1001 NOSIG", "speci": null, "taf": "TAF VVNB 161700Z 1618/1718 09005KT 6000 FEW030 TEMPO 1621/1701 4000 TSRA SCT010 FEW027CB TEMPO 1703/1707 2500 +TSRA BKN010 SCT027CB", "raw": "METAR VVNB 161830Z 07003KT 030V090 7000 NSC 28/27 Q1001 NOSIG", "fltcat": "MVFR", "wind": "070° @ 3 kt", "vis": "7.0 km", "clouds": "NSC", "temp": 28, "dewp": 27, "qnh": "1001 hPa", "atis": [{"kind": "ARR", "time": "2026-07-16 11:03 UTC", "text": "VVNB ARR ATIS Q 1400Z VVNB INFO Q 1400Z. ILS X RWY 11L. DPTG RWY 11R AND ARR RWY 11L .. 1400Z. WIND 200/6KT CAVOK T31 DP25 QNH 1001HPA TREND NOSIG. ADZ ON INITIAL CTC YOU HAVE INFO Q."}, {"kind": "DEP", "time": "2026-07-16 02:01 UTC", "text": "VVNB DEP ATIS K 1100Z VVNB INFO K 1100Z. ILS X RWY 11L. DPTG RWY 11R AND ARR RWY 11L .. 1100Z. WIND 200/6KT CAVOK T34 DP25 QNH 1001HPA TREND NOSIG. ADZ ON INITIAL CTC YOU HAVE INFO K."}]}, {"icao": "VVPB", "name": "Phu Bai — Hue", "metar": "METAR VVPB 161830Z 23004KT 9999 SCT020 31/20 Q1005 NOSIG", "speci": null, "taf": "TAF VVPB 161700Z 1618/1718 20007KT 9999 FEW020 SCT060 TEMPO 1708/1712 TS SCT013 FEW017CB SCT060", "raw": "METAR VVPB 161830Z 23004KT 9999 SCT020 31/20 Q1005 NOSIG", "fltcat": "VFR", "wind": "230° @ 4 kt", "vis": ">10 km", "clouds": "SCT020", "temp": 31, "dewp": 20, "qnh": "1005 hPa"}, {"icao": "VVPC", "name": "Phu Cat — Quy Nhon", "metar": "METAR VVPC 161830Z AUTO 24003KT 200V280 9999 NCD 29/23 Q1007", "speci": null, "taf": "TAF VVPC 161700Z 1618/1718 22006KT 9999 FEW020", "raw": "METAR VVPC 161830Z AUTO 24003KT 200V280 9999 NCD 29/23 Q1007", "fltcat": "VFR", "wind": "240° @ 3 kt", "vis": ">10 km", "clouds": "—", "temp": 29, "dewp": 23, "qnh": "1007 hPa"}, {"icao": "VVPK", "name": "Pleiku", "metar": "METAR VVPK 161830Z AUTO 25015G28KT 230V290 9999 RA BKN005/// OVC009/// 22/21 Q1015", "speci": null, "taf": "TAF VVPK 161700Z 1618/1718 26006KT 7000 BKN015 TEMPO 1622/1701 2000 RA BR BKN002 BKN004 TEMPO 1701/1703 4000 RA BR BKN004 BKN008 TEMPO 1708/1713 4000 SHRA BKN010 FEW015CB BKN050", "raw": "METAR VVPK 161830Z AUTO 25015G28KT 230V290 9999 RA BKN005/// OVC009/// 22/21 Q1015", "fltcat": "IFR", "wind": "250° @ 15 kt G28", "vis": ">10 km", "clouds": "BKN005 OVC009", "temp": 22, "dewp": 21, "qnh": "1015 hPa"}, {"icao": "VVPQ", "name": "Phu Quoc Intl", "metar": "METAR VVPQ 161830Z 35002KT 9999 SCT015 26/26 Q1011 NOSIG", "speci": null, "taf": "TAF VVPQ 161700Z 1618/1718 27006KT 9999 SCT015 PROB30 TEMPO 1623/1701 27015G26KT 3000 TSRA BKN015 SCT017CB BKN040", "raw": "METAR VVPQ 161830Z 35002KT 9999 SCT015 26/26 Q1011 NOSIG", "fltcat": "VFR", "wind": "350° @ 2 kt", "vis": ">10 km", "clouds": "SCT015", "temp": 26, "dewp": 26, "qnh": "1011 hPa"}, {"icao": "VVTH", "name": "Dong Tac — Tuy Hoa", "metar": "METAR VVTH 161830Z AUTO VRB01KT CAVOK 28/23 Q1008", "speci": null, "taf": "TAF VVTH 152300Z 1600/1609 24014KT 9999 FEW020", "raw": "METAR VVTH 161830Z AUTO VRB01KT CAVOK 28/23 Q1008", "fltcat": "VFR", "wind": "VRB @ 1 kt", "vis": "CAVOK", "clouds": "NSC", "temp": 28, "dewp": 23, "qnh": "1008 hPa"}, {"icao": "VVTS", "name": "Tan Son Nhat — Ho Chi Minh City", "metar": "METAR VVTS 161830Z VRB02KT CAVOK 26/25 Q1011 NOSIG", "speci": null, "taf": "TAF VVTS 161700Z 1618/1724 35008KT 9999 SCT017 TEMPO 1706/1711 2000 +TSRA SCT013 SCT015CB", "raw": "METAR VVTS 161830Z VRB02KT CAVOK 26/25 Q1011 NOSIG", "fltcat": "VFR", "wind": "VRB @ 2 kt", "vis": "CAVOK", "clouds": "NSC", "temp": 26, "dewp": 25, "qnh": "1011 hPa", "atis": [{"kind": "ARR", "time": "2026-07-16 11:44 UTC", "text": "VVTS ARR ATIS Q 1400Z VVTS INFO Q 1400Z. ILSW APCH IN RWY 25R.. LDG RWY 25R AND DEP RWY 25L.. 1400Z. WIND RWY 25R TDZ 260/5KT CAVOK T31 DP26 QNH 1008HPA TREND NOSIG. ADZ ON INITIAL CTC YOU HAVE INFO Q."}, {"kind": "DEP", "time": "2026-07-16 16:54 UTC", "text": "VVTS DEP ATIS T 1530Z VVTS INFO T 1530Z. ILSW APCH IN RWY 25R.. LDG RWY 25R AND DEP RWY 25L.. 1530Z. WIND RWY 25R TDZ 250/12KT END 230/10KT MAX15 MNM8 CAVOK T30 DP27 QNH 1008HPA TREND NOSIG. ADZ ON INITIAL CTC YOU HAVE INFO T."}]}, {"icao": "VVTX", "name": "Tho Xuan — Thanh Hoa", "metar": "METAR VVTX 161830Z AUTO 32003KT CAVOK 28/24 Q1001 NOSIG", "speci": null, "taf": "TAF VVTX 152300Z 1600/1609 24005KT 9999 FEW030", "raw": "METAR VVTX 161830Z AUTO 32003KT CAVOK 28/24 Q1001 NOSIG", "fltcat": "VFR", "wind": "320° @ 3 kt", "vis": "CAVOK", "clouds": "NSC", "temp": 28, "dewp": 24, "qnh": "1001 hPa"}, {"icao": "VVVD", "name": "Van Don — Quang Ninh", "metar": "METAR VVVD 161830Z AUTO 20002KT 9999 FEW025/// BKN078/// 29/28 Q1002", "speci": null, "taf": "TAF VVVD 161700Z 1618/1718 18005KT 9999 SCT020 TEMPO 1620/1701 3000 TSRA SCT008 FEW027CB TEMPO 1702/1706 2500 +TSRA BKN010 SCT027CB TEMPO 1714/1718 3000 TSRA SCT010 FEW027CB", "raw": "METAR VVVD 161830Z AUTO 20002KT 9999 FEW025/// BKN078/// 29/28 Q1002", "fltcat": "VFR", "wind": "200° @ 2 kt", "vis": ">10 km", "clouds": "FEW025 BKN078", "temp": 29, "dewp": 28, "qnh": "1002 hPa"}, {"icao": "VVVH", "name": "Vinh", "metar": "METAR VVVH 161830Z 26006KT 210V310 CAVOK 32/21 Q1003 NOSIG", "speci": null, "taf": "TAF VVVH 161700Z 1618/1718 25008KT 9999 FEW030", "raw": "METAR VVVH 161830Z 26006KT 210V310 CAVOK 32/21 Q1003 NOSIG", "fltcat": "VFR", "wind": "260° @ 6 kt", "vis": "CAVOK", "clouds": "NSC", "temp": 32, "dewp": 21, "qnh": "1003 hPa"}]}