{"updated": "2026-07-24T22:32:46+00:00", "source": "VN MET", "stations": [{"icao": "VVBM", "name": "Buon Ma Thuot", "metar": "METAR VVBM 242230Z 27004KT 9999 BKN013 BKN040 23/22 Q1008 NOSIG", "speci": null, "taf": "TAF VVBM 232300Z 2400/2424 29007KT 9999 SCT015 SCT040 TEMPO 2407/2412 5000 TSRA BKN010 FEW015CB BKN040", "raw": "METAR VVBM 242230Z 27004KT 9999 BKN013 BKN040 23/22 Q1008 NOSIG", "fltcat": "MVFR", "wind": "270° @ 4 kt", "vis": ">10 km", "clouds": "BKN013 BKN040", "temp": 23, "dewp": 22, "qnh": "1008 hPa"}, {"icao": "VVCA", "name": "Chu Lai", "metar": "METAR VVCA 242200Z 16003KT CAVOK 25/25 Q1003 NOSIG", "speci": null, "taf": "TAF VVCA 242000Z 2421/2506 17007KT 9999 SCT020 BECMG 2502/2503 07011KT", "raw": "METAR VVCA 242200Z 16003KT CAVOK 25/25 Q1003 NOSIG", "fltcat": "VFR", "wind": "160° @ 3 kt", "vis": "CAVOK", "clouds": "NSC", "temp": 25, "dewp": 25, "qnh": "1003 hPa"}, {"icao": "VVCI", "name": "Cat Bi — Hai Phong", "metar": "METAR VVCI 242230Z 22007KT 9999 SCT009 BKN017 FEW025TCU 27/25 Q1005 TEMPO 4000 SHRA", "speci": null, "taf": "TAF VVCI 232300Z 2400/2424 14005KT 9999 SCT020 TEMPO 2400/2403 3500 TSRA SCT012 FEW027CB TEMPO 2406/2412 3000 TSRA SCT010 FEW027CB TEMPO 2416/2422 3000 TSRA SCT010 FEW027CB", "raw": "METAR VVCI 242230Z 22007KT 9999 SCT009 BKN017 FEW025TCU 27/25 Q1005 TEMPO 4000 SHRA", "fltcat": "MVFR", "wind": "220° @ 7 kt", "vis": ">10 km", "clouds": "SCT009 BKN017 FEW025", "temp": 27, "dewp": 25, "qnh": "1005 hPa"}, {"icao": "VVCR", "name": "Cam Ranh — Nha Trang", "metar": "METAR VVCR 242230Z 00000KT CAVOK 27/24 Q1005 NOSIG", "speci": null, "taf": "TAF VVCR 232300Z 2400/2424 32005KT 9999 FEW020 BECMG 2402/2403 11011KT TEMPO 2407/2411 4000 TSRA BKN013 FEW017CB BKN050 BECMG 2413/2414 30007KT", "raw": "METAR VVCR 242230Z 00000KT CAVOK 27/24 Q1005 NOSIG", "fltcat": "VFR", "wind": "000° @ 0 kt", "vis": "CAVOK", "clouds": "NSC", "temp": 27, "dewp": 24, "qnh": "1005 hPa", "atis": [{"kind": "ARR", "time": "2026-07-22 05:32 UTC", "text": "VVCR ARR ATIS O 1300Z VVCR INFO O 1300Z. ILS YANKEE APPROACH IN USE. LDG RWY 20L AND DPTG RWY 20R.. 1300Z. WIND RWY 20L TDZ 190/7KT MID 190/8KT END 180/7KT RWY 20R TDZ 190/7KT VIS RWY 20L TDZ 10KM END 10KM CLD RWY 20L SCT 7200FT T31 DP24 QNH 1007HPA TREND NOSIG. ADZ ON INITIAL CTC YOU HAVE INFO O."}, {"kind": "DEP", "time": "2026-05-29 05:57 UTC", "text": "VVCR DEP ATIS S 0533Z VVCR INFO S 0533Z. ILS Z APCH IN USE.. LDG RWY 02R AND DPTG RWY 02L.. 0532Z. WIND RWY 02R TDZ 080/9KT MID 090/8KT END 100/8KT RWY 02L TDZ 080/8KT CAVOK T31 DP26 QNH 1009HPA TREND TEMPO FM0630 VIS 4000M MOD TSRA. ADZ ON INITIAL CTC YOU HAVE INFO S."}]}, {"icao": "VVCS", "name": "Con Dao", "metar": "METAR VVCS 242230Z 24004KT 190V290 9999 FEW015 SCT040 27/24 Q1006 NOSIG", "speci": null, "taf": "TAF VVCS 242000Z 2421/2506 VRB03KT 9999 SCT015 SCT040 TEMPO 2422/2504 5000 TSRA SCT015 FEW017CB BKN040", "raw": "METAR VVCS 242230Z 24004KT 190V290 9999 FEW015 SCT040 27/24 Q1006 NOSIG", "fltcat": "VFR", "wind": "240° @ 4 kt", "vis": ">10 km", "clouds": "FEW015 SCT040", "temp": 27, "dewp": 24, "qnh": "1006 hPa"}, {"icao": "VVCT", "name": "Can Tho Intl", "metar": "METAR VVCT 242230Z 23005KT 9999 SCT015 BKN050 25/25 Q1006 NOSIG", "speci": null, "taf": "TAF AMD VVCT 232325Z 2400/2424 26007KT 9999 SCT015 SCT040 TEMPO 2400/2405 5000 TSRA SCT015 FEW017CB", "raw": "METAR VVCT 242230Z 23005KT 9999 SCT015 BKN050 25/25 Q1006 NOSIG", "fltcat": "VFR", "wind": "230° @ 5 kt", "vis": ">10 km", "clouds": "SCT015 BKN050", "temp": 25, "dewp": 25, "qnh": "1006 hPa"}, {"icao": "VVDB", "name": "Dien Bien Phu", "metar": "METAR VVDB 242230Z 35003KT 320V030 9999 SCT008 BKN076 23/23 Q1006 NOSIG", "speci": null, "taf": "TAF VVDB 242000Z 2421/2506 22005KT 8000 -RA SCT017 BKN030 TEMPO 2421/2424 4800 SHRA SCT010 FEW025TCU BKN030 TEMPO 2502/2506 4000 TSRA SCT012 FEW027CB BKN030", "raw": "METAR VVDB 242230Z 35003KT 320V030 9999 SCT008 BKN076 23/23 Q1006 NOSIG", "fltcat": "VFR", "wind": "350° @ 3 kt", "vis": ">10 km", "clouds": "SCT008 BKN076", "temp": 23, "dewp": 23, "qnh": "1006 hPa"}, {"icao": "VVDH", "name": "Dong Hoi", "metar": "METAR VVDH 242230Z 29004KT CAVOK 26/25 Q1005 NOSIG", "speci": null, "taf": "TAF VVDH 242000Z 2421/2506 28005KT 9999 FEW030 TEMPO 2503/2506 4000 TSRA SCT010 FEW027CB", "raw": "METAR VVDH 242230Z 29004KT CAVOK 26/25 Q1005 NOSIG", "fltcat": "VFR", "wind": "290° @ 4 kt", "vis": "CAVOK", "clouds": "NSC", "temp": 26, "dewp": 25, "qnh": "1005 hPa"}, {"icao": "VVDN", "name": "Da Nang Intl", "metar": "METAR VVDN 242230Z 20004KT 8000 FEW017 25/24 Q1004 NOSIG", "speci": null, "taf": "TAF VVDN 232300Z 2400/2424 22005KT 9999 FEW017 BECMG 2404/2405 02010KT TEMPO 2408/2412 23015G25KT 3000 TSRA BKN013 FEW017CB BKN060 BECMG 2412/2413 20007KT", "raw": "METAR VVDN 242230Z 20004KT 8000 FEW017 25/24 Q1004 NOSIG", "fltcat": "MVFR", "wind": "200° @ 4 kt", "vis": "8.0 km", "clouds": "FEW017", "temp": 25, "dewp": 24, "qnh": "1004 hPa", "atis": [{"kind": "ARR", "time": "2026-07-24 15:05 UTC", "text": "VVDN ARR ATIS E 1502Z VVDN INFO E 1502Z. ILS VICTOR APPROACH 35L.. DPTG RWY 35R.. 1502Z. WIND 210/03KT CAVOK T27 DP25 QNH 1006HPA TREND NOSIG. ADZ ON INITIAL CTC YOU HAVE INFO. E."}, {"kind": "DEP", "time": "2026-07-22 10:38 UTC", "text": "VVDN DEP ATIS G 1432Z VVDN INFO G 1432Z. ILS VICTOR APPROACH 35L.. DPTG RWY 35R.. 1432Z. WIND VRB/01KT CAVOK T32 DP24 QNH 1004HPA TREND NOSIG. ADZ ON INITIAL CTC YOU HAVE INFO. G."}]}, {"icao": "VVNB", "name": "Noi Bai — Ha Noi", "metar": "METAR VVNB 242230Z 28002KT 6000 TSRA FEW007 BKN025 SCT030CB 27/26 Q1006 TEMPO TL2300 18015KT 1500 +TSRA", "speci": null, "taf": "TAF AMD VVNB 242125Z 2422/2518 32005KT 6000 SCT025 TEMPO 2422/2502 2000 +TSRA BKN010 SCT027CB TEMPO 2502/2506 4000 TSRA SCT010 FEW027CB", "raw": "METAR VVNB 242230Z 28002KT 6000 TSRA FEW007 BKN025 SCT030CB 27/26 Q1006 TEMPO TL2300 18015KT 1500 +TSRA", "fltcat": "MVFR", "wind": "280° @ 2 kt", "vis": "6.0 km", "clouds": "FEW007 BKN025 SCT030", "temp": 27, "dewp": 26, "qnh": "1006 hPa", "atis": [{"kind": "ARR", "time": "2026-07-24 20:42 UTC", "text": "VVNB ARR ATIS B 1500Z VVNB INFO B 1500Z. ILS X RWY 11L. DPTG RWY 11R AND ARR RWY 11L .. 1500Z. WIND 160/1KT VIS 10KM CLD FEW 1200FT BKN 2800FT BKN 3500FT T28 DP27 QNH 1006HPA TREND NOSIG. ADZ ON INITIAL CTC YOU HAVE INFO B."}, {"kind": "DEP", "time": "2026-07-24 13:05 UTC", "text": "VVNB DEP ATIS W 1230Z VVNB INFO W 1230Z. ILS X RWY 11L. DPTG RWY 11R AND ARR RWY 11L .. 1230Z. WIND 360/1KT VIS 10KM CLD BKN 3100FT BKN 4700FT T29 DP27 QNH 1004HPA TREND NOSIG. ADZ ON INITIAL CTC YOU HAVE INFO W."}]}, {"icao": "VVPB", "name": "Phu Bai — Hue", "metar": "METAR VVPB 242230Z 27005KT 9999 FEW020 26/24 Q1004 NOSIG", "speci": null, "taf": "TAF VVPB 232300Z 2400/2424 24006KT 9999 FEW017 SCT060 BECMG 2403/2404 07010KT TEMPO 2408/2412 24015G25KT 4000 TSRA BKN013 FEW017CB BKN060 BECMG 2413/2414 24007KT", "raw": "METAR VVPB 242230Z 27005KT 9999 FEW020 26/24 Q1004 NOSIG", "fltcat": "VFR", "wind": "270° @ 5 kt", "vis": ">10 km", "clouds": "FEW020", "temp": 26, "dewp": 24, "qnh": "1004 hPa"}, {"icao": "VVPC", "name": "Phu Cat — Quy Nhon", "metar": "METAR VVPC 242230Z 25004KT 230V290 9999 FEW025 25/23 Q1004 NOSIG", "speci": null, "taf": "TAF VVPC 232300Z 2400/2424 25009KT 9999 FEW020 SCT060 TEMPO 2408/2412 VRB15G25KT 3000 TSRA BKN010 FEW015CB BKN050", "raw": "METAR VVPC 242230Z 25004KT 230V290 9999 FEW025 25/23 Q1004 NOSIG", "fltcat": "VFR", "wind": "250° @ 4 kt", "vis": ">10 km", "clouds": "FEW025", "temp": 25, "dewp": 23, "qnh": "1004 hPa"}, {"icao": "VVPK", "name": "Pleiku", "metar": "METAR VVPK 242230Z 27003KT 9999 SCT003 BKN010 FEW020TCU 22/21 Q1010 TEMPO 3000 RA BR", "speci": null, "taf": "TAF VVPK 232300Z 2400/2424 24008KT 9999 BKN010 TEMPO 2400/2403 3500 RA BR BKN004 BECMG 2403/2404 SCT017 SCT060 TEMPO 2408/2413 26015G25KT 4000 TSRA BKN010 FEW017CB BKN050 TEMPO 2422/2424 3500 RA BR BKN003 BKN006", "raw": "METAR VVPK 242230Z 27003KT 9999 SCT003 BKN010 FEW020TCU 22/21 Q1010 TEMPO 3000 RA BR", "fltcat": "MVFR", "wind": "270° @ 3 kt", "vis": ">10 km", "clouds": "SCT003 BKN010 FEW020", "temp": 22, "dewp": 21, "qnh": "1010 hPa"}, {"icao": "VVPQ", "name": "Phu Quoc Intl", "metar": "METAR VVPQ 242230Z 33011KT 6000 SHRA SCT015 FEW017CB BKN040 25/25 Q1006 NOSIG", "speci": null, "taf": "TAF AMD VVPQ 241945Z 2421/2518 26012KT 9999 SCT015 SCT040 TEMPO 2421/2423 30018G30KT 3000 TSRA BKN015 SCT017CB BKN030 TEMPO 2502/2504 32018G28KT 3000 TSRA BKN015 SCT017CB BKN040 TEMPO 2507/2509 5000 TSRA BKN015 FEW017CB", "raw": "METAR VVPQ 242230Z 33011KT 6000 SHRA SCT015 FEW017CB BKN040 25/25 Q1006 NOSIG", "fltcat": "MVFR", "wind": "330° @ 11 kt", "vis": "6.0 km", "clouds": "SCT015 FEW017 BKN040", "temp": 25, "dewp": 25, "qnh": "1006 hPa"}, {"icao": "VVRG", "name": "Rach Gia", "metar": "METAR VVRG 242200Z 24007KT 220V280 9999 VCTS SCT013 FEW015CB SCT040 25/24 Q1006 NOSIG", "speci": null, "taf": "TAF VVRG 242000Z 2421/2506 26008KT 9999 SCT015", "raw": "METAR VVRG 242200Z 24007KT 220V280 9999 VCTS SCT013 FEW015CB SCT040 25/24 Q1006 NOSIG", "fltcat": "VFR", "wind": "240° @ 7 kt", "vis": ">10 km", "clouds": "SCT013 FEW015 SCT040", "temp": 25, "dewp": 24, "qnh": "1006 hPa"}, {"icao": "VVTH", "name": "Dong Tac — Tuy Hoa", "metar": "METAR VVTH 242230Z 23004KT 210V270 CAVOK 26/23 Q1004 NOSIG", "speci": null, "taf": "TAF VVTH 242000Z 2421/2506 24011KT 9999 FEW020", "raw": "METAR VVTH 242230Z 23004KT 210V270 CAVOK 26/23 Q1004 NOSIG", "fltcat": "VFR", "wind": "230° @ 4 kt", "vis": "CAVOK", "clouds": "NSC", "temp": 26, "dewp": 23, "qnh": "1004 hPa"}, {"icao": "VVTS", "name": "Tan Son Nhat — Ho Chi Minh City", "metar": "METAR VVTS 242230Z 26007KT 9999 BKN011 26/26 Q1006 NOSIG", "speci": null, "taf": "TAF VVTS 232300Z 2400/2506 VRB03KT 9999 SCT017 BECMG 2400/2402 26010KT TEMPO 2406/2408 5000 TSRA BKN015 FEW017CB TEMPO 2408/2412 26015G28KT 2000 +TSRA BKN013 SCT015CB", "raw": "METAR VVTS 242230Z 26007KT 9999 BKN011 26/26 Q1006 NOSIG", "fltcat": "MVFR", "wind": "260° @ 7 kt", "vis": ">10 km", "clouds": "BKN011", "temp": 26, "dewp": 26, "qnh": "1006 hPa", "atis": [{"kind": "ARR", "time": "2026-07-24 21:12 UTC", "text": "VVTS ARR ATIS O 1530Z VVTS INFO O 1530Z. ILSW APCH IN RWY 25R.. LDG RWY 25R AND DEP RWY 25L.. 1530Z. WIND RWY 25R TDZ 240/4KT VRB BTN 230/ AND 310/ VIS 10KM FBL RA CLD NSC T26 DP26 QNH 1008HPA TREND NOSIG. RCR 5 5 5.. ADZ ON INITIAL CTC YOU HAVE INFO O."}, {"kind": "DEP", "time": "2026-07-24 22:26 UTC", "text": "VVTS DEP ATIS O 1530Z VVTS INFO O 1530Z. ILSW APCH IN RWY 25R.. LDG RWY 25R AND DEP RWY 25L.. 1530Z. WIND RWY 25R TDZ 240/4KT VRB BTN 230/ AND 310/ VIS 10KM FBL RA CLD NSC T26 DP26 QNH 1008HPA TREND NOSIG. RCR 5 5 5.. ADZ ON INITIAL CTC YOU HAVE INFO O."}]}, {"icao": "VVTX", "name": "Tho Xuan — Thanh Hoa", "metar": "METAR VVTX 242230Z 01002KT 8000 SCT020 26/25 Q1005 NOSIG", "speci": null, "taf": "TAF VVTX 242000Z 2421/2506 30005KT 6000 FEW030 TEMPO 2421/2501 3000 TSRA SCT010 FEW027CB TEMPO 2503/2506 4000 TSRA SCT010 FEW027CB", "raw": "METAR VVTX 242230Z 01002KT 8000 SCT020 26/25 Q1005 NOSIG", "fltcat": "MVFR", "wind": "010° @ 2 kt", "vis": "8.0 km", "clouds": "SCT020", "temp": 26, "dewp": 25, "qnh": "1005 hPa"}, {"icao": "VVVD", "name": "Van Don — Quang Ninh", "metar": "METAR VVVD 242230Z AUTO 09003KT 060V130 6000 OVC005/// 26/26 Q1006", "speci": null, "taf": "TAF VVVD 232300Z 2400/2424 VRB02KT 9999 SCT020 TEMPO 2400/2403 3000 TSRA SCT010 FEW027CB TEMPO 2405/2410 3500 TSRA SCT010 FEW027CB TEMPO 2416/2422 3000 TSRA SCT010 FEW027CB", "raw": "METAR VVVD 242230Z AUTO 09003KT 060V130 6000 OVC005/// 26/26 Q1006", "fltcat": "IFR", "wind": "090° @ 3 kt", "vis": "6.0 km", "clouds": "OVC005", "temp": 26, "dewp": 26, "qnh": "1006 hPa"}, {"icao": "VVVH", "name": "Vinh", "metar": "METAR VVVH 242230Z 29003KT 7000 NSC 26/25 Q1004 NOSIG", "speci": null, "taf": "TAF VVVH 232300Z 2400/2424 VRB02KT 9999 FEW030 TEMPO 2408/2412 3500 TSRA SCT010 FEW027CB", "raw": "METAR VVVH 242230Z 29003KT 7000 NSC 26/25 Q1004 NOSIG", "fltcat": "MVFR", "wind": "290° @ 3 kt", "vis": "7.0 km", "clouds": "NSC", "temp": 26, "dewp": 25, "qnh": "1004 hPa"}]}