{"updated": "2026-07-15T08:28:26+00:00", "source": "VN MET", "stations": [{"icao": "VVBM", "name": "Buon Ma Thuot", "metar": "METAR COR VVBM 150800Z 30008KT 270V330 9999 -RA SCT013 BKN040 27/23 Q1011 NOSIG", "speci": null, "taf": "TAF VVBM 150500Z 1506/1606 25008KT 9999 SCT013 SCT040 TEMPO 1508/1512 25015G27KT 4000 TSRA SCT013 FEW015CB BKN040", "raw": "METAR COR VVBM 150800Z 30008KT 270V330 9999 -RA SCT013 BKN040 27/23 Q1011 NOSIG", "fltcat": "VFR", "wind": "300° @ 8 kt", "vis": ">10 km", "clouds": "SCT013 BKN040", "temp": 27, "dewp": 23, "qnh": "1011 hPa"}, {"icao": "VVCA", "name": "Chu Lai", "metar": "METAR VVCA 150800Z 10010KT 060V130 9999 SCT047 34/23 Q1004 NOSIG", "speci": null, "taf": "TAF VVCA 150500Z 1506/1515 04010KT 9999 FEW020", "raw": "METAR VVCA 150800Z 10010KT 060V130 9999 SCT047 34/23 Q1004 NOSIG", "fltcat": "VFR", "wind": "100° @ 10 kt", "vis": ">10 km", "clouds": "SCT047", "temp": 34, "dewp": 23, "qnh": "1004 hPa"}, {"icao": "VVCI", "name": "Cat Bi — Hai Phong", "metar": "METAR VVCI 150800Z 14005KT 110V180 CAVOK 32/27 Q1001 NOSIG", "speci": null, "taf": "TAF VVCI 150500Z 1506/1606 21005KT 9999 FEW030 TEMPO 1508/1512 4000 SHRA SCT012 FEW025TCU TEMPO 1516/1520 4000 TSRA BKN015 FEW027CB", "raw": "METAR VVCI 150800Z 14005KT 110V180 CAVOK 32/27 Q1001 NOSIG", "fltcat": "VFR", "wind": "140° @ 5 kt", "vis": "CAVOK", "clouds": "NSC", "temp": 32, "dewp": 27, "qnh": "1001 hPa"}, {"icao": "VVCR", "name": "Cam Ranh — Nha Trang", "metar": "METAR VVCR 150800Z 13011KT CAVOK 36/23 Q1007 NOSIG", "speci": null, "taf": "TAF VVCR 150500Z 1506/1606 14012KT 9999 FEW020 TEMPO 1508/1512 TS SCT013 FEW015CB BECMG 1512/1513 20006KT", "raw": "METAR VVCR 150800Z 13011KT CAVOK 36/23 Q1007 NOSIG", "fltcat": "VFR", "wind": "130° @ 11 kt", "vis": "CAVOK", "clouds": "NSC", "temp": 36, "dewp": 23, "qnh": "1007 hPa", "atis": [{"kind": "ARR", "time": "2026-07-13 09:29 UTC", "text": "VVCR ARR ATIS W 1330Z VVCR INFO W 1330Z. ILS YANKEE APPROACH IN USE. LDG RWY 20L AND DPTG RWY 20R.. 1330Z. WIND RWY 20L TDZ 330/3KT VRB BTN 260/ AND 360/ MID 310/3KT VRB BTN 280/ AND 340/ END 320/3KT RWY 20R TDZ 320/1KT CAVOK T29 DP25 QNH 1010HPA TREND NOSIG. ADZ ON INITIAL CTC YOU HAVE INFO W."}, {"kind": "DEP", "time": "2026-05-29 05:57 UTC", "text": "VVCR DEP ATIS S 0533Z VVCR INFO S 0533Z. ILS Z APCH IN USE.. LDG RWY 02R AND DPTG RWY 02L.. 0532Z. WIND RWY 02R TDZ 080/9KT MID 090/8KT END 100/8KT RWY 02L TDZ 080/8KT CAVOK T31 DP26 QNH 1009HPA TREND TEMPO FM0630 VIS 4000M MOD TSRA. ADZ ON INITIAL CTC YOU HAVE INFO S."}]}, {"icao": "VVCS", "name": "Con Dao", "metar": "METAR VVCS 150800Z 26013G27KT 230V320 9999 -SHRA BKN015 FEW017CB SCT040 26/23 Q1011 TEMPO TL0840 25015G26KT 3000 TSRA", "speci": null, "taf": "TAF VVCS 150500Z 1506/1515 20010KT 9999 SCT017 TEMPO 1507/1511 20015G25KT 3500 TSRA BKN015 SCT017CB", "raw": "METAR VVCS 150800Z 26013G27KT 230V320 9999 -SHRA BKN015 FEW017CB SCT040 26/23 Q1011 TEMPO TL0840 25015G26KT 3000 TSRA", "fltcat": "MVFR", "wind": "260° @ 13 kt G27", "vis": ">10 km", "clouds": "BKN015 FEW017 SCT040", "temp": 26, "dewp": 23, "qnh": "1011 hPa"}, {"icao": "VVCT", "name": "Can Tho Intl", "metar": "METAR VVCT 150800Z 21014KT 9999 SCT013 BKN050 32/26 Q1010 NOSIG", "speci": null, "taf": "TAF VVCT 150500Z 1506/1606 23008KT 9999 SCT013 SCT050 TEMPO 1506/1510 23015G25KT 5000 TSRA SCT013 FEW015CB BKN040", "raw": "METAR VVCT 150800Z 21014KT 9999 SCT013 BKN050 32/26 Q1010 NOSIG", "fltcat": "VFR", "wind": "210° @ 14 kt", "vis": ">10 km", "clouds": "SCT013 BKN050", "temp": 32, "dewp": 26, "qnh": "1010 hPa"}, {"icao": "VVDB", "name": "Dien Bien Phu", "metar": "METAR VVDB 150800Z 20006KT 160V230 9999 FEW033 SCT056 30/24 Q1006 NOSIG", "speci": null, "taf": "TAF VVDB 150500Z 1506/1515 21005KT 9999 SCT030 TEMPO 1507/1511 4000 TSRA SCT015 FEW027CB", "raw": "METAR VVDB 150800Z 20006KT 160V230 9999 FEW033 SCT056 30/24 Q1006 NOSIG", "fltcat": "VFR", "wind": "200° @ 6 kt", "vis": ">10 km", "clouds": "FEW033 SCT056", "temp": 30, "dewp": 24, "qnh": "1006 hPa"}, {"icao": "VVDH", "name": "Dong Hoi", "metar": "METAR VVDH 150800Z 27009KT 230V300 CAVOK 33/24 Q1004 NOSIG", "speci": null, "taf": "TAF VVDH 150500Z 1506/1515 25012KT 9999 FEW030", "raw": "METAR VVDH 150800Z 27009KT 230V300 CAVOK 33/24 Q1004 NOSIG", "fltcat": "VFR", "wind": "270° @ 9 kt", "vis": "CAVOK", "clouds": "NSC", "temp": 33, "dewp": 24, "qnh": "1004 hPa"}, {"icao": "VVDN", "name": "Da Nang Intl", "metar": "METAR VVDN 150800Z 36006KT 9999 FEW020 SCT080 34/22 Q1005 NOSIG", "speci": null, "taf": "TAF VVDN 150500Z 1506/1606 20010KT 9999 FEW020 BECMG 1506/1507 05010KT BECMG 1512/1513 20006KT", "raw": "METAR VVDN 150800Z 36006KT 9999 FEW020 SCT080 34/22 Q1005 NOSIG", "fltcat": "VFR", "wind": "360° @ 6 kt", "vis": ">10 km", "clouds": "FEW020 SCT080", "temp": 34, "dewp": 22, "qnh": "1005 hPa", "atis": [{"kind": "ARR", "time": "2026-07-15 08:22 UTC", "text": "VVDN ARR ATIS L 0802Z VVDN INFO L 0802Z. ILS VICTOR APPROACH 35L.. DPTG RWY 35R.. 0802Z. WIND 010/6KT CAVOK T34 DP22 QNH 1005HPA TREND NOSIG. ADZ ON INITIAL CTC YOU HAVE INFO. L."}, {"kind": "DEP", "time": "2026-07-12 02:50 UTC", "text": "VVDN DEP ATIS N 0423Z VVDN INFO N 0423Z. ILS VICTOR APPROACH 35L.. DPTG RWY 35R.. 0423Z. WIND 010/02KT CAVOK T36 DP24 QNH 1008HPA TREND NOSIG. WS ALL RWY. ADZ ON INITIAL CTC YOU HAVE INFO. N."}]}, {"icao": "VVNB", "name": "Noi Bai — Ha Noi", "metar": "METAR VVNB 150800Z 10005KT 060V140 CAVOK 34/27 Q1000 NOSIG", "speci": null, "taf": "TAF VVNB 150500Z 1506/1606 14005KT 9999 FEW030 TEMPO 1512/1517 3500 TSRA BKN015 FEW027CB", "raw": "METAR VVNB 150800Z 10005KT 060V140 CAVOK 34/27 Q1000 NOSIG", "fltcat": "VFR", "wind": "100° @ 5 kt", "vis": "CAVOK", "clouds": "NSC", "temp": 34, "dewp": 27, "qnh": "1000 hPa", "atis": [{"kind": "ARR", "time": "2026-07-15 05:59 UTC", "text": "VVNB ARR ATIS X 0431Z VVNB INFO X 0431Z. ILS X RWY 11L. DPTG RWY 11R AND ARR RWY 11L .. 0431Z. WIND 190/5KT VIS 10KM FBL RA CLD NSC T32 DP24 QNH 1004HPA TREND TEMPO VIS 4500M MOD RA. ADZ ON INITIAL CTC YOU HAVE INFO X."}, {"kind": "DEP", "time": "2026-07-15 02:56 UTC", "text": "VVNB DEP ATIS V 0331Z VVNB INFO V 0331Z. ILS X RWY 11L. DPTG RWY 11R AND ARR RWY 11L .. 0331Z. WIND 070/4KT VIS 9KM CLD NSC T31 DP28 QNH 1005HPA TREND TEMPO VIS 4500M MOD RA. ADZ ON INITIAL CTC YOU HAVE INFO V."}]}, {"icao": "VVNS", "name": "Na San — Son La", "metar": "METAR VVNS 150800Z /////KT 9999 SCT035 29/22 Q1005 NOSIG", "speci": null, "taf": null, "raw": "METAR VVNS 150800Z /////KT 9999 SCT035 29/22 Q1005 NOSIG", "fltcat": "VFR", "wind": "—", "vis": ">10 km", "clouds": "SCT035", "temp": 29, "dewp": 22, "qnh": "1005 hPa"}, {"icao": "VVPB", "name": "Phu Bai — Hue", "metar": "METAR VVPB 150800Z 23005KT 9999 FEW020 SCT070 33/21 Q1004 NOSIG", "speci": null, "taf": "TAF VVPB 150500Z 1506/1606 20008KT 9999 FEW020", "raw": "METAR VVPB 150800Z 23005KT 9999 FEW020 SCT070 33/21 Q1004 NOSIG", "fltcat": "VFR", "wind": "230° @ 5 kt", "vis": ">10 km", "clouds": "FEW020 SCT070", "temp": 33, "dewp": 21, "qnh": "1004 hPa"}, {"icao": "VVPC", "name": "Phu Cat — Quy Nhon", "metar": "METAR VVPC 150800Z 23006KT 190V250 9999 FEW025 BKN078 34/23 Q1006 NOSIG", "speci": null, "taf": "TAF VVPC 150500Z 1506/1606 24013KT 9999 FEW020", "raw": "METAR VVPC 150800Z 23006KT 190V250 9999 FEW025 BKN078 34/23 Q1006 NOSIG", "fltcat": "VFR", "wind": "230° @ 6 kt", "vis": ">10 km", "clouds": "FEW025 BKN078", "temp": 34, "dewp": 23, "qnh": "1006 hPa"}, {"icao": "VVPK", "name": "Pleiku", "metar": "METAR VVPK 150800Z 26011KT 220V300 9999 SCT015 FEW017TCU SCT030 27/22 Q1012 TEMPO TL0900 4000 SHRA", "speci": null, "taf": "TAF VVPK 150500Z 1506/1606 26013KT 9999 BKN015 TEMPO 1506/1512 26015G25KT 4000 TSRA BKN008 FEW015CB BKN040 TEMPO 1521/1524 2000 RA BR BKN002 BKN005 TEMPO 1600/1603 4000 RA BR BKN004 BKN008", "raw": "METAR VVPK 150800Z 26011KT 220V300 9999 SCT015 FEW017TCU SCT030 27/22 Q1012 TEMPO TL0900 4000 SHRA", "fltcat": "VFR", "wind": "260° @ 11 kt", "vis": ">10 km", "clouds": "SCT015 FEW017 SCT030", "temp": 27, "dewp": 22, "qnh": "1012 hPa"}, {"icao": "VVPQ", "name": "Phu Quoc Intl", "metar": "METAR VVPQ 150800Z 20007KT 9999 SCT015 FEW017CB 29/28 Q1010 TEMPO FM0810 TL0850 20015G26KT 3000 TSRA", "speci": "SPECI VVPQ 150820Z 20008KT 3000 TSRA SCT015 FEW017CB BKN040 28/28 Q1010 BECMG TL0910 5000 TSRA", "taf": "TAF VVPQ 150500Z 1506/1606 24007KT 9999 SCT015 SCT040 PROB30 TEMPO 1506/1509 27015G26KT 5000 TSRA SCT015 FEW017CB BKN040 TEMPO 1522/1602 TS SCT015 FEW017CB BKN040", "raw": "SPECI VVPQ 150820Z 20008KT 3000 TSRA SCT015 FEW017CB BKN040 28/28 Q1010 BECMG TL0910 5000 TSRA", "fltcat": "IFR", "wind": "200° @ 8 kt", "vis": "3.0 km", "clouds": "SCT015 FEW017 BKN040", "temp": 28, "dewp": 28, "qnh": "1010 hPa"}, {"icao": "VVRG", "name": "Rach Gia", "metar": "METAR VVRG 150800Z 20010KT 160V230 9999 SCT015 SCT020 30/25 Q1010 NOSIG", "speci": null, "taf": "TAF VVRG 150500Z 1506/1515 24008KT 9999 SCT015 BKN040 PROB30 TEMPO 1506/1509 5000 TSRA SCT013 FEW015CB BKN040", "raw": "METAR VVRG 150800Z 20010KT 160V230 9999 SCT015 SCT020 30/25 Q1010 NOSIG", "fltcat": "VFR", "wind": "200° @ 10 kt", "vis": ">10 km", "clouds": "SCT015 SCT020", "temp": 30, "dewp": 25, "qnh": "1010 hPa"}, {"icao": "VVTH", "name": "Dong Tac — Tuy Hoa", "metar": "METAR VVTH 150800Z VRB09KT 9999 FEW020 SCT081 31/23 Q1006 NOSIG", "speci": null, "taf": "TAF VVTH 150500Z 1506/1515 26015KT 9999 FEW020 TEMPO 1509/1512 TS SCT013 FEW017CB", "raw": "METAR VVTH 150800Z VRB09KT 9999 FEW020 SCT081 31/23 Q1006 NOSIG", "fltcat": "VFR", "wind": "VRB @ 9 kt", "vis": ">10 km", "clouds": "FEW020 SCT081", "temp": 31, "dewp": 23, "qnh": "1006 hPa"}, {"icao": "VVTS", "name": "Tan Son Nhat — Ho Chi Minh City", "metar": "METAR VVTS 150800Z 36005KT 320V030 8000 -SHRA SCT017 FEW019CB BKN058 26/25 Q1010 TEMPO FM0810 TL0830 24015G25KT 4000 TSRA", "speci": "SPECI VVTS 150807Z 34004KT 250V030 9999 -TSRA SCT018 FEW020CB BKN049 26/25 Q1009 TEMPO FM0810 TL0830 24015G25KT 4000 TSRA", "taf": "TAF VVTS 150500Z 1506/1612 24010KT 9999 SCT017 TEMPO 1506/1510 24016G28KT 2500 +TSRA BKN015 SCT017CB TEMPO 1510/1512 5000 TSRA BKN015 FEW017CB TEMPO 1606/1610 24015G25KT 4000 TSRA BKN015 FEW017CB", "raw": "SPECI VVTS 150807Z 34004KT 250V030 9999 -TSRA SCT018 FEW020CB BKN049 26/25 Q1009 TEMPO FM0810 TL0830 24015G25KT 4000 TSRA", "fltcat": "VFR", "wind": "340° @ 4 kt", "vis": ">10 km", "clouds": "SCT018 FEW020 BKN049", "temp": 26, "dewp": 25, "qnh": "1009 hPa", "atis": [{"kind": "ARR", "time": "2026-07-15 04:19 UTC", "text": "VVTS ARR ATIS W 0401Z VVTS INFO W 0401Z. ILSW APCH IN RWY 25R.. LDG RWY 25R AND DEP RWY 25L.. 0401Z. WIND RWY 25R TDZ VRB5KT VIS 10KM CLD BKN 3400FT T33 DP25 QNH 1009HPA TREND NOSIG. ADZ ON INITIAL CTC YOU HAVE INFO W."}, {"kind": "DEP", "time": "2026-07-15 06:42 UTC", "text": "VVTS DEP ATIS Y 0500Z VVTS INFO Y 0500Z. ILSW APCH IN RWY 25R.. LDG RWY 25R AND DEP RWY 25L.. 0500Z. WIND RWY 25R TDZ 350/4KT MAX09 MNM2 VRB BTN 280/ AND 010/ VIS 10KM CLD BKN 3900FT T34 DP26 QNH 1008HPA TREND NOSIG. ADZ ON INITIAL CTC YOU HAVE INFO Y."}]}, {"icao": "VVTX", "name": "Tho Xuan — Thanh Hoa", "metar": "METAR VVTX 150800Z 18003KT 140V200 CAVOK 36/23 Q1000 NOSIG", "speci": null, "taf": "TAF VVTX 150500Z 1506/1515 24006KT 9999 FEW030", "raw": "METAR VVTX 150800Z 18003KT 140V200 CAVOK 36/23 Q1000 NOSIG", "fltcat": "VFR", "wind": "180° @ 3 kt", "vis": "CAVOK", "clouds": "NSC", "temp": 36, "dewp": 23, "qnh": "1000 hPa"}, {"icao": "VVVD", "name": "Van Don — Quang Ninh", "metar": "METAR VVVD 150800Z 19005KT 160V220 9999 FEW022 32/28 Q1002 NOSIG", "speci": null, "taf": "TAF VVVD 150500Z 1506/1606 24005KT 9999 SCT020 TEMPO 1507/1511 4000 TSRA BKN015 FEW027CB TEMPO 1515/1520 4000 TSRA BKN012 FEW027CB", "raw": "METAR VVVD 150800Z 19005KT 160V220 9999 FEW022 32/28 Q1002 NOSIG", "fltcat": "VFR", "wind": "190° @ 5 kt", "vis": ">10 km", "clouds": "FEW022", "temp": 32, "dewp": 28, "qnh": "1002 hPa"}, {"icao": "VVVH", "name": "Vinh", "metar": "METAR VVVH 150800Z 22008KT 180V270 CAVOK 32/22 Q1002 NOSIG", "speci": null, "taf": "TAF VVVH 150500Z 1506/1606 24010KT 9999 FEW030", "raw": "METAR VVVH 150800Z 22008KT 180V270 CAVOK 32/22 Q1002 NOSIG", "fltcat": "VFR", "wind": "220° @ 8 kt", "vis": "CAVOK", "clouds": "NSC", "temp": 32, "dewp": 22, "qnh": "1002 hPa"}]}