{"updated": "2026-07-12T20:04:20+00:00", "source": "VN MET", "stations": [{"icao": "VVBM", "name": "Buon Ma Thuot", "metar": "METAR VVBM 122000Z 23004KT 180V270 9999 SCT013 BKN040 23/22 Q1008 NOSIG", "speci": null, "taf": "TAF VVBM 121700Z 1218/1318 24006KT 9999 SCT012 SCT040 TEMPO 1222/1301 5000 RA BKN008 BKN040 TEMPO 1305/1310 24015G28KT 3000 TSRA BKN010 SCT013CB BKN040 TEMPO 1310/1313 5000 SHRA SCT010 FEW013CB BKN040", "raw": "METAR VVBM 122000Z 23004KT 180V270 9999 SCT013 BKN040 23/22 Q1008 NOSIG", "fltcat": "VFR", "wind": "230° @ 4 kt", "vis": ">10 km", "clouds": "SCT013 BKN040", "temp": 23, "dewp": 22, "qnh": "1008 hPa"}, {"icao": "VVCA", "name": "Chu Lai", "metar": "METAR VVCA 122000Z AUTO 04002KT 9999 FEW097/// SCT160/// 27/26 Q1000", "speci": null, "taf": "TAF VVCA 112300Z 1200/1209 15005KT 9999 FEW020 BECMG 1204/1205 06010KT", "raw": "METAR VVCA 122000Z AUTO 04002KT 9999 FEW097/// SCT160/// 27/26 Q1000", "fltcat": "VFR", "wind": "040° @ 2 kt", "vis": ">10 km", "clouds": "FEW097 SCT160", "temp": 27, "dewp": 26, "qnh": "1000 hPa"}, {"icao": "VVCI", "name": "Cat Bi — Hai Phong", "metar": "METAR VVCI 122000Z 15004KT 9999 FEW014 29/27 Q1000 NOSIG", "speci": null, "taf": "TAF VVCI 121700Z 1218/1318 12005KT 9999 FEW020 TEMPO 1223/1304 4000 TSRA SCT010 FEW027CB", "raw": "METAR VVCI 122000Z 15004KT 9999 FEW014 29/27 Q1000 NOSIG", "fltcat": "VFR", "wind": "150° @ 4 kt", "vis": ">10 km", "clouds": "FEW014", "temp": 29, "dewp": 27, "qnh": "1000 hPa"}, {"icao": "VVCR", "name": "Cam Ranh — Nha Trang", "metar": "METAR VVCR 122000Z 20013KT 9999 FEW017 SCT060 28/24 Q1005 NOSIG", "speci": null, "taf": "TAF VVCR 121700Z 1218/1318 20015KT 9999 FEW017 SCT060", "raw": "METAR VVCR 122000Z 20013KT 9999 FEW017 SCT060 28/24 Q1005 NOSIG", "fltcat": "VFR", "wind": "200° @ 13 kt", "vis": ">10 km", "clouds": "FEW017 SCT060", "temp": 28, "dewp": 24, "qnh": "1005 hPa", "atis": [{"kind": "ARR", "time": "2026-07-12 04:42 UTC", "text": "VVCR ARR ATIS F 0501Z VVCR INFO F 0501Z. ILS YANKEE APPROACH IN USE. LDG RWY 20L AND DPTG RWY 20R.. 0501Z. WIND RWY 20L TDZ 150/9KT MAX15 MNM6 MID 130/11KT END 120/10KT RWY 20R TDZ 130/9KT CAVOK T35 DP24 QNH 1010HPA TREND NOSIG. ADZ ON INITIAL CTC YOU HAVE INFO F."}, {"kind": "DEP", "time": "2026-05-29 05:57 UTC", "text": "VVCR DEP ATIS S 0533Z VVCR INFO S 0533Z. ILS Z APCH IN USE.. LDG RWY 02R AND DPTG RWY 02L.. 0532Z. WIND RWY 02R TDZ 080/9KT MID 090/8KT END 100/8KT RWY 02L TDZ 080/8KT CAVOK T31 DP26 QNH 1009HPA TREND TEMPO FM0630 VIS 4000M MOD TSRA. ADZ ON INITIAL CTC YOU HAVE INFO S."}]}, {"icao": "VVCT", "name": "Can Tho Intl", "metar": "METAR VVCT 122000Z 27014KT 180V330 9999 SCT013 FEW015TCU BKN040 24/24 Q1008 NOSIG", "speci": null, "taf": "TAF VVCT 121700Z 1218/1318 24005KT 9999 SCT013 BKN040 TEMPO 1222/1303 5000 TSRA SCT013 FEW015CB BKN040 TEMPO 1303/1308 24015G26KT 3000 TSRA SCT013 SCT015CB BKN040 TEMPO 1308/1312 5000 TSRA SCT013 FEW015CB BKN040", "raw": "METAR VVCT 122000Z 27014KT 180V330 9999 SCT013 FEW015TCU BKN040 24/24 Q1008 NOSIG", "fltcat": "VFR", "wind": "270° @ 14 kt", "vis": ">10 km", "clouds": "SCT013 FEW015 BKN040", "temp": 24, "dewp": 24, "qnh": "1008 hPa"}, {"icao": "VVDB", "name": "Dien Bien Phu", "metar": "METAR VVDB 122000Z AUTO 28002KT 9999 // FEW005/// OVC012/// 23/22 Q1004 RE//", "speci": null, "taf": "TAF VVDB 112300Z 1200/1209 VRB02KT 8000 SCT015 TEMPO 1206/1209 4000 TSRA SCT010 FEW027CB", "raw": "METAR VVDB 122000Z AUTO 28002KT 9999 // FEW005/// OVC012/// 23/22 Q1004 RE//", "fltcat": "MVFR", "wind": "280° @ 2 kt", "vis": ">10 km", "clouds": "FEW005 OVC012", "temp": 23, "dewp": 22, "qnh": "1004 hPa"}, {"icao": "VVDH", "name": "Dong Hoi", "metar": "METAR VVDH 122000Z AUTO 14003KT 9999 OVC067/// 28/25 Q1001", "speci": null, "taf": "TAF VVDH 112300Z 1200/1209 24007KT 9999 FEW020 TEMPO 1202/1206 24015G25KT", "raw": "METAR VVDH 122000Z AUTO 14003KT 9999 OVC067/// 28/25 Q1001", "fltcat": "VFR", "wind": "140° @ 3 kt", "vis": ">10 km", "clouds": "OVC067", "temp": 28, "dewp": 25, "qnh": "1001 hPa"}, {"icao": "VVDN", "name": "Da Nang Intl", "metar": "METAR VVDN 122000Z 28003KT 9999 FEW017 SCT066 29/23 Q1001 NOSIG", "speci": null, "taf": "TAF VVDN 121700Z 1218/1318 24008KT 8000 SCT017 SCT060 TEMPO 1220/1224 4000 RA PROB40 TEMPO 1309/1313 24015G25KT 4500 TSRA BKN013 FEW015CB BKN050", "raw": "METAR VVDN 122000Z 28003KT 9999 FEW017 SCT066 29/23 Q1001 NOSIG", "fltcat": "VFR", "wind": "280° @ 3 kt", "vis": ">10 km", "clouds": "FEW017 SCT066", "temp": 29, "dewp": 23, "qnh": "1001 hPa", "atis": [{"kind": "ARR", "time": "2026-07-12 18:15 UTC", "text": "VVDN ARR ATIS X 0902Z VVDN INFO X 0902Z. ILS VICTOR APPROACH 35L.. DPTG RWY 35R.. 0902Z. WIND 110/10KT CAVOK T33 DP27 QNH 1006HPA TREND NOSIG. ADZ ON INITIAL CTC YOU HAVE INFO. X."}, {"kind": "DEP", "time": "2026-07-12 02:50 UTC", "text": "VVDN DEP ATIS N 0423Z VVDN INFO N 0423Z. ILS VICTOR APPROACH 35L.. DPTG RWY 35R.. 0423Z. WIND 010/02KT CAVOK T36 DP24 QNH 1008HPA TREND NOSIG. WS ALL RWY. ADZ ON INITIAL CTC YOU HAVE INFO. N."}]}, {"icao": "VVNB", "name": "Noi Bai — Ha Noi", "metar": "METAR VVNB 122000Z 05003KT 010V070 9999 FEW014 SCT017 28/26 Q1001 NOSIG", "speci": null, "taf": "TAF VVNB 121700Z 1218/1318 06005KT 9999 SCT015 PROB40 TEMPO 1301/1305 4000 TSRA SCT010 FEW027CB TEMPO 1310/1315 4000 TSRA SCT010 FEW027CB", "raw": "METAR VVNB 122000Z 05003KT 010V070 9999 FEW014 SCT017 28/26 Q1001 NOSIG", "fltcat": "VFR", "wind": "050° @ 3 kt", "vis": ">10 km", "clouds": "FEW014 SCT017", "temp": 28, "dewp": 26, "qnh": "1001 hPa", "atis": [{"kind": "ARR", "time": "2026-07-12 14:38 UTC", "text": "VVNB ARR ATIS C 0800Z VVNB INFO C 0800Z. ILS X RWY 11L. DPTG RWY 11R AND ARR RWY 11L .. 0800Z. WIND 210/5KT CAVOK T36 DP25 QNH 1003HPA TREND NOSIG. ADZ ON INITIAL CTC YOU HAVE INFO C."}, {"kind": "DEP", "time": "2026-07-12 19:26 UTC", "text": "VVNB DEP ATIS F 0930Z VVNB INFO F 0930Z. ILS X RWY 11L. DPTG RWY 11R AND ARR RWY 11L .. 0930Z. WIND 170/4KT CAVOK T36 DP25 QNH 1002HPA TREND NOSIG. ADZ ON INITIAL CTC YOU HAVE INFO F."}]}, {"icao": "VVPB", "name": "Phu Bai — Hue", "metar": "METAR VVPB 121930Z 19004KT 9999 FEW020 SCT060 29/23 Q1001 NOSIG", "speci": null, "taf": "TAF VVPB 121700Z 1218/1318 20005KT 8000 SCT015 SCT050 TEMPO 1220/1224 4000 RA TEMPO 1308/1312 23015G25KT 4000 TSRA BKN013 FEW015CB BKN050", "raw": "METAR VVPB 121930Z 19004KT 9999 FEW020 SCT060 29/23 Q1001 NOSIG", "fltcat": "VFR", "wind": "190° @ 4 kt", "vis": ">10 km", "clouds": "FEW020 SCT060", "temp": 29, "dewp": 23, "qnh": "1001 hPa"}, {"icao": "VVPC", "name": "Phu Cat — Quy Nhon", "metar": "METAR VVPC 122000Z AUTO 24005KT 9999 SCT180/// 28/22 Q1003", "speci": null, "taf": "TAF VVPC 121700Z 1218/1318 25012KT 9999 SCT015 SCT050 TEMPO 1222/1302 25015G25KT 4500 SHRA BKN010 FEW015CB BKN050", "raw": "METAR VVPC 122000Z AUTO 24005KT 9999 SCT180/// 28/22 Q1003", "fltcat": "VFR", "wind": "240° @ 5 kt", "vis": ">10 km", "clouds": "SCT180", "temp": 28, "dewp": 22, "qnh": "1003 hPa"}, {"icao": "VVPK", "name": "Pleiku", "metar": "METAR VVPK 122000Z AUTO 27011KT 240V300 9999 DZ BKN004/// BKN011/// OVC017/// 21/20 Q1010 RERA", "speci": null, "taf": "TAF VVPK 121700Z 1218/1318 26015KT 7000 SCT005 BKN010 TEMPO 1222/1301 26016G28KT 2000 RA BR BKN002 BKN006 TEMPO 1301/1304 26016G28KT 4000 RA BR BKN004 BKN008 TEMPO 1309/1313 26017G28KT 3500 SHRA BKN004 BKN010 FEW015CB", "raw": "METAR VVPK 122000Z AUTO 27011KT 240V300 9999 DZ BKN004/// BKN011/// OVC017/// 21/20 Q1010 RERA", "fltcat": "LIFR", "wind": "270° @ 11 kt", "vis": ">10 km", "clouds": "BKN004 BKN011 OVC017", "temp": 21, "dewp": 20, "qnh": "1010 hPa"}, {"icao": "VVPQ", "name": "Phu Quoc Intl", "metar": "METAR VVPQ 122000Z 28006KT 9999 SCT013 FEW015CB BKN040 25/25 Q1006 NOSIG", "speci": null, "taf": "TAF VVPQ 121700Z 1218/1318 33007KT 9999 SCT013 SCT040 TEMPO 1218/1220 5000 TSRA SCT013 FEW015CB BKN040 TEMPO 1222/1302 33015G28KT 5000 TSRA SCT013 FEW015CB BKN040 TEMPO 1302/1308 33015G28KT 3000 TSRA SCT013 SCT015CB BKN040", "raw": "METAR VVPQ 122000Z 28006KT 9999 SCT013 FEW015CB BKN040 25/25 Q1006 NOSIG", "fltcat": "VFR", "wind": "280° @ 6 kt", "vis": ">10 km", "clouds": "SCT013 FEW015 BKN040", "temp": 25, "dewp": 25, "qnh": "1006 hPa"}, {"icao": "VVTH", "name": "Dong Tac — Tuy Hoa", "metar": "METAR VVTH 122000Z AUTO 25004KT 230V310 CAVOK 28/23 Q1004", "speci": null, "taf": "TAF VVTH 112300Z 1200/1209 24012KT 9999 FEW020 SCT060 TEMPO 1201/1209 24018G28KT", "raw": "METAR VVTH 122000Z AUTO 25004KT 230V310 CAVOK 28/23 Q1004", "fltcat": "VFR", "wind": "250° @ 4 kt", "vis": "CAVOK", "clouds": "NSC", "temp": 28, "dewp": 23, "qnh": "1004 hPa"}, {"icao": "VVTS", "name": "Tan Son Nhat — Ho Chi Minh City", "metar": "METAR VVTS 122000Z 26008KT 9999 FEW017 BKN050 26/24 Q1007 NOSIG", "speci": null, "taf": "TAF VVTS 121700Z 1218/1324 25010KT 9999 SCT017 TEMPO 1305/1309 25015G28KT 4000 TSRA SCT015 FEW017CB", "raw": "METAR VVTS 122000Z 26008KT 9999 FEW017 BKN050 26/24 Q1007 NOSIG", "fltcat": "VFR", "wind": "260° @ 8 kt", "vis": ">10 km", "clouds": "FEW017 BKN050", "temp": 26, "dewp": 24, "qnh": "1007 hPa", "atis": [{"kind": "ARR", "time": "2026-07-12 16:59 UTC", "text": "VVTS ARR ATIS E 0830Z VVTS INFO E 0830Z. ILSW APCH IN RWY 25R.. LDG RWY 25R AND DEP RWY 25L.. 0830Z. WIND RWY 25R TDZ 330/9KT VRB BTN 290/ AND 360/ VIS 10KM CLD SCT 2300FT FEW CB 2500FT SCT 5000FT T33 DP25 QNH 1007HPA CB IN APCH TREND NOSIG. ADZ ON INITIAL CTC YOU HAVE INFO E."}, {"kind": "DEP", "time": "2026-07-10 22:52 UTC", "text": "VVTS DEP ATIS Z 1835Z VVTS INFO Z 1835Z. ILSW APCH IN RWY 25R.. LDG RWY 25R AND DEP RWY 25L.. 1830Z. WIND RWY 25L TDZ 200/5KT MID 200/6KT END 200/4KT MAX10 MNM2 VRB BTN 160/ AND 300/ RWY 25R TDZ 200/5KT END 200/6KT MAX12 MNM4 VRB BTN 180/ AND 270/ VIS RWY 25L TDZ 10KM MID 10KM END 10KM RWY 25R TDZ 10KM MID 10KM END 10KM CLD RWY 25L SCT 3500FT RWY 25R FEW 3500FT T29 DP26 QNH 1010HPA TREND NOSIG. ADZ ON INITIAL CTC YOU HAVE INFO Z."}]}, {"icao": "VVTX", "name": "Tho Xuan — Thanh Hoa", "metar": "METAR VVTX 122000Z AUTO 31004KT 9000 NCD 26/24 Q1000 NOSIG", "speci": null, "taf": "TAF VVTX 112300Z 1200/1209 34005KT 9999 SCT020 TEMPO 1207/1209 3500 TSRA SCT010 FEW027CB", "raw": "METAR VVTX 122000Z AUTO 31004KT 9000 NCD 26/24 Q1000 NOSIG", "fltcat": "VFR", "wind": "310° @ 4 kt", "vis": "9.0 km", "clouds": "—", "temp": 26, "dewp": 24, "qnh": "1000 hPa"}, {"icao": "VVVD", "name": "Van Don — Quang Ninh", "metar": "METAR VVVD 122000Z AUTO VRB01KT 9999 OVC008/// 28/28 Q1001", "speci": null, "taf": "TAF VVVD 121700Z 1218/1318 09005KT 9999 FEW020 TEMPO 1222/1303 4000 TSRA SCT010 FEW027CB", "raw": "METAR VVVD 122000Z AUTO VRB01KT 9999 OVC008/// 28/28 Q1001", "fltcat": "IFR", "wind": "VRB @ 1 kt", "vis": ">10 km", "clouds": "OVC008", "temp": 28, "dewp": 28, "qnh": "1001 hPa"}, {"icao": "VVVH", "name": "Vinh", "metar": "METAR VVVH 122000Z 30003KT CAVOK 27/24 Q1000 NOSIG", "speci": null, "taf": "TAF VVVH 112300Z 1200/1218 25005KT 9999 FEW020 TEMPO 1208/1212 3000 TSRA SCT010 FEW027CB", "raw": "METAR VVVH 122000Z 30003KT CAVOK 27/24 Q1000 NOSIG", "fltcat": "VFR", "wind": "300° @ 3 kt", "vis": "CAVOK", "clouds": "NSC", "temp": 27, "dewp": 24, "qnh": "1000 hPa"}]}