{"updated": "2026-07-18T13:01:32+00:00", "source": "VN MET", "stations": [{"icao": "VVBM", "name": "Buon Ma Thuot", "metar": "METAR VVBM 181300Z 29007KT 8000 SCT010 FEW013CB BKN030 24/22 Q1012 NOSIG", "speci": null, "taf": "TAF VVBM 181100Z 1812/1912 29007KT 9999 SCT013 SCT040 TEMPO 1812/1816 5000 TSRA BKN013 FEW015CB BKN040 TEMPO 1909/1912 5000 TSRA BKN013 FEW015CB BKN040", "raw": "METAR VVBM 181300Z 29007KT 8000 SCT010 FEW013CB BKN030 24/22 Q1012 NOSIG", "fltcat": "MVFR", "wind": "290° @ 7 kt", "vis": "8.0 km", "clouds": "SCT010 FEW013 BKN030", "temp": 24, "dewp": 22, "qnh": "1012 hPa"}, {"icao": "VVCA", "name": "Chu Lai", "metar": "METAR VVCA 181300Z AUTO 17005KT 9999 NCD 31/23 Q1004", "speci": null, "taf": "TAF VVCA 172300Z 1800/1809 19007KT 9999 FEW020 BECMG 1803/1804 08010KT", "raw": "METAR VVCA 181300Z AUTO 17005KT 9999 NCD 31/23 Q1004", "fltcat": "VFR", "wind": "170° @ 5 kt", "vis": ">10 km", "clouds": "—", "temp": 31, "dewp": 23, "qnh": "1004 hPa"}, {"icao": "VVCI", "name": "Cat Bi — Hai Phong", "metar": "METAR VVCI 181300Z 17007KT 120V190 CAVOK 31/26 Q1001 NOSIG", "speci": null, "taf": "TAF VVCI 181100Z 1812/1912 16006KT 9999 FEW030 TEMPO 1821/1902 3200 TSRA SCT012 FEW027CB TEMPO 1909/1912 4000 TSRA SCT015 FEW027CB", "raw": "METAR VVCI 181300Z 17007KT 120V190 CAVOK 31/26 Q1001 NOSIG", "fltcat": "VFR", "wind": "170° @ 7 kt", "vis": "CAVOK", "clouds": "NSC", "temp": 31, "dewp": 26, "qnh": "1001 hPa"}, {"icao": "VVCR", "name": "Cam Ranh — Nha Trang", "metar": "METAR VVCR 181300Z 20014KT CAVOK 30/26 Q1008 NOSIG", "speci": null, "taf": "TAF VVCR 181100Z 1812/1912 21006KT 9999 FEW020 BECMG 1902/1903 07010KT", "raw": "METAR VVCR 181300Z 20014KT CAVOK 30/26 Q1008 NOSIG", "fltcat": "VFR", "wind": "200° @ 14 kt", "vis": "CAVOK", "clouds": "NSC", "temp": 30, "dewp": 26, "qnh": "1008 hPa", "atis": [{"kind": "ARR", "time": "2026-07-17 14:03 UTC", "text": "VVCR ARR ATIS F 1401Z VVCR INFO F 1401Z. ILS Z APCH IN USE.. LDG RWY 02R AND DPTG RWY 02L.. 1400Z. WIND RWY 02R TDZ 040/3KT MID 340/3KT END 010/6KT RWY 02L TDZ 020/3KT VIS RWY 02R TDZ 10KM END"}, {"kind": "DEP", "time": "2026-05-29 05:57 UTC", "text": "VVCR DEP ATIS S 0533Z VVCR INFO S 0533Z. ILS Z APCH IN USE.. LDG RWY 02R AND DPTG RWY 02L.. 0532Z. WIND RWY 02R TDZ 080/9KT MID 090/8KT END 100/8KT RWY 02L TDZ 080/8KT CAVOK T31 DP26 QNH 1009HPA TREND TEMPO FM0630 VIS 4000M MOD TSRA. ADZ ON INITIAL CTC YOU HAVE INFO S."}]}, {"icao": "VVCT", "name": "Can Tho Intl", "metar": "METAR VVCT 181300Z 22005KT 9999 SCT013 FEW015CB 28/25 Q1009 NOSIG", "speci": null, "taf": "TAF VVCT 181100Z 1812/1912 26006KT 9999 SCT013 SCT040 TEMPO 1812/1814 5000 TSRA SCT013 FEW015CB BKN040 TEMPO 1908/1912 5000 TSRA SCT013 FEW015CB BKN040", "raw": "METAR VVCT 181300Z 22005KT 9999 SCT013 FEW015CB 28/25 Q1009 NOSIG", "fltcat": "VFR", "wind": "220° @ 5 kt", "vis": ">10 km", "clouds": "SCT013 FEW015", "temp": 28, "dewp": 25, "qnh": "1009 hPa"}, {"icao": "VVDB", "name": "Dien Bien Phu", "metar": "METAR VVDB 181300Z AUTO 01003KT 9999 // SCT020/// BKN024/// OVC033/// 24/23 Q1007 RE//", "speci": null, "taf": "TAF VVDB 172300Z 1800/1809 18005KT 6000 SCT020 TEMPO 1800/1803 4000 SHRA SCT012 FEW025TCU TEMPO 1806/1809 3500 SHRA SCT010 FEW025TCU", "raw": "METAR VVDB 181300Z AUTO 01003KT 9999 // SCT020/// BKN024/// OVC033/// 24/23 Q1007 RE//", "fltcat": "MVFR", "wind": "010° @ 3 kt", "vis": ">10 km", "clouds": "SCT020 BKN024 OVC033", "temp": 24, "dewp": 23, "qnh": "1007 hPa"}, {"icao": "VVDH", "name": "Dong Hoi", "metar": "METAR VVDH 181300Z 22005KT 170V260 CAVOK 32/24 Q1004 NOSIG", "speci": null, "taf": "TAF VVDH 172300Z 1800/1809 26010KT 9999 FEW030", "raw": "METAR VVDH 181300Z 22005KT 170V260 CAVOK 32/24 Q1004 NOSIG", "fltcat": "VFR", "wind": "220° @ 5 kt", "vis": "CAVOK", "clouds": "NSC", "temp": 32, "dewp": 24, "qnh": "1004 hPa"}, {"icao": "VVDN", "name": "Da Nang Intl", "metar": "METAR VVDN 181230Z 11004KT 9999 FEW020 31/27 Q1005 NOSIG", "speci": null, "taf": "TAF VVDN 181100Z 1812/1912 22008KT 9999 FEW020 BECMG 1905/1906 01010KT", "raw": "METAR VVDN 181230Z 11004KT 9999 FEW020 31/27 Q1005 NOSIG", "fltcat": "VFR", "wind": "110° @ 4 kt", "vis": ">10 km", "clouds": "FEW020", "temp": 31, "dewp": 27, "qnh": "1005 hPa", "atis": [{"kind": "ARR", "time": "2026-07-18 11:37 UTC", "text": "VVDN ARR ATIS Q 0633Z VVDN INFO Q 0633Z. ILS VICTOR APPROACH 35L.. DPTG RWY 35R.. 0633Z. WIND 080/06KT VIS 10KM CLD SCT 6400FT T37 DP24 QNH 1003HPA TREND NOSIG. ADZ ON INITIAL CTC YOU HAVE INFO. Q."}, {"kind": "DEP", "time": "2026-07-18 08:03 UTC", "text": "VVDN DEP ATIS M 0536Z VVDN INFO M 0536Z. ILS VICTOR APPROACH 35L.. DPTG RWY 35R.. 0536Z. WIND 040/01KT VIS 10KM CLD FEW 6600FT T39 DP24 QNH 1003HPA TREND NOSIG. ADZ ON INITIAL CTC YOU HAVE INFO. M."}]}, {"icao": "VVNB", "name": "Noi Bai — Ha Noi", "metar": "METAR VVNB 181300Z VRB01KT 9999 FEW030TCU BKN055 32/26 Q1001 NOSIG", "speci": null, "taf": "TAF VVNB 181100Z 1812/1912 15006KT 9999 FEW030 PROB40 TEMPO 1813/1816 4000 TSRA SCT012 FEW027CB TEMPO 1820/1901 3000 TSRA SCT010 FEW027CB TEMPO 1908/1912 3500 TSRA SCT010 FEW027CB", "raw": "METAR VVNB 181300Z VRB01KT 9999 FEW030TCU BKN055 32/26 Q1001 NOSIG", "fltcat": "VFR", "wind": "VRB @ 1 kt", "vis": ">10 km", "clouds": "FEW030 BKN055", "temp": 32, "dewp": 26, "qnh": "1001 hPa", "atis": [{"kind": "ARR", "time": "2026-07-18 11:55 UTC", "text": "VVNB ARR ATIS Z 1131Z VVNB INFO Z 1131Z. ILS X RWY 11L. DPTG RWY 11R AND ARR RWY 11L .. 1131Z. WIND 140/5KT VIS 10KM CLD FEW 1400FT T32 DP25 QNH 0999HPA TREND NOSIG. ADZ ON INITIAL CTC YOU HAVE INFO Z."}, {"kind": "DEP", "time": "2026-07-18 09:51 UTC", "text": "VVNB DEP ATIS B 0608Z VVNB INFO B 0608Z. ILS X RWY 11L. DPTG RWY 11R AND ARR RWY 11L .. 0608Z. WIND VRB1KT CAVOK T37 DP26 QNH 0999HPA TREND NOSIG. ADZ ON INITIAL CTC YOU HAVE INFO B."}]}, {"icao": "VVPB", "name": "Phu Bai — Hue", "metar": "METAR VVPB 181230Z 13001KT 9999 FEW020 31/24 Q1005 NOSIG", "speci": null, "taf": "TAF VVPB 181100Z 1812/1912 21007KT 9999 FEW020 BECMG 1906/1907 07010KT", "raw": "METAR VVPB 181230Z 13001KT 9999 FEW020 31/24 Q1005 NOSIG", "fltcat": "VFR", "wind": "130° @ 1 kt", "vis": ">10 km", "clouds": "FEW020", "temp": 31, "dewp": 24, "qnh": "1005 hPa"}, {"icao": "VVPC", "name": "Phu Cat — Quy Nhon", "metar": "METAR VVPC 181230Z 22005KT 9999 FEW025 32/23 Q1006 NOSIG", "speci": null, "taf": "TAF VVPC 181100Z 1812/1912 24010KT 9999 FEW020 TEMPO 1903/1908 24015G25KT", "raw": "METAR VVPC 181230Z 22005KT 9999 FEW025 32/23 Q1006 NOSIG", "fltcat": "VFR", "wind": "220° @ 5 kt", "vis": ">10 km", "clouds": "FEW025", "temp": 32, "dewp": 23, "qnh": "1006 hPa"}, {"icao": "VVPK", "name": "Pleiku", "metar": "METAR VVPK 181300Z 25008KT 9999 FEW010 23/21 Q1013 NOSIG", "speci": null, "taf": "TAF VVPK 181100Z 1812/1912 25007KT 9999 SCT015 TEMPO 1812/1814 4000 SHRA BKN010 FEW015CB BKN040 TEMPO 1822/1824 2500 RA BR BKN002 BKN004 TEMPO 1900/1902 4000 RA BR BKN004 BKN008 TEMPO 1909/1912 26015G25KT 4000 SHRA BKN010 FEW015CB BKN040", "raw": "METAR VVPK 181300Z 25008KT 9999 FEW010 23/21 Q1013 NOSIG", "fltcat": "VFR", "wind": "250° @ 8 kt", "vis": ">10 km", "clouds": "FEW010", "temp": 23, "dewp": 21, "qnh": "1013 hPa"}, {"icao": "VVPQ", "name": "Phu Quoc Intl", "metar": "METAR VVPQ 181300Z 27004KT 9000 -RA SCT015 FEW017CB 27/27 Q1009 NOSIG", "speci": null, "taf": "TAF VVPQ 181100Z 1812/1912 25009KT 9999 SCT015 TEMPO 1822/1901 5000 TSRA SCT015 FEW017CB TEMPO 1905/1909 5000 TSRA SCT015 FEW017CB", "raw": "METAR VVPQ 181300Z 27004KT 9000 -RA SCT015 FEW017CB 27/27 Q1009 NOSIG", "fltcat": "VFR", "wind": "270° @ 4 kt", "vis": "9.0 km", "clouds": "SCT015 FEW017", "temp": 27, "dewp": 27, "qnh": "1009 hPa"}, {"icao": "VVTH", "name": "Dong Tac — Tuy Hoa", "metar": "METAR VVTH 181300Z VRB01KT CAVOK 31/22 Q1007 NOSIG", "speci": null, "taf": "TAF VVTH 172300Z 1800/1809 24012KT 9999 FEW020", "raw": "METAR VVTH 181300Z VRB01KT CAVOK 31/22 Q1007 NOSIG", "fltcat": "VFR", "wind": "VRB @ 1 kt", "vis": "CAVOK", "clouds": "NSC", "temp": 31, "dewp": 22, "qnh": "1007 hPa"}, {"icao": "VVTS", "name": "Tan Son Nhat — Ho Chi Minh City", "metar": "METAR VVTS 181300Z 18005KT 9999 FEW032 28/26 Q1009 NOSIG", "speci": null, "taf": "TAF VVTS 181100Z 1812/1918 24008KT 9999 SCT017 TEMPO 1907/1910 24015G25KT 3000 TSRA SCT015 SCT017CB", "raw": "METAR VVTS 181300Z 18005KT 9999 FEW032 28/26 Q1009 NOSIG", "fltcat": "VFR", "wind": "180° @ 5 kt", "vis": ">10 km", "clouds": "FEW032", "temp": 28, "dewp": 26, "qnh": "1009 hPa", "atis": [{"kind": "ARR", "time": "2026-07-18 12:52 UTC", "text": "VVTS ARR ATIS Z 0701Z VVTS INFO Z 0701Z. ILSW APCH IN RWY 25R.. LDG RWY 25R AND DEP RWY 25L.. 0701Z. WIND RWY 25R TDZ 280/7KT VIS 10KM CLD SCT 2300FT FEW CB 2600FT T32 DP25 QNH 1006HPA CB IN APCH TREND TEMPO FM0800 TL0850 070/15KT MAX25 VIS 4000M MOD TSRA. ADZ ON INITIAL CTC YOU HAVE INFO Z."}, {"kind": "DEP", "time": "2026-07-18 06:13 UTC", "text": "VVTS DEP ATIS V 0500Z VVTS INFO V 0500Z. ILSW APCH IN RWY 25R.. LDG RWY 25R AND DEP RWY 25L.. 0500Z. WIND RWY 25L TDZ 270/12KT MAX17 MNM8 MID 270/12KT MAX17 MNM9 END 280/12KT MAX18 MNM8 VRB BTN 250/ AND 310/ RWY 25R TDZ 270/12KT MAX17 MNM8 VIS RWY 25R TDZ 10KM CLD RWY 25R BKN 2500FT FEW CB 2700FT T34 DP26 QNH 1007HPA CB IN APCH TREND NOSIG. ADZ ON INITIAL CTC YOU HAVE INFO V."}]}, {"icao": "VVTX", "name": "Tho Xuan — Thanh Hoa", "metar": "METAR VVTX 181300Z 28003KT 9999 SCT030 31/21 Q1001 NOSIG", "speci": null, "taf": "TAF VVTX 172300Z 1800/1809 23006KT 9999 FEW030", "raw": "METAR VVTX 181300Z 28003KT 9999 SCT030 31/21 Q1001 NOSIG", "fltcat": "VFR", "wind": "280° @ 3 kt", "vis": ">10 km", "clouds": "SCT030", "temp": 31, "dewp": 21, "qnh": "1001 hPa"}, {"icao": "VVVD", "name": "Van Don — Quang Ninh", "metar": "METAR VVVD 181300Z AUTO 20005KT 9999 NCD 30/26 Q1002", "speci": null, "taf": "TAF VVVD 181100Z 1812/1912 19006KT 9999 FEW030 TEMPO 1820/1901 3000 TSRA SCT010 FEW027CB TEMPO 1907/1912 4000 TSRA SCT012 FEW027CB", "raw": "METAR VVVD 181300Z AUTO 20005KT 9999 NCD 30/26 Q1002", "fltcat": "VFR", "wind": "200° @ 5 kt", "vis": ">10 km", "clouds": "—", "temp": 30, "dewp": 26, "qnh": "1002 hPa"}, {"icao": "VVVH", "name": "Vinh", "metar": "METAR VVVH 181300Z 25007KT 130V280 CAVOK 32/21 Q1003 NOSIG", "speci": null, "taf": "TAF VVVH 181100Z 1812/1912 24008KT 9999 FEW030", "raw": "METAR VVVH 181300Z 25007KT 130V280 CAVOK 32/21 Q1003 NOSIG", "fltcat": "VFR", "wind": "250° @ 7 kt", "vis": "CAVOK", "clouds": "NSC", "temp": 32, "dewp": 21, "qnh": "1003 hPa"}]}