{"updated": "2026-07-21T01:20:20+00:00", "source": "VN MET", "stations": [{"icao": "VVBM", "name": "Buon Ma Thuot", "metar": "METAR VVBM 210100Z VRB04KT 9999 FEW015 27/23 Q1014 NOSIG", "speci": null, "taf": "TAF VVBM 202300Z 2100/2124 VRB03KT 9999 SCT013 BECMG 2102/2103 27010KT", "raw": "METAR VVBM 210100Z VRB04KT 9999 FEW015 27/23 Q1014 NOSIG", "fltcat": "VFR", "wind": "VRB @ 4 kt", "vis": ">10 km", "clouds": "FEW015", "temp": 27, "dewp": 23, "qnh": "1014 hPa"}, {"icao": "VVCA", "name": "Chu Lai", "metar": "METAR VVCA 210100Z 17004KT 130V230 CAVOK 34/22 Q1006 NOSIG", "speci": null, "taf": "TAF VVCA 202300Z 2100/2109 17007KT 9999 FEW020 BECMG 2102/2103 07011KT", "raw": "METAR VVCA 210100Z 17004KT 130V230 CAVOK 34/22 Q1006 NOSIG", "fltcat": "VFR", "wind": "170° @ 4 kt", "vis": "CAVOK", "clouds": "NSC", "temp": 34, "dewp": 22, "qnh": "1006 hPa"}, {"icao": "VVCI", "name": "Cat Bi — Hai Phong", "metar": "METAR VVCI 210100Z 05004KT 020V080 9999 -RA SCT034 30/28 Q1004 NOSIG", "speci": null, "taf": "TAF VVCI 202300Z 2100/2124 07005KT 8000 FEW030 TEMPO 2100/2102 4000 SHRA SCT010 FEW025TCU TEMPO 2103/2106 4000 TSRA SCT012 FEW027CB", "raw": "METAR VVCI 210100Z 05004KT 020V080 9999 -RA SCT034 30/28 Q1004 NOSIG", "fltcat": "VFR", "wind": "050° @ 4 kt", "vis": ">10 km", "clouds": "SCT034", "temp": 30, "dewp": 28, "qnh": "1004 hPa"}, {"icao": "VVCR", "name": "Cam Ranh — Nha Trang", "metar": "METAR VVCR 210100Z 26003KT 220V310 CAVOK 32/22 Q1010 NOSIG", "speci": null, "taf": "TAF VVCR 202300Z 2100/2124 31006KT 9999 FEW020 BECMG 2102/2103 12010KT BECMG 2111/2112 31006KT", "raw": "METAR VVCR 210100Z 26003KT 220V310 CAVOK 32/22 Q1010 NOSIG", "fltcat": "VFR", "wind": "260° @ 3 kt", "vis": "CAVOK", "clouds": "NSC", "temp": 32, "dewp": 22, "qnh": "1010 hPa", "atis": [{"kind": "ARR", "time": "2026-07-17 14:03 UTC", "text": "VVCR ARR ATIS F 1401Z VVCR INFO F 1401Z. ILS Z APCH IN USE.. LDG RWY 02R AND DPTG RWY 02L.. 1400Z. WIND RWY 02R TDZ 040/3KT MID 340/3KT END 010/6KT RWY 02L TDZ 020/3KT VIS RWY 02R TDZ 10KM END"}, {"kind": "DEP", "time": "2026-05-29 05:57 UTC", "text": "VVCR DEP ATIS S 0533Z VVCR INFO S 0533Z. ILS Z APCH IN USE.. LDG RWY 02R AND DPTG RWY 02L.. 0532Z. WIND RWY 02R TDZ 080/9KT MID 090/8KT END 100/8KT RWY 02L TDZ 080/8KT CAVOK T31 DP26 QNH 1009HPA TREND TEMPO FM0630 VIS 4000M MOD TSRA. ADZ ON INITIAL CTC YOU HAVE INFO S."}]}, {"icao": "VVCS", "name": "Con Dao", "metar": "METAR VVCS 210100Z 27006KT 190V320 9999 FEW017 30/25 Q1011 NOSIG", "speci": null, "taf": "TAF VVCS 202300Z 2100/2109 VRB03KT 9999 SCT017 BECMG 2101/2102 27010KT", "raw": "METAR VVCS 210100Z 27006KT 190V320 9999 FEW017 30/25 Q1011 NOSIG", "fltcat": "VFR", "wind": "270° @ 6 kt", "vis": ">10 km", "clouds": "FEW017", "temp": 30, "dewp": 25, "qnh": "1011 hPa"}, {"icao": "VVCT", "name": "Can Tho Intl", "metar": "METAR VVCT 210100Z 24006KT 210V270 9999 SCT015 29/25 Q1011 NOSIG", "speci": null, "taf": "TAF VVCT 202300Z 2100/2124 22008KT 9999 SCT015", "raw": "METAR VVCT 210100Z 24006KT 210V270 9999 SCT015 29/25 Q1011 NOSIG", "fltcat": "VFR", "wind": "240° @ 6 kt", "vis": ">10 km", "clouds": "SCT015", "temp": 29, "dewp": 25, "qnh": "1011 hPa"}, {"icao": "VVDB", "name": "Dien Bien Phu", "metar": "METAR VVDB 210030Z VRB01KT 9999 SCT022 OVC045 24/23 Q1009 NOSIG", "speci": null, "taf": "TAF VVDB 202300Z 2100/2109 21005KT 9999 SCT020 BKN030", "raw": "METAR VVDB 210030Z VRB01KT 9999 SCT022 OVC045 24/23 Q1009 NOSIG", "fltcat": "VFR", "wind": "VRB @ 1 kt", "vis": ">10 km", "clouds": "SCT022 OVC045", "temp": 24, "dewp": 23, "qnh": "1009 hPa"}, {"icao": "VVDH", "name": "Dong Hoi", "metar": "METAR VVDH 210100Z 17004KT 110V250 CAVOK 33/21 Q1006 NOSIG", "speci": null, "taf": "TAF VVDH 202300Z 2100/2109 24012KT 9999 FEW030", "raw": "METAR VVDH 210100Z 17004KT 110V250 CAVOK 33/21 Q1006 NOSIG", "fltcat": "VFR", "wind": "170° @ 4 kt", "vis": "CAVOK", "clouds": "NSC", "temp": 33, "dewp": 21, "qnh": "1006 hPa"}, {"icao": "VVDN", "name": "Da Nang Intl", "metar": "METAR VVDN 210100Z 24001KT CAVOK 33/21 Q1007 NOSIG", "speci": null, "taf": "TAF VVDN 202300Z 2100/2124 21010KT 9999 FEW020 BECMG 2105/2106 10010KT BECMG 2112/2113 22006KT", "raw": "METAR VVDN 210100Z 24001KT CAVOK 33/21 Q1007 NOSIG", "fltcat": "VFR", "wind": "240° @ 1 kt", "vis": "CAVOK", "clouds": "NSC", "temp": 33, "dewp": 21, "qnh": "1007 hPa", "atis": [{"kind": "ARR", "time": "2026-07-20 22:24 UTC", "text": "VVDN ARR ATIS I 0232Z VVDN INFO I 0232Z. ILS VICTOR APPROACH 35L.. DPTG RWY 35R.. 0232Z. WIND 220/05KT CAVOK T36 DP22 QNH 1005HPA TREND NOSIG. ADZ ON INITIAL CTC YOU HAVE INFO. I."}, {"kind": "DEP", "time": "2026-07-19 18:34 UTC", "text": "VVDN DEP ATIS J 1833Z VVDN INFO J 1833Z. ILS VICTOR APPROACH 35L.. DPTG RWY 35R.. 1833Z. WIND 300/02KT CAVOK T30 DP22 QNH 1006HPA TREND NOSIG. ADZ ON INITIAL CTC YOU HAVE INFO. J."}]}, {"icao": "VVNB", "name": "Noi Bai — Ha Noi", "metar": "METAR VVNB 210100Z VRB02KT 6000 -RA SCT025 SCT029 BKN035 28/26 Q1004 NOSIG", "speci": null, "taf": "TAF VVNB 202300Z 2100/2124 05005KT 6000 FEW030 PROB40 TEMPO 2103/2106 4000 TSRA SCT015 FEW027CB", "raw": "METAR VVNB 210100Z VRB02KT 6000 -RA SCT025 SCT029 BKN035 28/26 Q1004 NOSIG", "fltcat": "MVFR", "wind": "VRB @ 2 kt", "vis": "6.0 km", "clouds": "SCT025 SCT029 BKN035", "temp": 28, "dewp": 26, "qnh": "1004 hPa", "atis": [{"kind": "ARR", "time": "2026-07-21 00:40 UTC", "text": "VVNB ARR ATIS S 0330Z VVNB INFO S 0330Z. ILS X RWY 11L. DPTG RWY 11R AND ARR RWY 11L .. 0330Z. WIND 300/8KT CAVOK T36 DP25 QNH 1001HPA TREND NOSIG. ADZ ON INITIAL CTC YOU HAVE INFO S."}, {"kind": "DEP", "time": "2026-07-20 19:05 UTC", "text": "VVNB DEP ATIS P 0200Z VVNB INFO P 0200Z. ILS X RWY 11L. DPTG RWY 11R AND ARR RWY 11L .. 0200Z. WIND 310/7KT CAVOK T35 DP24 QNH 1001HPA TREND NOSIG. ADZ ON INITIAL CTC YOU HAVE INFO P."}]}, {"icao": "VVNS", "name": "Na San — Son La", "metar": "METAR VVNS 210000Z /////KT 6000 BKN040 22/20 Q1006 NOSIG", "speci": null, "taf": null, "raw": "METAR VVNS 210000Z /////KT 6000 BKN040 22/20 Q1006 NOSIG", "fltcat": "MVFR", "wind": "—", "vis": "6.0 km", "clouds": "BKN040", "temp": 22, "dewp": 20, "qnh": "1006 hPa"}, {"icao": "VVPB", "name": "Phu Bai — Hue", "metar": "METAR VVPB 210100Z 20005KT 9999 FEW020 34/18 Q1007 NOSIG", "speci": null, "taf": "TAF VVPB 202300Z 2100/2124 24010KT 9999 FEW020 BECMG 2107/2108 09010KT BECMG 2113/2114 23007KT", "raw": "METAR VVPB 210100Z 20005KT 9999 FEW020 34/18 Q1007 NOSIG", "fltcat": "VFR", "wind": "200° @ 5 kt", "vis": ">10 km", "clouds": "FEW020", "temp": 34, "dewp": 18, "qnh": "1007 hPa"}, {"icao": "VVPC", "name": "Phu Cat — Quy Nhon", "metar": "METAR VVPC 210100Z 26008KT 230V300 CAVOK 33/23 Q1008 NOSIG", "speci": null, "taf": "TAF VVPC 202300Z 2100/2124 26012KT 9999 FEW020 TEMPO 2102/2108 26015G25KT", "raw": "METAR VVPC 210100Z 26008KT 230V300 CAVOK 33/23 Q1008 NOSIG", "fltcat": "VFR", "wind": "260° @ 8 kt", "vis": "CAVOK", "clouds": "NSC", "temp": 33, "dewp": 23, "qnh": "1008 hPa"}, {"icao": "VVPK", "name": "Pleiku", "metar": "METAR VVPK 210100Z 26007KT 220V320 9999 FEW007 BKN010 24/22 Q1015 NOSIG", "speci": null, "taf": "TAF VVPK 202300Z 2100/2124 24010KT 8000 SCT004 BKN008 TEMPO 2100/2101 4000 RA BR BECMG 2102/2103 SCT015 BECMG 2121/2122 4000 BR SCT004 BKN007", "raw": "METAR VVPK 210100Z 26007KT 220V320 9999 FEW007 BKN010 24/22 Q1015 NOSIG", "fltcat": "MVFR", "wind": "260° @ 7 kt", "vis": ">10 km", "clouds": "FEW007 BKN010", "temp": 24, "dewp": 22, "qnh": "1015 hPa"}, {"icao": "VVPQ", "name": "Phu Quoc Intl", "metar": "METAR VVPQ 210100Z 28008KT 9999 SCT015 30/28 Q1012 NOSIG", "speci": null, "taf": "TAF VVPQ 202300Z 2100/2124 27012KT 9999 SCT015", "raw": "METAR VVPQ 210100Z 28008KT 9999 SCT015 30/28 Q1012 NOSIG", "fltcat": "VFR", "wind": "280° @ 8 kt", "vis": ">10 km", "clouds": "SCT015", "temp": 30, "dewp": 28, "qnh": "1012 hPa"}, {"icao": "VVRG", "name": "Rach Gia", "metar": "METAR VVRG 210100Z 25008KT 9999 SCT015 30/25 Q1011 NOSIG", "speci": null, "taf": "TAF VVRG 202300Z 2100/2109 22009KT 9999 SCT015", "raw": "METAR VVRG 210100Z 25008KT 9999 SCT015 30/25 Q1011 NOSIG", "fltcat": "VFR", "wind": "250° @ 8 kt", "vis": ">10 km", "clouds": "SCT015", "temp": 30, "dewp": 25, "qnh": "1011 hPa"}, {"icao": "VVTH", "name": "Dong Tac — Tuy Hoa", "metar": "METAR VVTH 210100Z 25011KT 220V290 CAVOK 32/21 Q1009 NOSIG", "speci": null, "taf": "TAF VVTH 202300Z 2100/2109 21012KT 9999 FEW020 BECMG 2105/2106 11012KT", "raw": "METAR VVTH 210100Z 25011KT 220V290 CAVOK 32/21 Q1009 NOSIG", "fltcat": "VFR", "wind": "250° @ 11 kt", "vis": "CAVOK", "clouds": "NSC", "temp": 32, "dewp": 21, "qnh": "1009 hPa"}, {"icao": "VVTS", "name": "Tan Son Nhat — Ho Chi Minh City", "metar": "METAR VVTS 210100Z 24011KT 9999 SCT017 29/26 Q1011 NOSIG", "speci": null, "taf": "TAF VVTS 202300Z 2100/2206 26010KT 9999 SCT017", "raw": "METAR VVTS 210100Z 24011KT 9999 SCT017 29/26 Q1011 NOSIG", "fltcat": "VFR", "wind": "240° @ 11 kt", "vis": ">10 km", "clouds": "SCT017", "temp": 29, "dewp": 26, "qnh": "1011 hPa", "atis": [{"kind": "ARR", "time": "2026-07-21 00:25 UTC", "text": "VVTS ARR ATIS P 0330Z VVTS INFO P 0330Z. ILSW APCH IN RWY 25R.. LDG RWY 25R AND DEP RWY 25L.. 0330Z. WIND RWY 25R TDZ VRB8KT VIS 10KM CLD SCT 3000FT T33 DP27 QNH 1008HPA TREND NOSIG. ADZ ON INITIAL CTC YOU HAVE INFO P."}, {"kind": "DEP", "time": "2026-07-19 13:16 UTC", "text": "VVTS DEP ATIS O 1430Z VVTS INFO O 1430Z. ILSW APCH IN RWY 25R.. LDG RWY 25R AND DEP RWY 25L.. 1430Z. WIND RWY 25R TDZ 290/5KT END 250/4KT CAVOK T28 DP25 QNH 1009HPA TREND NOSIG. ADZ ON INITIAL CTC YOU HAVE INFO O."}]}, {"icao": "VVTX", "name": "Tho Xuan — Thanh Hoa", "metar": "METAR VVTX 210100Z VRB02KT CAVOK 29/23 Q1004 NOSIG", "speci": null, "taf": "TAF VVTX 202300Z 2100/2109 21008KT 9999 FEW030", "raw": "METAR VVTX 210100Z VRB02KT CAVOK 29/23 Q1004 NOSIG", "fltcat": "VFR", "wind": "VRB @ 2 kt", "vis": "CAVOK", "clouds": "NSC", "temp": 29, "dewp": 23, "qnh": "1004 hPa"}, {"icao": "VVVD", "name": "Van Don — Quang Ninh", "metar": "METAR VVVD 210100Z AUTO VRB02KT 9999 -RA BKN014/// BKN025/// 26/26 Q1005", "speci": null, "taf": "TAF VVVD 202300Z 2100/2124 09005KT 6000 SCT015 BKN030 TEMPO 2100/2106 3000 TSRA SCT010 FEW027CB BKN030", "raw": "METAR VVVD 210100Z AUTO VRB02KT 9999 -RA BKN014/// BKN025/// 26/26 Q1005", "fltcat": "MVFR", "wind": "VRB @ 2 kt", "vis": ">10 km", "clouds": "BKN014 BKN025", "temp": 26, "dewp": 26, "qnh": "1005 hPa"}, {"icao": "VVVH", "name": "Vinh", "metar": "METAR VVVH 210100Z 25005KT 210V320 CAVOK 31/20 Q1005 NOSIG", "speci": null, "taf": "TAF VVVH 202300Z 2100/2124 24008KT 9999 FEW030", "raw": "METAR VVVH 210100Z 25005KT 210V320 CAVOK 31/20 Q1005 NOSIG", "fltcat": "VFR", "wind": "250° @ 5 kt", "vis": "CAVOK", "clouds": "NSC", "temp": 31, "dewp": 20, "qnh": "1005 hPa"}]}