{"updated": "2026-07-21T21:02:34+00:00", "source": "VN MET", "stations": [{"icao": "VVBM", "name": "Buon Ma Thuot", "metar": "METAR VVBM 212100Z 18003KT 150V210 9999 FEW015 22/20 Q1011 NOSIG", "speci": null, "taf": "TAF VVBM 202300Z 2100/2124 VRB03KT 9999 SCT013 BECMG 2102/2103 27010KT", "raw": "METAR VVBM 212100Z 18003KT 150V210 9999 FEW015 22/20 Q1011 NOSIG", "fltcat": "VFR", "wind": "180° @ 3 kt", "vis": ">10 km", "clouds": "FEW015", "temp": 22, "dewp": 20, "qnh": "1011 hPa"}, {"icao": "VVCA", "name": "Chu Lai", "metar": "METAR VVCA 212100Z AUTO 28003KT 9999 NCD 26/23 Q1006", "speci": null, "taf": "TAF VVCA 212000Z 2121/2206 16007KT 9999 FEW017", "raw": "METAR VVCA 212100Z AUTO 28003KT 9999 NCD 26/23 Q1006", "fltcat": "VFR", "wind": "280° @ 3 kt", "vis": ">10 km", "clouds": "—", "temp": 26, "dewp": 23, "qnh": "1006 hPa"}, {"icao": "VVCI", "name": "Cat Bi — Hai Phong", "metar": "METAR VVCI 212100Z 06004KT 9999 FEW017 28/27 Q1004 NOSIG", "speci": null, "taf": "TAF VVCI 202300Z 2100/2124 07005KT 8000 FEW030 TEMPO 2100/2102 4000 SHRA SCT010 FEW025TCU TEMPO 2103/2106 4000 TSRA SCT012 FEW027CB", "raw": "METAR VVCI 212100Z 06004KT 9999 FEW017 28/27 Q1004 NOSIG", "fltcat": "VFR", "wind": "060° @ 4 kt", "vis": ">10 km", "clouds": "FEW017", "temp": 28, "dewp": 27, "qnh": "1004 hPa"}, {"icao": "VVCR", "name": "Cam Ranh — Nha Trang", "metar": "METAR VVCR 212100Z VRB02KT CAVOK 27/23 Q1008 NOSIG", "speci": null, "taf": "TAF VVCR 202300Z 2100/2124 31006KT 9999 FEW020 BECMG 2102/2103 12010KT BECMG 2111/2112 31006KT", "raw": "METAR VVCR 212100Z VRB02KT CAVOK 27/23 Q1008 NOSIG", "fltcat": "VFR", "wind": "VRB @ 2 kt", "vis": "CAVOK", "clouds": "NSC", "temp": 27, "dewp": 23, "qnh": "1008 hPa", "atis": [{"kind": "ARR", "time": "2026-07-17 14:03 UTC", "text": "VVCR ARR ATIS F 1401Z VVCR INFO F 1401Z. ILS Z APCH IN USE.. LDG RWY 02R AND DPTG RWY 02L.. 1400Z. WIND RWY 02R TDZ 040/3KT MID 340/3KT END 010/6KT RWY 02L TDZ 020/3KT VIS RWY 02R TDZ 10KM END"}, {"kind": "DEP", "time": "2026-05-29 05:57 UTC", "text": "VVCR DEP ATIS S 0533Z VVCR INFO S 0533Z. ILS Z APCH IN USE.. LDG RWY 02R AND DPTG RWY 02L.. 0532Z. WIND RWY 02R TDZ 080/9KT MID 090/8KT END 100/8KT RWY 02L TDZ 080/8KT CAVOK T31 DP26 QNH 1009HPA TREND TEMPO FM0630 VIS 4000M MOD TSRA. ADZ ON INITIAL CTC YOU HAVE INFO S."}]}, {"icao": "VVCT", "name": "Can Tho Intl", "metar": "METAR VVCT 212100Z 22004KT 8000 NSC 26/25 Q1009 NOSIG", "speci": null, "taf": "TAF VVCT 202300Z 2100/2124 22008KT 9999 SCT015", "raw": "METAR VVCT 212100Z 22004KT 8000 NSC 26/25 Q1009 NOSIG", "fltcat": "MVFR", "wind": "220° @ 4 kt", "vis": "8.0 km", "clouds": "NSC", "temp": 26, "dewp": 25, "qnh": "1009 hPa"}, {"icao": "VVDB", "name": "Dien Bien Phu", "metar": "METAR VVDB 212100Z AUTO 28002KT 9999 // FEW025/// OVC055/// 24/23 Q1009 RE//", "speci": null, "taf": "TAF VVDB 212000Z 2121/2206 19005KT 6000 SCT025", "raw": "METAR VVDB 212100Z AUTO 28002KT 9999 // FEW025/// OVC055/// 24/23 Q1009 RE//", "fltcat": "VFR", "wind": "280° @ 2 kt", "vis": ">10 km", "clouds": "FEW025 OVC055", "temp": 24, "dewp": 23, "qnh": "1009 hPa"}, {"icao": "VVDH", "name": "Dong Hoi", "metar": "METAR VVDH 212100Z AUTO 24004KT 200V270 9999 BKN093/// OVC130/// 30/22 Q1006", "speci": null, "taf": "TAF VVDH 212000Z 2121/2206 24006KT 9999 FEW030 TEMPO 2204/2206 25015G25KT", "raw": "METAR VVDH 212100Z AUTO 24004KT 200V270 9999 BKN093/// OVC130/// 30/22 Q1006", "fltcat": "VFR", "wind": "240° @ 4 kt", "vis": ">10 km", "clouds": "BKN093 OVC130", "temp": 30, "dewp": 22, "qnh": "1006 hPa"}, {"icao": "VVDN", "name": "Da Nang Intl", "metar": "METAR VVDN 212100Z 00000KT 9999 FEW020 28/22 Q1007 NOSIG", "speci": null, "taf": "TAF VVDN 202300Z 2100/2124 21010KT 9999 FEW020 BECMG 2105/2106 10010KT BECMG 2112/2113 22006KT", "raw": "METAR VVDN 212100Z 00000KT 9999 FEW020 28/22 Q1007 NOSIG", "fltcat": "VFR", "wind": "000° @ 0 kt", "vis": ">10 km", "clouds": "FEW020", "temp": 28, "dewp": 22, "qnh": "1007 hPa", "atis": [{"kind": "ARR", "time": "2026-07-21 09:57 UTC", "text": "VVDN ARR ATIS Q 0632Z VVDN INFO Q 0632Z. ILS VICTOR APPROACH 35L.. DPTG RWY 35R.. 0632Z. WIND 160/04KT VRB BTN 110/ AND 230/ CAVOK T39 DP23 QNH 1002HPA TREND NOSIG. ADZ ON INITIAL CTC YOU HAVE INFO. Q."}, {"kind": "DEP", "time": "2026-07-21 03:51 UTC", "text": "VVDN DEP ATIS M 0432Z VVDN INFO M 0432Z. ILS VICTOR APPROACH 35L.. DPTG RWY 35R.. 0432Z. WIND 220/04KT CAVOK T37 DP22 QNH 1004HPA TREND NOSIG. ADZ ON INITIAL CTC YOU HAVE INFO. M."}]}, {"icao": "VVNB", "name": "Noi Bai — Ha Noi", "metar": "METAR VVNB 212100Z 06003KT 6000 NSC 27/26 Q1004 NOSIG", "speci": null, "taf": "TAF VVNB 202300Z 2100/2124 05005KT 6000 FEW030 PROB40 TEMPO 2103/2106 4000 TSRA SCT015 FEW027CB", "raw": "METAR VVNB 212100Z 06003KT 6000 NSC 27/26 Q1004 NOSIG", "fltcat": "MVFR", "wind": "060° @ 3 kt", "vis": "6.0 km", "clouds": "NSC", "temp": 27, "dewp": 26, "qnh": "1004 hPa", "atis": [{"kind": "ARR", "time": "2026-07-21 18:46 UTC", "text": "VVNB ARR ATIS D 0900Z VVNB INFO D 0900Z. ILS X RWY 11L. DPTG RWY 11R AND ARR RWY 11L .. 0900Z. WIND 270/6KT CAVOK T39 DP24 QNH 0998HPA TREND NOSIG. ADZ ON INITIAL CTC YOU HAVE INFO D."}, {"kind": "DEP", "time": "2026-07-21 18:45 UTC", "text": "VVNB DEP ATIS D 0900Z VVNB INFO D 0900Z. ILS X RWY 11L. DPTG RWY 11R AND ARR RWY 11L .. 0900Z. WIND 270/6KT CAVOK T39 DP24 QNH 0998HPA TREND NOSIG. ADZ ON INITIAL CTC YOU HAVE INFO D."}]}, {"icao": "VVPB", "name": "Phu Bai — Hue", "metar": "METAR VVPB 212030Z 28003KT 9999 FEW020 28/18 Q1006 NOSIG", "speci": null, "taf": "TAF VVPB 202300Z 2100/2124 24010KT 9999 FEW020 BECMG 2107/2108 09010KT BECMG 2113/2114 23007KT", "raw": "METAR VVPB 212030Z 28003KT 9999 FEW020 28/18 Q1006 NOSIG", "fltcat": "VFR", "wind": "280° @ 3 kt", "vis": ">10 km", "clouds": "FEW020", "temp": 28, "dewp": 18, "qnh": "1006 hPa"}, {"icao": "VVPC", "name": "Phu Cat — Quy Nhon", "metar": "METAR VVPC 212100Z AUTO VRB01KT 9999 NCD 30/21 Q1007", "speci": null, "taf": "TAF VVPC 202300Z 2100/2124 26012KT 9999 FEW020 TEMPO 2102/2108 26015G25KT", "raw": "METAR VVPC 212100Z AUTO VRB01KT 9999 NCD 30/21 Q1007", "fltcat": "VFR", "wind": "VRB @ 1 kt", "vis": ">10 km", "clouds": "—", "temp": 30, "dewp": 21, "qnh": "1007 hPa"}, {"icao": "VVPK", "name": "Pleiku", "metar": "METAR VVPK 212030Z AUTO 28004KT 9999 NCD 22/20 Q1013", "speci": null, "taf": "TAF VVPK 202300Z 2100/2124 24010KT 8000 SCT004 BKN008 TEMPO 2100/2101 4000 RA BR BECMG 2102/2103 SCT015 BECMG 2121/2122 4000 BR SCT004 BKN007", "raw": "METAR VVPK 212030Z AUTO 28004KT 9999 NCD 22/20 Q1013", "fltcat": "VFR", "wind": "280° @ 4 kt", "vis": ">10 km", "clouds": "—", "temp": 22, "dewp": 20, "qnh": "1013 hPa"}, {"icao": "VVPQ", "name": "Phu Quoc Intl", "metar": "METAR VVPQ 212100Z 26006KT 9999 FEW015 27/27 Q1010 NOSIG", "speci": null, "taf": "TAF VVPQ 202300Z 2100/2124 27012KT 9999 SCT015", "raw": "METAR VVPQ 212100Z 26006KT 9999 FEW015 27/27 Q1010 NOSIG", "fltcat": "VFR", "wind": "260° @ 6 kt", "vis": ">10 km", "clouds": "FEW015", "temp": 27, "dewp": 27, "qnh": "1010 hPa"}, {"icao": "VVTH", "name": "Dong Tac — Tuy Hoa", "metar": "METAR VVTH 212100Z AUTO 25007KT 230V290 CAVOK 29/22 Q1007", "speci": null, "taf": "TAF VVTH 212000Z 2121/2206 22007KT 9999 FEW017", "raw": "METAR VVTH 212100Z AUTO 25007KT 230V290 CAVOK 29/22 Q1007", "fltcat": "VFR", "wind": "250° @ 7 kt", "vis": "CAVOK", "clouds": "NSC", "temp": 29, "dewp": 22, "qnh": "1007 hPa"}, {"icao": "VVTS", "name": "Tan Son Nhat — Ho Chi Minh City", "metar": "METAR VVTS 212100Z 23010KT CAVOK 27/26 Q1009 NOSIG", "speci": null, "taf": "TAF VVTS 202300Z 2100/2206 26010KT 9999 SCT017", "raw": "METAR VVTS 212100Z 23010KT CAVOK 27/26 Q1009 NOSIG", "fltcat": "VFR", "wind": "230° @ 10 kt", "vis": "CAVOK", "clouds": "NSC", "temp": 27, "dewp": 26, "qnh": "1009 hPa", "atis": [{"kind": "ARR", "time": "2026-07-21 19:29 UTC", "text": "VVTS ARR ATIS B 0930Z VVTS INFO B 0930Z. ILSW APCH IN RWY 25R.. LDG RWY 25R AND DEP RWY 25L.. 0930Z. WIND RWY 25R TDZ 310/7KT MAX13 MNM5 VRB BTN 280/ AND 340/ CAVOK T35 DP24 QNH 1005HPA TREND NOSIG. ADZ ON INITIAL CTC YOU HAVE INFO B."}, {"kind": "DEP", "time": "2026-07-21 04:51 UTC", "text": "VVTS DEP ATIS S 0500Z VVTS INFO S 0500Z. ILSW APCH IN RWY 25R.. LDG RWY 25R AND DEP RWY 25L.. 0500Z. WIND RWY 25R TDZ 290/8KT MAX15 MNM5 VIS 10KM CLD SCT 4100FT T34 DP25 QNH 1007HPA TREND NOSIG. ADZ ON INITIAL CTC YOU HAVE INFO S."}]}, {"icao": "VVTX", "name": "Tho Xuan — Thanh Hoa", "metar": "METAR VVTX 212100Z AUTO VRB02KT CAVOK 27/24 Q1004 NOSIG", "speci": null, "taf": "TAF VVTX 212000Z 2121/2206 22005KT 9999 FEW030", "raw": "METAR VVTX 212100Z AUTO VRB02KT CAVOK 27/24 Q1004 NOSIG", "fltcat": "VFR", "wind": "VRB @ 2 kt", "vis": "CAVOK", "clouds": "NSC", "temp": 27, "dewp": 24, "qnh": "1004 hPa"}, {"icao": "VVVD", "name": "Van Don — Quang Ninh", "metar": "METAR VVVD 212030Z AUTO VRB01KT 9000 FEW005/// SCT190/// 27/27 Q1005", "speci": null, "taf": "TAF VVVD 202300Z 2100/2124 09005KT 6000 SCT015 BKN030 TEMPO 2100/2106 3000 TSRA SCT010 FEW027CB BKN030", "raw": "METAR VVVD 212030Z AUTO VRB01KT 9000 FEW005/// SCT190/// 27/27 Q1005", "fltcat": "VFR", "wind": "VRB @ 1 kt", "vis": "9.0 km", "clouds": "FEW005 SCT190", "temp": 27, "dewp": 27, "qnh": "1005 hPa"}, {"icao": "VVVH", "name": "Vinh", "metar": "METAR VVVH 212100Z 24003KT 200V280 CAVOK 28/21 Q1005 NOSIG", "speci": null, "taf": "TAF VVVH 202300Z 2100/2124 24008KT 9999 FEW030", "raw": "METAR VVVH 212100Z 24003KT 200V280 CAVOK 28/21 Q1005 NOSIG", "fltcat": "VFR", "wind": "240° @ 3 kt", "vis": "CAVOK", "clouds": "NSC", "temp": 28, "dewp": 21, "qnh": "1005 hPa"}]}