{"updated": "2026-07-13T22:10:59+00:00", "source": "VN MET", "stations": [{"icao": "VVBM", "name": "Buon Ma Thuot", "metar": "METAR VVBM 132200Z 24004KT 210V280 8000 SCT013 BKN040 23/21 Q1010 NOSIG", "speci": null, "taf": "TAF VVBM 122300Z 1300/1324 24009KT 9999 SCT012 SCT040 TEMPO 1305/1308 5000 TSRA SCT010 FEW013CB BKN040 TEMPO 1308/1313 24015G28KT 3000 TSRA BKN010 SCT013CB BKN040", "raw": "METAR VVBM 132200Z 24004KT 210V280 8000 SCT013 BKN040 23/21 Q1010 NOSIG", "fltcat": "MVFR", "wind": "240° @ 4 kt", "vis": "8.0 km", "clouds": "SCT013 BKN040", "temp": 23, "dewp": 21, "qnh": "1010 hPa"}, {"icao": "VVCA", "name": "Chu Lai", "metar": "METAR VVCA 132200Z VRB02KT CAVOK 26/26 Q1002 NOSIG", "speci": null, "taf": "TAF VVCA 132000Z 1321/1406 19006KT 9999 FEW017 BECMG 1404/1405 07010KT", "raw": "METAR VVCA 132200Z VRB02KT CAVOK 26/26 Q1002 NOSIG", "fltcat": "VFR", "wind": "VRB @ 2 kt", "vis": "CAVOK", "clouds": "NSC", "temp": 26, "dewp": 26, "qnh": "1002 hPa"}, {"icao": "VVCI", "name": "Cat Bi — Hai Phong", "metar": "METAR VVCI 132200Z 05003KT 9999 FEW043 29/27 Q1001 NOSIG", "speci": null, "taf": "TAF AMD VVCI 130200Z 1302/1324 12005KT 9999 FEW030 TEMPO 1307/1311 4000 TSRA SCT010 FEW027CB", "raw": "METAR VVCI 132200Z 05003KT 9999 FEW043 29/27 Q1001 NOSIG", "fltcat": "VFR", "wind": "050° @ 3 kt", "vis": ">10 km", "clouds": "FEW043", "temp": 29, "dewp": 27, "qnh": "1001 hPa"}, {"icao": "VVCR", "name": "Cam Ranh — Nha Trang", "metar": "METAR VVCR 132200Z 22006KT 190V270 CAVOK 29/23 Q1007 NOSIG", "speci": null, "taf": "TAF VVCR 122300Z 1300/1324 20014KT 9999 FEW017", "raw": "METAR VVCR 132200Z 22006KT 190V270 CAVOK 29/23 Q1007 NOSIG", "fltcat": "VFR", "wind": "220° @ 6 kt", "vis": "CAVOK", "clouds": "NSC", "temp": 29, "dewp": 23, "qnh": "1007 hPa", "atis": [{"kind": "ARR", "time": "2026-07-13 09:29 UTC", "text": "VVCR ARR ATIS W 1330Z VVCR INFO W 1330Z. ILS YANKEE APPROACH IN USE. LDG RWY 20L AND DPTG RWY 20R.. 1330Z. WIND RWY 20L TDZ 330/3KT VRB BTN 260/ AND 360/ MID 310/3KT VRB BTN 280/ AND 340/ END 320/3KT RWY 20R TDZ 320/1KT CAVOK T29 DP25 QNH 1010HPA TREND NOSIG. ADZ ON INITIAL CTC YOU HAVE INFO W."}, {"kind": "DEP", "time": "2026-05-29 05:57 UTC", "text": "VVCR DEP ATIS S 0533Z VVCR INFO S 0533Z. ILS Z APCH IN USE.. LDG RWY 02R AND DPTG RWY 02L.. 0532Z. WIND RWY 02R TDZ 080/9KT MID 090/8KT END 100/8KT RWY 02L TDZ 080/8KT CAVOK T31 DP26 QNH 1009HPA TREND TEMPO FM0630 VIS 4000M MOD TSRA. ADZ ON INITIAL CTC YOU HAVE INFO S."}]}, {"icao": "VVCS", "name": "Con Dao", "metar": "METAR VVCS 132200Z 20008KT 9999 FEW017 27/25 Q1008 NOSIG", "speci": null, "taf": "TAF VVCS 132000Z 1321/1406 26012KT 9999 SCT017 SCT040 TEMPO 1322/1405 26015G26KT 4000 TSRA BKN015 FEW017CB BKN040", "raw": "METAR VVCS 132200Z 20008KT 9999 FEW017 27/25 Q1008 NOSIG", "fltcat": "VFR", "wind": "200° @ 8 kt", "vis": ">10 km", "clouds": "FEW017", "temp": 27, "dewp": 25, "qnh": "1008 hPa"}, {"icao": "VVCT", "name": "Can Tho Intl", "metar": "METAR VVCT 132200Z 22003KT 9999 SCT013 BKN040 24/24 Q1008 NOSIG", "speci": null, "taf": "TAF VVCT 122300Z 1300/1324 23009KT 9999 SCT013 SCT040 TEMPO 1300/1304 5000 TSRA SCT013 FEW015CB BKN040 TEMPO 1304/1308 23015G26KT 3000 TSRA SCT013 SCT015CB BKN040 TEMPO 1308/1312 5000 TSRA SCT013 FEW015CB BKN040", "raw": "METAR VVCT 132200Z 22003KT 9999 SCT013 BKN040 24/24 Q1008 NOSIG", "fltcat": "VFR", "wind": "220° @ 3 kt", "vis": ">10 km", "clouds": "SCT013 BKN040", "temp": 24, "dewp": 24, "qnh": "1008 hPa"}, {"icao": "VVDB", "name": "Dien Bien Phu", "metar": "METAR VVDB 132200Z 00000KT 9999 OVC031 25/24 Q1005 NOSIG", "speci": null, "taf": "TAF VVDB 132000Z 1321/1406 VRB02KT 9999 SCT030", "raw": "METAR VVDB 132200Z 00000KT 9999 OVC031 25/24 Q1005 NOSIG", "fltcat": "VFR", "wind": "000° @ 0 kt", "vis": ">10 km", "clouds": "OVC031", "temp": 25, "dewp": 24, "qnh": "1005 hPa"}, {"icao": "VVDH", "name": "Dong Hoi", "metar": "METAR VVDH 132200Z 15005KT 120V180 9999 FEW027 29/24 Q1002 NOSIG", "speci": null, "taf": "TAF VVDH 132000Z 1321/1406 VRB02KT 9999 FEW030", "raw": "METAR VVDH 132200Z 15005KT 120V180 9999 FEW027 29/24 Q1002 NOSIG", "fltcat": "VFR", "wind": "150° @ 5 kt", "vis": ">10 km", "clouds": "FEW027", "temp": 29, "dewp": 24, "qnh": "1002 hPa"}, {"icao": "VVDN", "name": "Da Nang Intl", "metar": "METAR VVDN 132200Z VRB02KT 9999 FEW020 SCT080 28/25 Q1003 NOSIG", "speci": null, "taf": "TAF VVDN 122300Z 1300/1324 22008KT 9999 FEW017 SCT060 PROB40 TEMPO 1309/1313 24015G25KT 4500 TSRA BKN013 FEW015CB BKN050", "raw": "METAR VVDN 132200Z VRB02KT 9999 FEW020 SCT080 28/25 Q1003 NOSIG", "fltcat": "VFR", "wind": "VRB @ 2 kt", "vis": ">10 km", "clouds": "FEW020 SCT080", "temp": 28, "dewp": 25, "qnh": "1003 hPa", "atis": [{"kind": "ARR", "time": "2026-07-13 21:10 UTC", "text": "VVDN ARR ATIS O 1702Z VVDN INFO O 1702Z. ILS VICTOR APPROACH 35L.. DPTG RWY 35R.. 1702Z. WIND VRB/02KT CAVOK T28 DP25 QNH 1009HPA TREND NOSIG. ADZ ON INITIAL CTC YOU HAVE INFO. O."}, {"kind": "DEP", "time": "2026-07-12 02:50 UTC", "text": "VVDN DEP ATIS N 0423Z VVDN INFO N 0423Z. ILS VICTOR APPROACH 35L.. DPTG RWY 35R.. 0423Z. WIND 010/02KT CAVOK T36 DP24 QNH 1008HPA TREND NOSIG. WS ALL RWY. ADZ ON INITIAL CTC YOU HAVE INFO. N."}]}, {"icao": "VVNB", "name": "Noi Bai — Ha Noi", "metar": "METAR VVNB 132200Z 04003KT 350V070 CAVOK 28/27 Q1001 NOSIG", "speci": null, "taf": "TAF AMD VVNB 130200Z 1302/1403 08006KT 9000 FEW025 TEMPO 1308/1312 3500 TSRA SCT010 FEW027CB", "raw": "METAR VVNB 132200Z 04003KT 350V070 CAVOK 28/27 Q1001 NOSIG", "fltcat": "VFR", "wind": "040° @ 3 kt", "vis": "CAVOK", "clouds": "NSC", "temp": 28, "dewp": 27, "qnh": "1001 hPa", "atis": [{"kind": "ARR", "time": "2026-07-13 17:20 UTC", "text": "VVNB ARR ATIS X 1600Z VVNB INFO X 1600Z. ILS X RWY 11L. DPTG RWY 11R AND ARR RWY 11L .. 1600Z. WIND 080/6KT VIS 10KM FBL RA CLD NSC T26 DP25 QNH 1007HPA TREND NOSIG. RWY CONDITION REPORT 5 5 5.. ADZ ON INITIAL CTC YOU HAVE INFO X."}, {"kind": "DEP", "time": "2026-07-13 04:41 UTC", "text": "VVNB DEP ATIS N 1203Z VVNB INFO N 1203Z. ILS X RWY 11L. DPTG RWY 11R AND ARR RWY 11L .. 1201Z. WIND 260/18KT VIS 1100M HVY TSRA CLD OBSC VER VIS 700FT T26 DP25 QNH 1006HPA TREND BECMG TL1230 VIS 3000M MOD TSRA. RWY CONDITION REPORT 5 5 5.. ADZ ON INITIAL CTC YOU HAVE INFO N."}]}, {"icao": "VVPB", "name": "Phu Bai — Hue", "metar": "METAR VVPB 132200Z 27002KT 9999 FEW020 28/23 Q1003 NOSIG", "speci": null, "taf": "TAF VVPB 122300Z 1300/1324 20008KT 9999 FEW017 SCT050 TEMPO 1308/1312 23015G25KT 4000 TSRA BKN013 FEW015CB BKN050", "raw": "METAR VVPB 132200Z 27002KT 9999 FEW020 28/23 Q1003 NOSIG", "fltcat": "VFR", "wind": "270° @ 2 kt", "vis": ">10 km", "clouds": "FEW020", "temp": 28, "dewp": 23, "qnh": "1003 hPa"}, {"icao": "VVPC", "name": "Phu Cat — Quy Nhon", "metar": "METAR VVPC 132200Z VRB02KT 9999 FEW017 SCT070 28/22 Q1004 NOSIG", "speci": null, "taf": "TAF VVPC 122300Z 1300/1324 25010KT 9999 FEW017 TEMPO 1303/1309 25015G25KT", "raw": "METAR VVPC 132200Z VRB02KT 9999 FEW017 SCT070 28/22 Q1004 NOSIG", "fltcat": "VFR", "wind": "VRB @ 2 kt", "vis": ">10 km", "clouds": "FEW017 SCT070", "temp": 28, "dewp": 22, "qnh": "1004 hPa"}, {"icao": "VVPK", "name": "Pleiku", "metar": "METAR VVPK 132200Z 27007KT 240V300 9999 BKN002 BKN004 21/20 Q1011 NOSIG", "speci": null, "taf": "TAF VVPK 122300Z 1300/1324 26015KT 8000 SCT005 BKN010 TEMPO 1300/1304 26015G25KT 4000 RA BR BKN003 BKN008 TEMPO 1309/1313 26017G27KT 3500 SHRA BKN004 BKN010 FEW015CB", "raw": "METAR VVPK 132200Z 27007KT 240V300 9999 BKN002 BKN004 21/20 Q1011 NOSIG", "fltcat": "LIFR", "wind": "270° @ 7 kt", "vis": ">10 km", "clouds": "BKN002 BKN004", "temp": 21, "dewp": 20, "qnh": "1011 hPa"}, {"icao": "VVPQ", "name": "Phu Quoc Intl", "metar": "METAR VVPQ 132200Z 28013KT 8000 -RA SCT015 FEW017CB BKN040 26/26 Q1009 NOSIG", "speci": null, "taf": "TAF VVPQ 122300Z 1300/1324 23012KT 9999 SCT013 SCT040 TEMPO 1300/1304 23015G28KT 5000 TSRA SCT013 FEW015CB BKN040 TEMPO 1304/1309 23015G28KT 3000 TSRA SCT013 SCT015CB BKN040 TEMPO 1322/1324 5000 TSRA SCT013 FEW015CB BKN040", "raw": "METAR VVPQ 132200Z 28013KT 8000 -RA SCT015 FEW017CB BKN040 26/26 Q1009 NOSIG", "fltcat": "MVFR", "wind": "280° @ 13 kt", "vis": "8.0 km", "clouds": "SCT015 FEW017 BKN040", "temp": 26, "dewp": 26, "qnh": "1009 hPa"}, {"icao": "VVRG", "name": "Rach Gia", "metar": "METAR VVRG 132200Z 21004KT 8000 -RA SCT013 BKN040 24/23 Q1008 NOSIG", "speci": null, "taf": "TAF VVRG 132000Z 1321/1406 23009KT 9999 SCT013 SCT040 TEMPO 1322/1403 23015G25KT 3000 TSRA SCT013 FEW015CB BKN040", "raw": "METAR VVRG 132200Z 21004KT 8000 -RA SCT013 BKN040 24/23 Q1008 NOSIG", "fltcat": "MVFR", "wind": "210° @ 4 kt", "vis": "8.0 km", "clouds": "SCT013 BKN040", "temp": 24, "dewp": 23, "qnh": "1008 hPa"}, {"icao": "VVTH", "name": "Dong Tac — Tuy Hoa", "metar": "METAR VVTH 132200Z 22007KT 200V260 9999 FEW015 SCT060 27/23 Q1005 NOSIG", "speci": null, "taf": "TAF VVTH 132000Z 1321/1406 23010KT 9999 FEW020", "raw": "METAR VVTH 132200Z 22007KT 200V260 9999 FEW015 SCT060 27/23 Q1005 NOSIG", "fltcat": "VFR", "wind": "220° @ 7 kt", "vis": ">10 km", "clouds": "FEW015 SCT060", "temp": 27, "dewp": 23, "qnh": "1005 hPa"}, {"icao": "VVTS", "name": "Tan Son Nhat — Ho Chi Minh City", "metar": "METAR VVTS 132200Z 25003KT 220V310 CAVOK 26/25 Q1008 NOSIG", "speci": null, "taf": "TAF VVTS 122300Z 1300/1406 22010KT 9999 SCT017 TEMPO 1304/1307 22015G28KT 4000 TSRA SCT015 SCT017CB TEMPO 1307/1311 5000 SHRA SCT015 FEW017CB", "raw": "METAR VVTS 132200Z 25003KT 220V310 CAVOK 26/25 Q1008 NOSIG", "fltcat": "VFR", "wind": "250° @ 3 kt", "vis": "CAVOK", "clouds": "NSC", "temp": 26, "dewp": 25, "qnh": "1008 hPa", "atis": [{"kind": "ARR", "time": "2026-07-13 20:43 UTC", "text": "VVTS ARR ATIS A 1700Z VVTS INFO A 1700Z. ILSW APCH IN RWY 25R.. LDG RWY 25R AND DEP RWY 25L.. 1700Z. WIND RWY 25R TDZ 250/5KT VRB BTN 220/ AND 280/ CAVOK T28 DP26 QNH 1010HPA TREND NOSIG. ADZ ON INITIAL CTC YOU HAVE INFO A."}, {"kind": "DEP", "time": "2026-07-13 17:43 UTC", "text": "VVTS DEP ATIS Y 1600Z VVTS INFO Y 1600Z. ILSW APCH IN RWY 25R.. LDG RWY 25R AND DEP RWY 25L.. 1600Z. WIND RWY 25R TDZ 250/6KT VIS 10KM CLD FEW 4200FT T29 DP26 QNH 1010HPA TREND NOSIG. ADZ ON INITIAL CTC YOU HAVE INFO Y."}]}, {"icao": "VVTX", "name": "Tho Xuan — Thanh Hoa", "metar": "METAR VVTX 132200Z VRB01KT 9999 FEW025 26/25 Q1001 NOSIG", "speci": null, "taf": "TAF VVTX 132000Z 1321/1406 VRB02KT 9999 FEW025", "raw": "METAR VVTX 132200Z VRB01KT 9999 FEW025 26/25 Q1001 NOSIG", "fltcat": "VFR", "wind": "VRB @ 1 kt", "vis": ">10 km", "clouds": "FEW025", "temp": 26, "dewp": 25, "qnh": "1001 hPa"}, {"icao": "VVVD", "name": "Van Don — Quang Ninh", "metar": "METAR VVVD 132200Z AUTO VRB02KT 9999 BKN006/// BKN024/// 28/28 Q1002", "speci": null, "taf": "TAF VVVD 122300Z 1300/1324 09005KT 9999 FEW020 TEMPO 1303/1307 4000 TSRA SCT010 FEW027CB", "raw": "METAR VVVD 132200Z AUTO VRB02KT 9999 BKN006/// BKN024/// 28/28 Q1002", "fltcat": "IFR", "wind": "VRB @ 2 kt", "vis": ">10 km", "clouds": "BKN006 BKN024", "temp": 28, "dewp": 28, "qnh": "1002 hPa"}, {"icao": "VVVH", "name": "Vinh", "metar": "METAR VVVH 132200Z 19003KT CAVOK 27/25 Q1002 NOSIG", "speci": null, "taf": "TAF VVVH 122300Z 1300/1324 24005KT 9999 FEW030 TEMPO 1300/1304 4000 TSRA SCT010 FEW027CB TEMPO 1308/1312 3000 TSRA SCT010 FEW027CB", "raw": "METAR VVVH 132200Z 19003KT CAVOK 27/25 Q1002 NOSIG", "fltcat": "VFR", "wind": "190° @ 3 kt", "vis": "CAVOK", "clouds": "NSC", "temp": 27, "dewp": 25, "qnh": "1002 hPa"}]}