{"updated": "2026-07-19T07:35:34+00:00", "source": "VN MET", "stations": [{"icao": "VVBM", "name": "Buon Ma Thuot", "metar": "METAR VVBM 190730Z 29010KT 260V320 9999 SCT015 32/23 Q1010 NOSIG", "speci": null, "taf": "TAF VVBM 190500Z 1906/2006 28009KT 9999 SCT013 SCT040 TEMPO 1909/1913 28015G26KT 5000 TSRA BKN013 FEW015CB BKN040", "raw": "METAR VVBM 190730Z 29010KT 260V320 9999 SCT015 32/23 Q1010 NOSIG", "fltcat": "VFR", "wind": "290° @ 10 kt", "vis": ">10 km", "clouds": "SCT015", "temp": 32, "dewp": 23, "qnh": "1010 hPa"}, {"icao": "VVCA", "name": "Chu Lai", "metar": "METAR VVCA 190730Z 08011KT 050V110 9999 FEW020 36/22 Q1002 NOSIG", "speci": null, "taf": "TAF VVCA 190500Z 1906/1915 07010KT 9999 FEW020 BECMG 1911/1912 17007KT", "raw": "METAR VVCA 190730Z 08011KT 050V110 9999 FEW020 36/22 Q1002 NOSIG", "fltcat": "VFR", "wind": "080° @ 11 kt", "vis": ">10 km", "clouds": "FEW020", "temp": 36, "dewp": 22, "qnh": "1002 hPa"}, {"icao": "VVCI", "name": "Cat Bi — Hai Phong", "metar": "METAR VVCI 190730Z 27008KT 230V310 9999 SCT047 34/25 Q1001 NOSIG", "speci": null, "taf": "TAF VVCI 190500Z 1906/2006 23005KT 9999 FEW030 TEMPO 1908/1912 32015G25KT 4000 TSRA SCT012 FEW027CB TEMPO 1920/2001 4000 TSRA SCT010 FEW027CB", "raw": "METAR VVCI 190730Z 27008KT 230V310 9999 SCT047 34/25 Q1001 NOSIG", "fltcat": "VFR", "wind": "270° @ 8 kt", "vis": ">10 km", "clouds": "SCT047", "temp": 34, "dewp": 25, "qnh": "1001 hPa"}, {"icao": "VVCR", "name": "Cam Ranh — Nha Trang", "metar": "METAR VVCR 190730Z 14012KT 9999 FEW020 SCT050 36/22 Q1006 NOSIG", "speci": null, "taf": "TAF VVCR 190500Z 1906/2006 08011KT 9999 FEW020 TEMPO 1907/1911 TS SCT013 FEW017CB BECMG 1912/1913 22006KT BECMG 2002/2003 10010KT", "raw": "METAR VVCR 190730Z 14012KT 9999 FEW020 SCT050 36/22 Q1006 NOSIG", "fltcat": "VFR", "wind": "140° @ 12 kt", "vis": ">10 km", "clouds": "FEW020 SCT050", "temp": 36, "dewp": 22, "qnh": "1006 hPa", "atis": [{"kind": "ARR", "time": "2026-07-17 14:03 UTC", "text": "VVCR ARR ATIS F 1401Z VVCR INFO F 1401Z. ILS Z APCH IN USE.. LDG RWY 02R AND DPTG RWY 02L.. 1400Z. WIND RWY 02R TDZ 040/3KT MID 340/3KT END 010/6KT RWY 02L TDZ 020/3KT VIS RWY 02R TDZ 10KM END"}, {"kind": "DEP", "time": "2026-05-29 05:57 UTC", "text": "VVCR DEP ATIS S 0533Z VVCR INFO S 0533Z. ILS Z APCH IN USE.. LDG RWY 02R AND DPTG RWY 02L.. 0532Z. WIND RWY 02R TDZ 080/9KT MID 090/8KT END 100/8KT RWY 02L TDZ 080/8KT CAVOK T31 DP26 QNH 1009HPA TREND TEMPO FM0630 VIS 4000M MOD TSRA. ADZ ON INITIAL CTC YOU HAVE INFO S."}]}, {"icao": "VVCS", "name": "Con Dao", "metar": "METAR VVCS 190730Z 27006KT 9999 FEW017 32/25 Q1008 NOSIG", "speci": null, "taf": "TAF VVCS 190500Z 1906/1915 24010KT 9999 SCT017", "raw": "METAR VVCS 190730Z 27006KT 9999 FEW017 32/25 Q1008 NOSIG", "fltcat": "VFR", "wind": "270° @ 6 kt", "vis": ">10 km", "clouds": "FEW017", "temp": 32, "dewp": 25, "qnh": "1008 hPa"}, {"icao": "VVCT", "name": "Can Tho Intl", "metar": "METAR VVCT 190730Z 28007KT 9999 BKN015 32/25 Q1008 NOSIG", "speci": null, "taf": "TAF VVCT 190500Z 1906/2006 25009KT 9999 SCT013 SCT040 TEMPO 1908/1912 TS BKN013 FEW015CB BKN040", "raw": "METAR VVCT 190730Z 28007KT 9999 BKN015 32/25 Q1008 NOSIG", "fltcat": "MVFR", "wind": "280° @ 7 kt", "vis": ">10 km", "clouds": "BKN015", "temp": 32, "dewp": 25, "qnh": "1008 hPa"}, {"icao": "VVDB", "name": "Dien Bien Phu", "metar": "METAR VVDB 190730Z 16003KT 120V200 9999 FEW016 SCT024 OVC028 25/23 Q1007 TEMPO 4000 SHRA", "speci": null, "taf": "TAF VVDB 190500Z 1906/1915 16005KT 8000 -RA SCT017 BKN030 TEMPO 1906/1910 4000 SHRA SCT010 FEW025TCU", "raw": "METAR VVDB 190730Z 16003KT 120V200 9999 FEW016 SCT024 OVC028 25/23 Q1007 TEMPO 4000 SHRA", "fltcat": "MVFR", "wind": "160° @ 3 kt", "vis": ">10 km", "clouds": "FEW016 SCT024 OVC028", "temp": 25, "dewp": 23, "qnh": "1007 hPa"}, {"icao": "VVDH", "name": "Dong Hoi", "metar": "METAR VVDH 190700Z 27015G26KT 220V300 CAVOK 37/22 Q1003 NOSIG", "speci": null, "taf": "TAF VVDH 190500Z 1906/1915 24012KT 9999 FEW030", "raw": "METAR VVDH 190700Z 27015G26KT 220V300 CAVOK 37/22 Q1003 NOSIG", "fltcat": "VFR", "wind": "270° @ 15 kt G26", "vis": "CAVOK", "clouds": "NSC", "temp": 37, "dewp": 22, "qnh": "1003 hPa"}, {"icao": "VVDN", "name": "Da Nang Intl", "metar": "METAR VVDN 190730Z 01008KT 340V050 9999 FEW020 SCT080 38/22 Q1003 NOSIG", "speci": null, "taf": "TAF VVDN 190500Z 1906/2006 23010KT 9999 FEW017 BECMG 1906/1907 01010KT BECMG 1912/1913 24007KT", "raw": "METAR VVDN 190730Z 01008KT 340V050 9999 FEW020 SCT080 38/22 Q1003 NOSIG", "fltcat": "VFR", "wind": "010° @ 8 kt", "vis": ">10 km", "clouds": "FEW020 SCT080", "temp": 38, "dewp": 22, "qnh": "1003 hPa", "atis": [{"kind": "ARR", "time": "2026-07-19 05:43 UTC", "text": "VVDN ARR ATIS D 0532Z VVDN INFO D 0532Z. ILS VICTOR APPROACH 35L.. DPTG RWY 35R.. 0532Z. WIND 240/08KT CAVOK T38 DP19 QNH 1004HPA TREND NOSIG. ADZ ON INITIAL CTC YOU HAVE INFO. D."}, {"kind": "DEP", "time": "2026-07-18 08:03 UTC", "text": "VVDN DEP ATIS M 0536Z VVDN INFO M 0536Z. ILS VICTOR APPROACH 35L.. DPTG RWY 35R.. 0536Z. WIND 040/01KT VIS 10KM CLD FEW 6600FT T39 DP24 QNH 1003HPA TREND NOSIG. ADZ ON INITIAL CTC YOU HAVE INFO. M."}]}, {"icao": "VVNB", "name": "Noi Bai — Ha Noi", "metar": "METAR VVNB 190730Z 29010KT 9999 SCT011 FEW027TCU 28/26 Q1002 TEMPO FM0740 TL0830 3000 SHRA", "speci": null, "taf": "TAF VVNB 190500Z 1906/2006 30005KT 9999 SCT030 TEMPO 1906/1909 4000 SHRA SCT010 FEW025TCU", "raw": "METAR VVNB 190730Z 29010KT 9999 SCT011 FEW027TCU 28/26 Q1002 TEMPO FM0740 TL0830 3000 SHRA", "fltcat": "VFR", "wind": "290° @ 10 kt", "vis": ">10 km", "clouds": "SCT011 FEW027", "temp": 28, "dewp": 26, "qnh": "1002 hPa", "atis": [{"kind": "ARR", "time": "2026-07-19 07:09 UTC", "text": "VVNB ARR ATIS X 0700Z VVNB INFO X 0700Z. ILS X RWY 11L. DPTG RWY 11R AND ARR RWY 11L .. 0700Z. WIND 310/9KT VIS 10KM CLD BKN 1100FT T29 DP27 QNH 1002HPA TREND NOSIG. RWY CONDITION REPORT 5 5 5.. ADZ ON INITIAL CTC YOU HAVE INFO X."}, {"kind": "DEP", "time": "2026-07-19 02:16 UTC", "text": "VVNB DEP ATIS L 1100Z VVNB INFO L 1100Z. ILS X RWY 11L. DPTG RWY 11R AND ARR RWY 11L .. 1100Z. WIND 260/4KT VRB BTN 210/ AND 270/ VIS 10KM CLD FEW 1500FT T37 DP24 QNH 0998HPA TREND NOSIG. ADZ ON INITIAL CTC YOU HAVE INFO L."}]}, {"icao": "VVPB", "name": "Phu Bai — Hue", "metar": "METAR VVPB 190730Z 06009KT 9999 FEW020 35/23 Q1003 NOSIG", "speci": null, "taf": "TAF VVPB 190500Z 1906/2006 24010KT 9999 FEW020 BECMG 1907/1908 08010KT BECMG 1912/1913 25006KT", "raw": "METAR VVPB 190730Z 06009KT 9999 FEW020 35/23 Q1003 NOSIG", "fltcat": "VFR", "wind": "060° @ 9 kt", "vis": ">10 km", "clouds": "FEW020", "temp": 35, "dewp": 23, "qnh": "1003 hPa"}, {"icao": "VVPC", "name": "Phu Cat — Quy Nhon", "metar": "METAR VVPC 190730Z 24011KT 220V280 9999 FEW030 37/21 Q1004 TEMPO 24015G25KT", "speci": null, "taf": "TAF VVPC 190500Z 1906/2006 26014KT 9999 FEW020 TEMPO 1906/1909 26015G25KT", "raw": "METAR VVPC 190730Z 24011KT 220V280 9999 FEW030 37/21 Q1004 TEMPO 24015G25KT", "fltcat": "VFR", "wind": "240° @ 11 kt", "vis": ">10 km", "clouds": "FEW030", "temp": 37, "dewp": 21, "qnh": "1004 hPa"}, {"icao": "VVPK", "name": "Pleiku", "metar": "METAR VVPK 190730Z 28011KT 210V310 9999 FEW022 28/21 Q1012 NOSIG", "speci": null, "taf": "TAF VVPK 190500Z 1906/2006 25010KT 9999 SCT015 TEMPO 1908/1912 25015G25KT 4000 SHRA BKN010 FEW015CB BKN040 TEMPO 1922/1924 2500 RA BR BKN003 BKN006 TEMPO 2000/2002 4000 RA BR BKN005 BKN008", "raw": "METAR VVPK 190730Z 28011KT 210V310 9999 FEW022 28/21 Q1012 NOSIG", "fltcat": "VFR", "wind": "280° @ 11 kt", "vis": ">10 km", "clouds": "FEW022", "temp": 28, "dewp": 21, "qnh": "1012 hPa"}, {"icao": "VVPQ", "name": "Phu Quoc Intl", "metar": "METAR VVPQ 190730Z 28011KT 9999 SCT015 31/29 Q1009 NOSIG", "speci": null, "taf": "TAF VVPQ 190500Z 1906/2006 25011KT 9999 SCT015 TEMPO 1906/1908 5000 TSRA SCT015 FEW017CB TEMPO 2003/2006 TS SCT015 FEW017CB", "raw": "METAR VVPQ 190730Z 28011KT 9999 SCT015 31/29 Q1009 NOSIG", "fltcat": "VFR", "wind": "280° @ 11 kt", "vis": ">10 km", "clouds": "SCT015", "temp": 31, "dewp": 29, "qnh": "1009 hPa"}, {"icao": "VVRG", "name": "Rach Gia", "metar": "METAR VVRG 190730Z 25010KT 220V280 9999 SCT015 33/25 Q1008 NOSIG", "speci": null, "taf": "TAF VVRG 190500Z 1906/1915 25010KT 9999 SCT015 TEMPO 1907/1911 TS SCT015 FEW017CB", "raw": "METAR VVRG 190730Z 25010KT 220V280 9999 SCT015 33/25 Q1008 NOSIG", "fltcat": "VFR", "wind": "250° @ 10 kt", "vis": ">10 km", "clouds": "SCT015", "temp": 33, "dewp": 25, "qnh": "1008 hPa"}, {"icao": "VVTH", "name": "Dong Tac — Tuy Hoa", "metar": "METAR VVTH 190730Z 26010KT 220V310 9999 FEW020 38/20 Q1005 TEMPO 26015G25KT", "speci": null, "taf": "TAF VVTH 190500Z 1906/1915 24014KT 9999 FEW015 TEMPO 1906/1909 24015G25KT", "raw": "METAR VVTH 190730Z 26010KT 220V310 9999 FEW020 38/20 Q1005 TEMPO 26015G25KT", "fltcat": "VFR", "wind": "260° @ 10 kt", "vis": ">10 km", "clouds": "FEW020", "temp": 38, "dewp": 20, "qnh": "1005 hPa"}, {"icao": "VVTS", "name": "Tan Son Nhat — Ho Chi Minh City", "metar": "METAR VVTS 190730Z 26010KT 230V320 9999 SCT025 FEW027CB 35/24 Q1007 NOSIG", "speci": null, "taf": "TAF VVTS 190500Z 1906/2012 26012KT 9999 SCT017 TEMPO 1906/1908 TS SCT015 FEW017CB TEMPO 1908/1912 26015G28KT 4000 TSRA SCT015 FEW017CB TEMPO 2008/2012 26015G28KT 4000 TSRA SCT015 FEW017CB", "raw": "METAR VVTS 190730Z 26010KT 230V320 9999 SCT025 FEW027CB 35/24 Q1007 NOSIG", "fltcat": "VFR", "wind": "260° @ 10 kt", "vis": ">10 km", "clouds": "SCT025 FEW027", "temp": 35, "dewp": 24, "qnh": "1007 hPa", "atis": [{"kind": "ARR", "time": "2026-07-19 07:15 UTC", "text": "VVTS ARR ATIS K 1231Z VVTS INFO K 1231Z. ILSW APCH IN RWY 25R.. LDG RWY 25R AND DEP RWY 25L.. 1231Z. WIND RWY 25R TDZ 340/7KT VIS 10KM CLD FEW 4300FT T29 DP23 QNH 1008HPA TREND NOSIG. ADZ ON INITIAL CTC YOU HAVE INFO K."}, {"kind": "DEP", "time": "2026-07-18 06:13 UTC", "text": "VVTS DEP ATIS V 0500Z VVTS INFO V 0500Z. ILSW APCH IN RWY 25R.. LDG RWY 25R AND DEP RWY 25L.. 0500Z. WIND RWY 25L TDZ 270/12KT MAX17 MNM8 MID 270/12KT MAX17 MNM9 END 280/12KT MAX18 MNM8 VRB BTN 250/ AND 310/ RWY 25R TDZ 270/12KT MAX17 MNM8 VIS RWY 25R TDZ 10KM CLD RWY 25R BKN 2500FT FEW CB 2700FT T34 DP26 QNH 1007HPA CB IN APCH TREND NOSIG. ADZ ON INITIAL CTC YOU HAVE INFO V."}]}, {"icao": "VVTX", "name": "Tho Xuan — Thanh Hoa", "metar": "METAR VVTX 190730Z 20008KT 9999 FEW030TCU BKN040 31/23 Q1001 NOSIG", "speci": null, "taf": "TAF VVTX 190500Z 1906/1915 25006KT 9999 FEW030 TEMPO 1910/1914 4000 TSRA SCT010 FEW027CB", "raw": "METAR VVTX 190730Z 20008KT 9999 FEW030TCU BKN040 31/23 Q1001 NOSIG", "fltcat": "VFR", "wind": "200° @ 8 kt", "vis": ">10 km", "clouds": "FEW030 BKN040", "temp": 31, "dewp": 23, "qnh": "1001 hPa"}, {"icao": "VVVD", "name": "Van Don — Quang Ninh", "metar": "METAR VVVD 190730Z 18008KT CAVOK 33/26 Q1001 NOSIG", "speci": null, "taf": "TAF VVVD 190500Z 1906/2006 20006KT 9999 FEW030 TEMPO 1908/1912 33015G25KT 4000 TSRA SCT012 FEW027CB TEMPO 1921/2002 3000 TSRA SCT010 FEW027CB", "raw": "METAR VVVD 190730Z 18008KT CAVOK 33/26 Q1001 NOSIG", "fltcat": "VFR", "wind": "180° @ 8 kt", "vis": "CAVOK", "clouds": "NSC", "temp": 33, "dewp": 26, "qnh": "1001 hPa"}, {"icao": "VVVH", "name": "Vinh", "metar": "METAR VVVH 190730Z 26009KT 230V300 CAVOK 34/21 Q1002 NOSIG", "speci": null, "taf": "TAF VVVH 190500Z 1906/2006 24010KT 9999 FEW030", "raw": "METAR VVVH 190730Z 26009KT 230V300 CAVOK 34/21 Q1002 NOSIG", "fltcat": "VFR", "wind": "260° @ 9 kt", "vis": "CAVOK", "clouds": "NSC", "temp": 34, "dewp": 21, "qnh": "1002 hPa"}]}