{"updated": "2026-07-17T08:26:23+00:00", "source": "VN MET", "stations": [{"icao": "VVBM", "name": "Buon Ma Thuot", "metar": "METAR VVBM 170800Z 29007KT 9999 BKN013 FEW015CB BKN040 28/23 Q1011 NOSIG", "speci": null, "taf": "TAF VVBM 170500Z 1706/1806 28008KT 9999 SCT015 BKN040 TEMPO 1706/1710 5000 SHRA SCT010 FEW015CB BKN030 TEMPO 1804/1806 5000 SHRA SCT010 FEW013CB BKK040", "raw": "METAR VVBM 170800Z 29007KT 9999 BKN013 FEW015CB BKN040 28/23 Q1011 NOSIG", "fltcat": "MVFR", "wind": "290° @ 7 kt", "vis": ">10 km", "clouds": "BKN013 FEW015 BKN040", "temp": 28, "dewp": 23, "qnh": "1011 hPa"}, {"icao": "VVCA", "name": "Chu Lai", "metar": "METAR VVCA 170800Z 07009KT 030V110 9999 FEW025 36/22 Q1003 NOSIG", "speci": null, "taf": "TAF VVCA 170500Z 1706/1715 05010KT 9999 FEW017", "raw": "METAR VVCA 170800Z 07009KT 030V110 9999 FEW025 36/22 Q1003 NOSIG", "fltcat": "VFR", "wind": "070° @ 9 kt", "vis": ">10 km", "clouds": "FEW025", "temp": 36, "dewp": 22, "qnh": "1003 hPa"}, {"icao": "VVCI", "name": "Cat Bi — Hai Phong", "metar": "METAR VVCI 170800Z 23011KT 200V280 9999 FEW047 36/25 Q1000 NOSIG", "speci": null, "taf": "TAF VVCI 170500Z 1706/1806 21006KT 9999 FEW030 TEMPO 1712/1716 3500 TSRA SCT010 FEW027CB", "raw": "METAR VVCI 170800Z 23011KT 200V280 9999 FEW047 36/25 Q1000 NOSIG", "fltcat": "VFR", "wind": "230° @ 11 kt", "vis": ">10 km", "clouds": "FEW047", "temp": 36, "dewp": 25, "qnh": "1000 hPa"}, {"icao": "VVCR", "name": "Cam Ranh — Nha Trang", "metar": "METAR VVCR 170800Z VRB05G15KT CAVOK 35/22 Q1007 NOSIG", "speci": null, "taf": "TAF VVCR 170500Z 1706/1806 10010KT 9999 FEW020 BECMG 1712/1713 20008KT BECMG 1803/1804 10010KT", "raw": "METAR VVCR 170800Z VRB05G15KT CAVOK 35/22 Q1007 NOSIG", "fltcat": "VFR", "wind": "VRB @ 5 kt G15", "vis": "CAVOK", "clouds": "NSC", "temp": 35, "dewp": 22, "qnh": "1007 hPa", "atis": [{"kind": "ARR", "time": "2026-07-13 09:29 UTC", "text": "VVCR ARR ATIS W 1330Z VVCR INFO W 1330Z. ILS YANKEE APPROACH IN USE. LDG RWY 20L AND DPTG RWY 20R.. 1330Z. WIND RWY 20L TDZ 330/3KT VRB BTN 260/ AND 360/ MID 310/3KT VRB BTN 280/ AND 340/ END 320/3KT RWY 20R TDZ 320/1KT CAVOK T29 DP25 QNH 1010HPA TREND NOSIG. ADZ ON INITIAL CTC YOU HAVE INFO W."}, {"kind": "DEP", "time": "2026-05-29 05:57 UTC", "text": "VVCR DEP ATIS S 0533Z VVCR INFO S 0533Z. ILS Z APCH IN USE.. LDG RWY 02R AND DPTG RWY 02L.. 0532Z. WIND RWY 02R TDZ 080/9KT MID 090/8KT END 100/8KT RWY 02L TDZ 080/8KT CAVOK T31 DP26 QNH 1009HPA TREND TEMPO FM0630 VIS 4000M MOD TSRA. ADZ ON INITIAL CTC YOU HAVE INFO S."}]}, {"icao": "VVCS", "name": "Con Dao", "metar": "METAR VVCS 170800Z 28007KT 230V320 9999 FEW017 31/25 Q1009 NOSIG", "speci": null, "taf": "TAF VVCS 170500Z 1706/1715 20008KT 9999 SCT017", "raw": "METAR VVCS 170800Z 28007KT 230V320 9999 FEW017 31/25 Q1009 NOSIG", "fltcat": "VFR", "wind": "280° @ 7 kt", "vis": ">10 km", "clouds": "FEW017", "temp": 31, "dewp": 25, "qnh": "1009 hPa"}, {"icao": "VVCT", "name": "Can Tho Intl", "metar": "METAR VVCT 170800Z 27008KT 230V310 9999 SCT013 FEW015CB 34/25 Q1009 NOSIG", "speci": null, "taf": "TAF VVCT 170500Z 1706/1806 24008KT 9999 SCT015 SCT040 TEMPO 1709/1712 TS SCT013 FEW015CB TEMPO 1800/1804 5000 SHRA SCT015 FEW017CB BKN040", "raw": "METAR VVCT 170800Z 27008KT 230V310 9999 SCT013 FEW015CB 34/25 Q1009 NOSIG", "fltcat": "VFR", "wind": "270° @ 8 kt", "vis": ">10 km", "clouds": "SCT013 FEW015", "temp": 34, "dewp": 25, "qnh": "1009 hPa"}, {"icao": "VVDB", "name": "Dien Bien Phu", "metar": "METAR VVDB 170800Z 19003KT 150V220 8000 -RA FEW007 SCT015 OVC019 24/23 Q1006 NOSIG", "speci": "SPECI VVDB 170823Z 19005KT 3800 RA FEW006 OVC022 24/23 Q1006 BECMG 6000 -RA", "taf": "TAF VVDB 170500Z 1706/1715 21005KT 6000 SCT025 TEMPO 1706/1710 3500 SHRA SCT010 FEW025TCU", "raw": "SPECI VVDB 170823Z 19005KT 3800 RA FEW006 OVC022 24/23 Q1006 BECMG 6000 -RA", "fltcat": "IFR", "wind": "190° @ 5 kt", "vis": "3.8 km", "clouds": "FEW006 OVC022", "temp": 24, "dewp": 23, "qnh": "1006 hPa"}, {"icao": "VVDH", "name": "Dong Hoi", "metar": "METAR VVDH 170800Z 28011KT 220V310 CAVOK 35/23 Q1003 NOSIG", "speci": null, "taf": "TAF VVDH 170500Z 1706/1715 26008KT 9999 FEW030", "raw": "METAR VVDH 170800Z 28011KT 220V310 CAVOK 35/23 Q1003 NOSIG", "fltcat": "VFR", "wind": "280° @ 11 kt", "vis": "CAVOK", "clouds": "NSC", "temp": 35, "dewp": 23, "qnh": "1003 hPa"}, {"icao": "VVDN", "name": "Da Nang Intl", "metar": "METAR VVDN 170800Z 01011KT 9999 FEW020 SCT076 34/25 Q1004 NOSIG", "speci": null, "taf": "TAF VVDN 170500Z 1706/1806 22010KT 9999 FEW020", "raw": "METAR VVDN 170800Z 01011KT 9999 FEW020 SCT076 34/25 Q1004 NOSIG", "fltcat": "VFR", "wind": "010° @ 11 kt", "vis": ">10 km", "clouds": "FEW020 SCT076", "temp": 34, "dewp": 25, "qnh": "1004 hPa", "atis": [{"kind": "ARR", "time": "2026-07-17 05:20 UTC", "text": "VVDN ARR ATIS B 0502Z VVDN INFO B 0502Z. ILS VICTOR APPROACH 35L.. DPTG RWY 35R.. 0502Z. WIND 240/08KT CAVOK T36 DP21 QNH 1005HPA TREND NOSIG. ADZ ON INITIAL CTC YOU HAVE INFO. B."}, {"kind": "DEP", "time": "2026-07-12 02:50 UTC", "text": "VVDN DEP ATIS N 0423Z VVDN INFO N 0423Z. ILS VICTOR APPROACH 35L.. DPTG RWY 35R.. 0423Z. WIND 010/02KT CAVOK T36 DP24 QNH 1008HPA TREND NOSIG. WS ALL RWY. ADZ ON INITIAL CTC YOU HAVE INFO. N."}]}, {"icao": "VVNB", "name": "Noi Bai — Ha Noi", "metar": "METAR VVNB 170800Z 26008KT 220V290 CAVOK 33/25 Q1000 NOSIG", "speci": null, "taf": "TAF AMD VVNB 170800Z 1708/1806 24008KT 9999 FEW025 TEMPO 1710/1715 3500 SHRA SCT010 FEW025TCU", "raw": "METAR VVNB 170800Z 26008KT 220V290 CAVOK 33/25 Q1000 NOSIG", "fltcat": "VFR", "wind": "260° @ 8 kt", "vis": "CAVOK", "clouds": "NSC", "temp": 33, "dewp": 25, "qnh": "1000 hPa", "atis": [{"kind": "ARR", "time": "2026-07-17 03:40 UTC", "text": "VVNB ARR ATIS M 0331Z VVNB INFO M 0331Z. ILS X RWY 11L. DPTG RWY 11R AND ARR RWY 11L .. 0330Z. WIND 280/7KT VIS 10KM RVR RWY 11L TDZ ABV 2000M MID ABV 2000M CLD FEW 3100FT T32 DP25 QNH 1002HPA TREND NOSIG. ADZ ON INITIAL CTC YOU HAVE INFO M."}, {"kind": "DEP", "time": "2026-07-16 02:01 UTC", "text": "VVNB DEP ATIS K 1100Z VVNB INFO K 1100Z. ILS X RWY 11L. DPTG RWY 11R AND ARR RWY 11L .. 1100Z. WIND 200/6KT CAVOK T34 DP25 QNH 1001HPA TREND NOSIG. ADZ ON INITIAL CTC YOU HAVE INFO K."}]}, {"icao": "VVNS", "name": "Na San — Son La", "metar": "METAR VVNS 170800Z /////KT 9000 SCT025 BKN050 26/24 Q1006 NOSIG", "speci": null, "taf": null, "raw": "METAR VVNS 170800Z /////KT 9000 SCT025 BKN050 26/24 Q1006 NOSIG", "fltcat": "VFR", "wind": "—", "vis": "9.0 km", "clouds": "SCT025 BKN050", "temp": 26, "dewp": 24, "qnh": "1006 hPa"}, {"icao": "VVPB", "name": "Phu Bai — Hue", "metar": "METAR VVPB 170800Z 07006KT 9999 FEW020 37/19 Q1004 NOSIG", "speci": null, "taf": "TAF VVPB 170500Z 1706/1806 27010KT 9999 FEW020", "raw": "METAR VVPB 170800Z 07006KT 9999 FEW020 37/19 Q1004 NOSIG", "fltcat": "VFR", "wind": "070° @ 6 kt", "vis": ">10 km", "clouds": "FEW020", "temp": 37, "dewp": 19, "qnh": "1004 hPa"}, {"icao": "VVPC", "name": "Phu Cat — Quy Nhon", "metar": "METAR VVPC 170800Z 22011KT 170V250 9999 FEW030 34/22 Q1005 NOSIG", "speci": null, "taf": "TAF VVPC 170500Z 1706/1806 24014KT 9999 FEW020 TEMPO 1706/1709 24015G25KT", "raw": "METAR VVPC 170800Z 22011KT 170V250 9999 FEW030 34/22 Q1005 NOSIG", "fltcat": "VFR", "wind": "220° @ 11 kt", "vis": ">10 km", "clouds": "FEW030", "temp": 34, "dewp": 22, "qnh": "1005 hPa"}, {"icao": "VVPK", "name": "Pleiku", "metar": "METAR VVPK 170800Z 25011KT 210V290 9999 FEW015 25/21 Q1012 NOSIG", "speci": null, "taf": "TAF VVPK 170500Z 1706/1806 27013KT 9999 BKN015 TEMPO 1708/1713 4000 SHRA BKN010 FEW015CB BKN040 TEMPO 1722/1724 2500 RA BR BKN003 BKN005", "raw": "METAR VVPK 170800Z 25011KT 210V290 9999 FEW015 25/21 Q1012 NOSIG", "fltcat": "VFR", "wind": "250° @ 11 kt", "vis": ">10 km", "clouds": "FEW015", "temp": 25, "dewp": 21, "qnh": "1012 hPa"}, {"icao": "VVPQ", "name": "Phu Quoc Intl", "metar": "METAR VVPQ 170800Z 26008KT 9999 FEW017 31/30 Q1010 NOSIG", "speci": null, "taf": "TAF VVPQ 170500Z 1706/1806 28008KT 9999 SCT015 SCT040 TEMPO 1712/1716 5000 TSRA SCT015 FEW017CB BKN040 TEMPO 1801/1806 28015G26KT 5000 TSRA SCT015 FEW017CB BKN040", "raw": "METAR VVPQ 170800Z 26008KT 9999 FEW017 31/30 Q1010 NOSIG", "fltcat": "VFR", "wind": "260° @ 8 kt", "vis": ">10 km", "clouds": "FEW017", "temp": 31, "dewp": 30, "qnh": "1010 hPa"}, {"icao": "VVRG", "name": "Rach Gia", "metar": "METAR VVRG 170800Z 25010KT 220V290 9999 SCT020 32/26 Q1009 NOSIG", "speci": null, "taf": "TAF VVRG 170500Z 1706/1715 25008KT 9999 SCT015 SCT040", "raw": "METAR VVRG 170800Z 25010KT 220V290 9999 SCT020 32/26 Q1009 NOSIG", "fltcat": "VFR", "wind": "250° @ 10 kt", "vis": ">10 km", "clouds": "SCT020", "temp": 32, "dewp": 26, "qnh": "1009 hPa"}, {"icao": "VVTH", "name": "Dong Tac — Tuy Hoa", "metar": "METAR VVTH 170800Z 28012G23KT 230V320 9999 FEW015 34/23 Q1006 NOSIG", "speci": null, "taf": "TAF VVTH 170500Z 1706/1715 26015KT 9999 FEW020 TEMPO 1706/1709 26015G25KT", "raw": "METAR VVTH 170800Z 28012G23KT 230V320 9999 FEW015 34/23 Q1006 NOSIG", "fltcat": "VFR", "wind": "280° @ 12 kt G23", "vis": ">10 km", "clouds": "FEW015", "temp": 34, "dewp": 23, "qnh": "1006 hPa"}, {"icao": "VVTS", "name": "Tan Son Nhat — Ho Chi Minh City", "metar": "METAR VVTS 170800Z 29011KT 250V310 9999 SCT025 FEW027TCU SCT042 34/24 Q1008 NOSIG", "speci": null, "taf": "TAF VVTS 170500Z 1706/1812 26010KT 9999 SCT017 TEMPO 1709/1713 26015G25KT 4000 TSRA BKN015 FEW017CB TEMPO 1805/1810 5000 TSRA BKN015 FEW017CB", "raw": "METAR VVTS 170800Z 29011KT 250V310 9999 SCT025 FEW027TCU SCT042 34/24 Q1008 NOSIG", "fltcat": "VFR", "wind": "290° @ 11 kt", "vis": ">10 km", "clouds": "SCT025 FEW027 SCT042", "temp": 34, "dewp": 24, "qnh": "1008 hPa", "atis": [{"kind": "ARR", "time": "2026-07-17 05:11 UTC", "text": "VVTS ARR ATIS B 1930Z VVTS INFO B 1930Z. ILSW APCH IN RWY 25R.. LDG RWY 25R AND DEP RWY 25L.. 1930Z. WIND RWY 25R TDZ 240/8KT MAX14 MNM5 CAVOK T29 DP27 QNH 1007HPA TREND NOSIG. ADZ ON INITIAL CTC YOU HAVE INFO B."}, {"kind": "DEP", "time": "2026-07-17 01:54 UTC", "text": "VVTS DEP ATIS Z 1830Z VVTS INFO Z 1830Z. ILSW APCH IN RWY 25R.. LDG RWY 25R AND DEP RWY 25L.. 1830Z. WIND RWY 25L TDZ 240/10KT MAX15 MNM7 MID 230/11KT MAX17 MNM8 END 240/11KT MAX16 MNM5 VRB BTN 210/ AND 270/ RWY 25R TDZ 240/10KT MAX15 MNM7 END 230/11KT VIS 10KM CLD NSC T29 DP27 QNH 1007HPA TREND NOSIG. ADZ ON INITIAL CTC YOU HAVE INFO Z."}]}, {"icao": "VVTX", "name": "Tho Xuan — Thanh Hoa", "metar": "METAR VVTX 170800Z 20005KT CAVOK 33/24 Q1000 NOSIG", "speci": null, "taf": "TAF VVTX 170500Z 1706/1715 23005KT 9999 FEW025 TEMPO 1708/1712 3500 TSRA SCT010 FEW027CB", "raw": "METAR VVTX 170800Z 20005KT CAVOK 33/24 Q1000 NOSIG", "fltcat": "VFR", "wind": "200° @ 5 kt", "vis": "CAVOK", "clouds": "NSC", "temp": 33, "dewp": 24, "qnh": "1000 hPa"}, {"icao": "VVVD", "name": "Van Don — Quang Ninh", "metar": "METAR VVVD 170800Z 21009KT CAVOK 34/27 Q1000 NOSIG", "speci": null, "taf": "TAF VVVD 170500Z 1706/1806 22008KT 9999 FEW025 TEMPO 1712/1716 3500 TSRA SCT010 FEW027CB", "raw": "METAR VVVD 170800Z 21009KT CAVOK 34/27 Q1000 NOSIG", "fltcat": "VFR", "wind": "210° @ 9 kt", "vis": "CAVOK", "clouds": "NSC", "temp": 34, "dewp": 27, "qnh": "1000 hPa"}, {"icao": "VVVH", "name": "Vinh", "metar": "METAR VVVH 170800Z 25010KT 210V290 CAVOK 35/21 Q1002 NOSIG", "speci": null, "taf": "TAF VVVH 170500Z 1706/1806 26008KT 9999 FEW025", "raw": "METAR VVVH 170800Z 25010KT 210V290 CAVOK 35/21 Q1002 NOSIG", "fltcat": "VFR", "wind": "250° @ 10 kt", "vis": "CAVOK", "clouds": "NSC", "temp": 35, "dewp": 21, "qnh": "1002 hPa"}]}