{"updated": "2026-07-16T11:07:34+00:00", "source": "VN MET", "stations": [{"icao": "VVBM", "name": "Buon Ma Thuot", "metar": "METAR VVBM 161100Z 26005KT 220V310 9999 SCT015 SCT040 26/22 Q1012 NOSIG", "speci": null, "taf": "TAF VVBM 152300Z 1600/1624 VRB03KT 9999 SCT015 SCT040 BECMG 1604/1605 30010KT TEMPO 1606/1611 5000 TSRA BKN010 FEW015CB BKN040", "raw": "METAR VVBM 161100Z 26005KT 220V310 9999 SCT015 SCT040 26/22 Q1012 NOSIG", "fltcat": "VFR", "wind": "260° @ 5 kt", "vis": ">10 km", "clouds": "SCT015 SCT040", "temp": 26, "dewp": 22, "qnh": "1012 hPa"}, {"icao": "VVCA", "name": "Chu Lai", "metar": "METAR VVCA 161100Z 14005KT CAVOK 32/23 Q1004 NOSIG", "speci": null, "taf": "TAF VVCA 160800Z 1609/1618 08010KT 9999 FEW020 BECMG 1612/1613 17007KT", "raw": "METAR VVCA 161100Z 14005KT CAVOK 32/23 Q1004 NOSIG", "fltcat": "VFR", "wind": "140° @ 5 kt", "vis": "CAVOK", "clouds": "NSC", "temp": 32, "dewp": 23, "qnh": "1004 hPa"}, {"icao": "VVCI", "name": "Cat Bi — Hai Phong", "metar": "METAR VVCI 161100Z 11005KT CAVOK 31/27 Q1000 NOSIG", "speci": null, "taf": "TAF VVCI 152300Z 1600/1624 14005KT 9999 FEW030", "raw": "METAR VVCI 161100Z 11005KT CAVOK 31/27 Q1000 NOSIG", "fltcat": "VFR", "wind": "110° @ 5 kt", "vis": "CAVOK", "clouds": "NSC", "temp": 31, "dewp": 27, "qnh": "1000 hPa"}, {"icao": "VVCR", "name": "Cam Ranh — Nha Trang", "metar": "METAR VVCR 161100Z 01007KT 9999 FEW020 SCT070 29/25 Q1008 NOSIG", "speci": null, "taf": "TAF VVCR 152300Z 1600/1624 14008KT 9999 FEW020 TEMPO 1609/1612 TS SCT013 FEW015CB", "raw": "METAR VVCR 161100Z 01007KT 9999 FEW020 SCT070 29/25 Q1008 NOSIG", "fltcat": "VFR", "wind": "010° @ 7 kt", "vis": ">10 km", "clouds": "FEW020 SCT070", "temp": 29, "dewp": 25, "qnh": "1008 hPa", "atis": [{"kind": "ARR", "time": "2026-07-13 09:29 UTC", "text": "VVCR ARR ATIS W 1330Z VVCR INFO W 1330Z. ILS YANKEE APPROACH IN USE. LDG RWY 20L AND DPTG RWY 20R.. 1330Z. WIND RWY 20L TDZ 330/3KT VRB BTN 260/ AND 360/ MID 310/3KT VRB BTN 280/ AND 340/ END 320/3KT RWY 20R TDZ 320/1KT CAVOK T29 DP25 QNH 1010HPA TREND NOSIG. ADZ ON INITIAL CTC YOU HAVE INFO W."}, {"kind": "DEP", "time": "2026-05-29 05:57 UTC", "text": "VVCR DEP ATIS S 0533Z VVCR INFO S 0533Z. ILS Z APCH IN USE.. LDG RWY 02R AND DPTG RWY 02L.. 0532Z. WIND RWY 02R TDZ 080/9KT MID 090/8KT END 100/8KT RWY 02L TDZ 080/8KT CAVOK T31 DP26 QNH 1009HPA TREND TEMPO FM0630 VIS 4000M MOD TSRA. ADZ ON INITIAL CTC YOU HAVE INFO S."}]}, {"icao": "VVCS", "name": "Con Dao", "metar": "METAR VVCS 161100Z VRB01KT 9999 FEW017 30/25 Q1010 NOSIG", "speci": null, "taf": "TAF VVCS 152300Z 1600/1609 VRB03KT 9999 SCT017", "raw": "METAR VVCS 161100Z VRB01KT 9999 FEW017 30/25 Q1010 NOSIG", "fltcat": "VFR", "wind": "VRB @ 1 kt", "vis": ">10 km", "clouds": "FEW017", "temp": 30, "dewp": 25, "qnh": "1010 hPa"}, {"icao": "VVCT", "name": "Can Tho Intl", "metar": "METAR VVCT 161100Z 25005KT 220V280 9999 FEW013 FEW015CB 31/24 Q1010 NOSIG", "speci": null, "taf": "TAF VVCT 152300Z 1600/1624 VRB03KT 9999 SCT015 SCT040 BECMG 1602/1603 24010KT TEMPO 1605/1609 25015G26KT 4000 TSRA BKN015 FEW017CB", "raw": "METAR VVCT 161100Z 25005KT 220V280 9999 FEW013 FEW015CB 31/24 Q1010 NOSIG", "fltcat": "VFR", "wind": "250° @ 5 kt", "vis": ">10 km", "clouds": "FEW013 FEW015", "temp": 31, "dewp": 24, "qnh": "1010 hPa"}, {"icao": "VVDB", "name": "Dien Bien Phu", "metar": "METAR VVDB 161100Z AUTO 00000KT 9999 // FEW017/// SCT023/// OVC026/// 25/24 Q1005 RE//", "speci": null, "taf": "TAF VVDB 152300Z 1600/1609 21005KT 9999 SCT030 TEMPO 1607/1609 4000 TSRA SCT015 FEW027CB", "raw": "METAR VVDB 161100Z AUTO 00000KT 9999 // FEW017/// SCT023/// OVC026/// 25/24 Q1005 RE//", "fltcat": "MVFR", "wind": "000° @ 0 kt", "vis": ">10 km", "clouds": "FEW017 SCT023 OVC026", "temp": 25, "dewp": 24, "qnh": "1005 hPa"}, {"icao": "VVDH", "name": "Dong Hoi", "metar": "METAR VVDH 161100Z 20005KT 170V240 CAVOK 32/24 Q1004 NOSIG", "speci": null, "taf": "TAF VVDH 152300Z 1600/1609 21008KT 9999 FEW030", "raw": "METAR VVDH 161100Z 20005KT 170V240 CAVOK 32/24 Q1004 NOSIG", "fltcat": "VFR", "wind": "200° @ 5 kt", "vis": "CAVOK", "clouds": "NSC", "temp": 32, "dewp": 24, "qnh": "1004 hPa"}, {"icao": "VVDN", "name": "Da Nang Intl", "metar": "METAR VVDN 161100Z VRB01KT 9999 FEW020 SCT080 32/26 Q1005 NOSIG", "speci": null, "taf": "TAF VVDN 152300Z 1600/1624 24010KT 9999 FEW020 SCT060 BECMG 1605/1606 01010KT BECMG 1611/1612 22008KT", "raw": "METAR VVDN 161100Z VRB01KT 9999 FEW020 SCT080 32/26 Q1005 NOSIG", "fltcat": "VFR", "wind": "VRB @ 1 kt", "vis": ">10 km", "clouds": "FEW020 SCT080", "temp": 32, "dewp": 26, "qnh": "1005 hPa", "atis": [{"kind": "ARR", "time": "2026-07-16 07:30 UTC", "text": "VVDN ARR ATIS B 1232Z VVDN INFO B 1232Z. ILS VICTOR APPROACH 35L.. DPTG RWY 35R.. 1232Z. WIND 180/04KT VIS 10KM CLD FEW 6800FT T31 DP25 QNH 1006HPA TREND NOSIG. ADZ ON INITIAL CTC YOU HAVE INFO. B."}, {"kind": "DEP", "time": "2026-07-12 02:50 UTC", "text": "VVDN DEP ATIS N 0423Z VVDN INFO N 0423Z. ILS VICTOR APPROACH 35L.. DPTG RWY 35R.. 0423Z. WIND 010/02KT CAVOK T36 DP24 QNH 1008HPA TREND NOSIG. WS ALL RWY. ADZ ON INITIAL CTC YOU HAVE INFO. N."}]}, {"icao": "VVNB", "name": "Noi Bai — Ha Noi", "metar": "METAR VVNB 161100Z 18004KT 150V220 CAVOK 32/25 Q1000 NOSIG", "speci": null, "taf": "TAF VVNB 152300Z 1600/1624 09005KT 9999 FEW025 PROB40 TEMPO 1601/1604 3500 TSRA SCT015 FEW027CB TEMPO 1609/1612 3000 TSRA SCT012 FEW027CB", "raw": "METAR VVNB 161100Z 18004KT 150V220 CAVOK 32/25 Q1000 NOSIG", "fltcat": "VFR", "wind": "180° @ 4 kt", "vis": "CAVOK", "clouds": "NSC", "temp": 32, "dewp": 25, "qnh": "1000 hPa", "atis": [{"kind": "ARR", "time": "2026-07-16 11:03 UTC", "text": "VVNB ARR ATIS Q 1400Z VVNB INFO Q 1400Z. ILS X RWY 11L. DPTG RWY 11R AND ARR RWY 11L .. 1400Z. WIND 200/6KT CAVOK T31 DP25 QNH 1001HPA TREND NOSIG. ADZ ON INITIAL CTC YOU HAVE INFO Q."}, {"kind": "DEP", "time": "2026-07-16 02:01 UTC", "text": "VVNB DEP ATIS K 1100Z VVNB INFO K 1100Z. ILS X RWY 11L. DPTG RWY 11R AND ARR RWY 11L .. 1100Z. WIND 200/6KT CAVOK T34 DP25 QNH 1001HPA TREND NOSIG. ADZ ON INITIAL CTC YOU HAVE INFO K."}]}, {"icao": "VVNS", "name": "Na San — Son La", "metar": "METAR VVNS 161100Z /////KT 9999 SCT030 BKN050 25/24 Q1004 NOSIG", "speci": null, "taf": null, "raw": "METAR VVNS 161100Z /////KT 9999 SCT030 BKN050 25/24 Q1004 NOSIG", "fltcat": "VFR", "wind": "—", "vis": ">10 km", "clouds": "SCT030 BKN050", "temp": 25, "dewp": 24, "qnh": "1004 hPa"}, {"icao": "VVPB", "name": "Phu Bai — Hue", "metar": "METAR VVPB 161100Z VRB02KT 9999 FEW020 SCT070 32/24 Q1005 NOSIG", "speci": null, "taf": "TAF VVPB 152300Z 1600/1624 22005KT 9999 FEW020 BECMG 1605/1606 08010KT BECMG 1612/1613 22004KT", "raw": "METAR VVPB 161100Z VRB02KT 9999 FEW020 SCT070 32/24 Q1005 NOSIG", "fltcat": "VFR", "wind": "VRB @ 2 kt", "vis": ">10 km", "clouds": "FEW020 SCT070", "temp": 32, "dewp": 24, "qnh": "1005 hPa"}, {"icao": "VVPC", "name": "Phu Cat — Quy Nhon", "metar": "METAR VVPC 161100Z VRB02KT 9999 FEW030 BKN080 31/23 Q1006 NOSIG", "speci": null, "taf": "TAF VVPC 152300Z 1600/1624 26008KT 9999 FEW017 SCT060", "raw": "METAR VVPC 161100Z VRB02KT 9999 FEW030 BKN080 31/23 Q1006 NOSIG", "fltcat": "VFR", "wind": "VRB @ 2 kt", "vis": ">10 km", "clouds": "FEW030 BKN080", "temp": 31, "dewp": 23, "qnh": "1006 hPa"}, {"icao": "VVPK", "name": "Pleiku", "metar": "METAR VVPK 161100Z 25005KT 220V290 9999 FEW011 23/22 Q1013 NOSIG", "speci": null, "taf": "TAF AMD VVPK 160900Z 1609/1706 26010KT 9999 SCT013 BKN040 TEMPO 1609/1613 4000 RA BKN010 BKN040 TEMPO 1622/1701 2000 RA BR BKN002 BKN004 TEMPO 1701/1703 4000 RA BR BKN004 BKN008", "raw": "METAR VVPK 161100Z 25005KT 220V290 9999 FEW011 23/22 Q1013 NOSIG", "fltcat": "VFR", "wind": "250° @ 5 kt", "vis": ">10 km", "clouds": "FEW011", "temp": 23, "dewp": 22, "qnh": "1013 hPa"}, {"icao": "VVPQ", "name": "Phu Quoc Intl", "metar": "METAR VVPQ 161100Z 25005KT 9999 SCT015 29/27 Q1010 NOSIG", "speci": null, "taf": "TAF VVPQ 152300Z 1600/1624 VRB03KT 9999 SCT017 SCT040 BECMG 1605/1606 30010KT TEMPO 1606/1610 5000 TSRA BKN015 FEW017CB", "raw": "METAR VVPQ 161100Z 25005KT 9999 SCT015 29/27 Q1010 NOSIG", "fltcat": "VFR", "wind": "250° @ 5 kt", "vis": ">10 km", "clouds": "SCT015", "temp": 29, "dewp": 27, "qnh": "1010 hPa"}, {"icao": "VVRG", "name": "Rach Gia", "metar": "METAR VVRG 161100Z 22007KT 9999 FEW017 29/24 Q1010 NOSIG", "speci": null, "taf": "TAF VVRG 152300Z 1600/1609 24008KT 9999 SCT017 SCT040 TEMPO 1605/1609 5000 TSRA BKN015 FEW017CB", "raw": "METAR VVRG 161100Z 22007KT 9999 FEW017 29/24 Q1010 NOSIG", "fltcat": "VFR", "wind": "220° @ 7 kt", "vis": ">10 km", "clouds": "FEW017", "temp": 29, "dewp": 24, "qnh": "1010 hPa"}, {"icao": "VVTH", "name": "Dong Tac — Tuy Hoa", "metar": "METAR VVTH 161100Z 22004KT 170V250 9999 FEW020 31/24 Q1007 NOSIG", "speci": null, "taf": "TAF VVTH 160800Z 1609/1618 27010KT 9999 FEW020 BECMG 1609/1610 10010KT BECMG 1613/1614 22006KT", "raw": "METAR VVTH 161100Z 22004KT 170V250 9999 FEW020 31/24 Q1007 NOSIG", "fltcat": "VFR", "wind": "220° @ 4 kt", "vis": ">10 km", "clouds": "FEW020", "temp": 31, "dewp": 24, "qnh": "1007 hPa"}, {"icao": "VVTS", "name": "Tan Son Nhat — Ho Chi Minh City", "metar": "METAR VVTS 161100Z 25008KT 9999 FEW028 SCT054 31/25 Q1009 NOSIG", "speci": null, "taf": "TAF VVTS 152300Z 1600/1706 26008KT 9999 SCT017 TEMPO 1606/1609 26015G26KT 2000 +TSRA SCT013 SCT015CB TEMPO 1609/1612 5000 SHRA SCT015 FEW017CB", "raw": "METAR VVTS 161100Z 25008KT 9999 FEW028 SCT054 31/25 Q1009 NOSIG", "fltcat": "VFR", "wind": "250° @ 8 kt", "vis": ">10 km", "clouds": "FEW028 SCT054", "temp": 31, "dewp": 25, "qnh": "1009 hPa", "atis": [{"kind": "ARR", "time": "2026-07-16 11:06 UTC", "text": "VVTS ARR ATIS Q 1400Z VVTS INFO Q 1400Z. ILSW APCH IN RWY 25R.. LDG RWY 25R AND DEP RWY 25L.. 1400Z. WIND RWY 25R TDZ 260/5KT CAVOK T31 DP26 QNH 1008HPA TREND NOSIG. ADZ ON INITIAL CTC YOU HAVE INFO Q."}, {"kind": "DEP", "time": "2026-07-15 17:12 UTC", "text": "VVTS DEP ATIS E 0800Z VVTS INFO E 0800Z. ILSW APCH IN RWY 25R.. LDG RWY 25R AND DEP RWY 25L.. 0800Z. WIND RWY 25R TDZ 290/9KT VRB BTN 240/ AND 330/ VIS 10KM CLD FEW 4800FT T35 DP25 QNH 1006HPA TREND TEMPO FM0945 280/16KT MAX28 VIS 3000M MOD TSRA CLD BKN 1500FT FEW CB 1700FT. ADZ ON INITIAL CTC YOU HAVE INFO E."}]}, {"icao": "VVTX", "name": "Tho Xuan — Thanh Hoa", "metar": "METAR VVTX 161100Z 19003KT CAVOK 32/25 Q1000 NOSIG", "speci": null, "taf": "TAF VVTX 160800Z 1609/1618 25005KT 9999 FEW030", "raw": "METAR VVTX 161100Z 19003KT CAVOK 32/25 Q1000 NOSIG", "fltcat": "VFR", "wind": "190° @ 3 kt", "vis": "CAVOK", "clouds": "NSC", "temp": 32, "dewp": 25, "qnh": "1000 hPa"}, {"icao": "VVVD", "name": "Van Don — Quang Ninh", "metar": "METAR VVVD 161100Z AUTO 05003KT 9999 FEW056/// 30/27 Q1001", "speci": null, "taf": "TAF VVVD 152300Z 1600/1624 18005KT 9999 FEW030", "raw": "METAR VVVD 161100Z AUTO 05003KT 9999 FEW056/// 30/27 Q1001", "fltcat": "VFR", "wind": "050° @ 3 kt", "vis": ">10 km", "clouds": "FEW056", "temp": 30, "dewp": 27, "qnh": "1001 hPa"}, {"icao": "VVVH", "name": "Vinh", "metar": "METAR VVVH 161100Z 23007KT 190V280 CAVOK 33/21 Q1002 NOSIG", "speci": null, "taf": "TAF VVVH 152300Z 1600/1624 22006KT 9999 FEW030", "raw": "METAR VVVH 161100Z 23007KT 190V280 CAVOK 33/21 Q1002 NOSIG", "fltcat": "VFR", "wind": "230° @ 7 kt", "vis": "CAVOK", "clouds": "NSC", "temp": 33, "dewp": 21, "qnh": "1002 hPa"}]}