{"updated": "2026-07-14T16:30:49+00:00", "source": "VN MET", "stations": [{"icao": "VVBM", "name": "Buon Ma Thuot", "metar": "METAR VVBM 141630Z 20005KT 170V240 9999 BKN013 24/22 Q1013 NOSIG", "speci": null, "taf": "TAF VVBM 132300Z 1400/1424 24006KT 9999 SCT013 BKN040 TEMPO 1408/1411 3000 TSRA BKN010 FEW013CB TEMPO 1411/1414 5000 SHRA SCT013 FEW015CB BKN040", "raw": "METAR VVBM 141630Z 20005KT 170V240 9999 BKN013 24/22 Q1013 NOSIG", "fltcat": "MVFR", "wind": "200° @ 5 kt", "vis": ">10 km", "clouds": "BKN013", "temp": 24, "dewp": 22, "qnh": "1013 hPa"}, {"icao": "VVCA", "name": "Chu Lai", "metar": "METAR VVCA 141600Z AUTO 16005KT 140V200 3100 RA FEW120/// SCT160/// 30/25 Q1005 REDZ", "speci": null, "taf": "TAF VVCA 132300Z 1400/1409 19006KT 9999 FEW020 BECMG 1404/1405 07010KT", "raw": "METAR VVCA 141600Z AUTO 16005KT 140V200 3100 RA FEW120/// SCT160/// 30/25 Q1005 REDZ", "fltcat": "IFR", "wind": "160° @ 5 kt", "vis": "3.1 km", "clouds": "FEW120 SCT160", "temp": 30, "dewp": 25, "qnh": "1005 hPa"}, {"icao": "VVCI", "name": "Cat Bi — Hai Phong", "metar": "METAR VVCI 141630Z 13004KT 9999 FEW020 BKN023 31/28 Q1003 NOSIG", "speci": null, "taf": "TAF VVCI 132300Z 1400/1424 11006KT 9999 FEW020 TEMPO 1420/1424 4000 TSRA SCT015 FEW027CB", "raw": "METAR VVCI 141630Z 13004KT 9999 FEW020 BKN023 31/28 Q1003 NOSIG", "fltcat": "MVFR", "wind": "130° @ 4 kt", "vis": ">10 km", "clouds": "FEW020 BKN023", "temp": 31, "dewp": 28, "qnh": "1003 hPa"}, {"icao": "VVCR", "name": "Cam Ranh — Nha Trang", "metar": "METAR VVCR 141600Z 20010KT CAVOK 29/25 Q1010 NOSIG", "speci": null, "taf": "TAF VVCR 132300Z 1400/1424 19012KT 9999 FEW020 TEMPO 1407/1412 TS SCT013 FEW017CB", "raw": "METAR VVCR 141600Z 20010KT CAVOK 29/25 Q1010 NOSIG", "fltcat": "VFR", "wind": "200° @ 10 kt", "vis": "CAVOK", "clouds": "NSC", "temp": 29, "dewp": 25, "qnh": "1010 hPa", "atis": [{"kind": "ARR", "time": "2026-07-13 09:29 UTC", "text": "VVCR ARR ATIS W 1330Z VVCR INFO W 1330Z. ILS YANKEE APPROACH IN USE. LDG RWY 20L AND DPTG RWY 20R.. 1330Z. WIND RWY 20L TDZ 330/3KT VRB BTN 260/ AND 360/ MID 310/3KT VRB BTN 280/ AND 340/ END 320/3KT RWY 20R TDZ 320/1KT CAVOK T29 DP25 QNH 1010HPA TREND NOSIG. ADZ ON INITIAL CTC YOU HAVE INFO W."}, {"kind": "DEP", "time": "2026-05-29 05:57 UTC", "text": "VVCR DEP ATIS S 0533Z VVCR INFO S 0533Z. ILS Z APCH IN USE.. LDG RWY 02R AND DPTG RWY 02L.. 0532Z. WIND RWY 02R TDZ 080/9KT MID 090/8KT END 100/8KT RWY 02L TDZ 080/8KT CAVOK T31 DP26 QNH 1009HPA TREND TEMPO FM0630 VIS 4000M MOD TSRA. ADZ ON INITIAL CTC YOU HAVE INFO S."}]}, {"icao": "VVCT", "name": "Can Tho Intl", "metar": "METAR VVCT 141630Z 16003KT 9999 FEW015 BKN050 26/26 Q1012 NOSIG", "speci": null, "taf": "TAF VVCT 132300Z 1400/1424 24010KT 9999 SCT015 SCT050 TEMPO 1400/1404 4000 TSRA SCT013 FEW015CB TEMPO 1407/1410 25015G27KT 3000 TSRA BKN013 FEW015CB BKN040", "raw": "METAR VVCT 141630Z 16003KT 9999 FEW015 BKN050 26/26 Q1012 NOSIG", "fltcat": "VFR", "wind": "160° @ 3 kt", "vis": ">10 km", "clouds": "FEW015 BKN050", "temp": 26, "dewp": 26, "qnh": "1012 hPa"}, {"icao": "VVDB", "name": "Dien Bien Phu", "metar": "METAR VVDB 141630Z AUTO VRB02KT 9999 // SCT034/// OVC042/// 27/24 Q1007 RE// NOSIG", "speci": null, "taf": "TAF VVDB 132300Z 1400/1409 VRB02KT 9999 SCT030 TEMPO 1407/1409 4500 TSRA SCT010 FEW027CB", "raw": "METAR VVDB 141630Z AUTO VRB02KT 9999 // SCT034/// OVC042/// 27/24 Q1007 RE// NOSIG", "fltcat": "VFR", "wind": "VRB @ 2 kt", "vis": ">10 km", "clouds": "SCT034 OVC042", "temp": 27, "dewp": 24, "qnh": "1007 hPa"}, {"icao": "VVDH", "name": "Dong Hoi", "metar": "METAR VVDH 141630Z AUTO 21004KT 170V240 9999 SCT170/// 31/24 Q1004", "speci": null, "taf": "TAF VVDH 132300Z 1400/1409 21005KT 9999 FEW030", "raw": "METAR VVDH 141630Z AUTO 21004KT 170V240 9999 SCT170/// 31/24 Q1004", "fltcat": "VFR", "wind": "210° @ 4 kt", "vis": ">10 km", "clouds": "SCT170", "temp": 31, "dewp": 24, "qnh": "1004 hPa"}, {"icao": "VVDN", "name": "Da Nang Intl", "metar": "METAR VVDN 141600Z 21009KT 9999 FEW020 BKN080 30/23 Q1006 NOSIG", "speci": null, "taf": "TAF VVDN 132300Z 1400/1424 22008KT 9999 FEW020 SCT070 BECMG 1404/1405 01010KT TEMPO 1409/1413 TS SCT013 FEW015CB BKN060 BECMG 1413/1414 22006KT", "raw": "METAR VVDN 141600Z 21009KT 9999 FEW020 BKN080 30/23 Q1006 NOSIG", "fltcat": "VFR", "wind": "210° @ 9 kt", "vis": ">10 km", "clouds": "FEW020 BKN080", "temp": 30, "dewp": 23, "qnh": "1006 hPa", "atis": [{"kind": "ARR", "time": "2026-07-14 03:48 UTC", "text": "VVDN ARR ATIS T 1932Z VVDN INFO T 1932Z. ILS VICTOR APPROACH 35L.. DPTG RWY 35R.. 1932Z. WIND 220/05KT CAVOK T27 DP25 QNH 1008HPA TREND NOSIG. ADZ ON INITIAL CTC YOU HAVE INFO. T."}, {"kind": "DEP", "time": "2026-07-12 02:50 UTC", "text": "VVDN DEP ATIS N 0423Z VVDN INFO N 0423Z. ILS VICTOR APPROACH 35L.. DPTG RWY 35R.. 0423Z. WIND 010/02KT CAVOK T36 DP24 QNH 1008HPA TREND NOSIG. WS ALL RWY. ADZ ON INITIAL CTC YOU HAVE INFO. N."}]}, {"icao": "VVNB", "name": "Noi Bai — Ha Noi", "metar": "METAR VVNB 141630Z 09005KT 060V120 CAVOK 30/28 Q1002 NOSIG", "speci": null, "taf": "TAF VVNB 132300Z 1400/1424 08006KT 9999 FEW025 PROB30 TEMPO 1408/1412 4000 TSRA SCT010 FEW027CB", "raw": "METAR VVNB 141630Z 09005KT 060V120 CAVOK 30/28 Q1002 NOSIG", "fltcat": "VFR", "wind": "090° @ 5 kt", "vis": "CAVOK", "clouds": "NSC", "temp": 30, "dewp": 28, "qnh": "1002 hPa", "atis": [{"kind": "ARR", "time": "2026-07-14 13:46 UTC", "text": "VVNB ARR ATIS N 2330Z VVNB INFO N 2330Z. ILS X RWY 11L. DPTG RWY 11R AND ARR RWY 11L .. 2330Z. WIND 090/3KT VIS 6KM FBL RA CLD NSC T27 DP26 QNH 1005HPA TREND TEMPO VIS 4000M FBL RA BR. ADZ ON INITIAL CTC YOU HAVE INFO N."}, {"kind": "DEP", "time": "2026-07-14 15:56 UTC", "text": "VVNB DEP ATIS O 0000Z VVNB INFO O 0000Z. ILS X RWY 11L. DPTG RWY 11R AND ARR RWY 11L .. 0000Z. WIND 080/3KT VIS 7KM FBL RA CLD FEW 2700FT T27 DP27 QNH 1004HPA TREND TEMPO VIS 4000M FBL RA BR. ADZ ON INITIAL CTC YOU HAVE INFO O."}]}, {"icao": "VVPB", "name": "Phu Bai — Hue", "metar": "METAR VVPB 141600Z 20001KT 9999 FEW020 30/21 Q1006 NOSIG", "speci": null, "taf": "TAF VVPB 132300Z 1400/1424 20008KT 9999 FEW020 SCT060 BECMG 1406/1407 10010KT TEMPO 1408/1412 TS SCT012 FEW015CB BKN050 BECMG 1412/1413 20006KT", "raw": "METAR VVPB 141600Z 20001KT 9999 FEW020 30/21 Q1006 NOSIG", "fltcat": "VFR", "wind": "200° @ 1 kt", "vis": ">10 km", "clouds": "FEW020", "temp": 30, "dewp": 21, "qnh": "1006 hPa"}, {"icao": "VVPC", "name": "Phu Cat — Quy Nhon", "metar": "METAR VVPC 141600Z AUTO VRB02KT 9999 FEW110/// SCT130/// 27/25 Q1009", "speci": null, "taf": "TAF VVPC 132300Z 1400/1424 20006KT 9999 FEW020 SCT070 TEMPO 1401/1408 24015G25KT TEMPO 1408/1412 TS SCT013 FEW015CB BKN060", "raw": "METAR VVPC 141600Z AUTO VRB02KT 9999 FEW110/// SCT130/// 27/25 Q1009", "fltcat": "VFR", "wind": "VRB @ 2 kt", "vis": ">10 km", "clouds": "FEW110 SCT130", "temp": 27, "dewp": 25, "qnh": "1009 hPa"}, {"icao": "VVPK", "name": "Pleiku", "metar": "METAR VVPK 141600Z AUTO 25004KT 9999 NCD 21/20 Q1015 RERA", "speci": null, "taf": "TAF AMD VVPK 140100Z 1401/1424 26010KT 2000 RA BR BKN002 BKN004 BECMG 1401/1402 4000 RA BR BKN004 BKN008 BECMG 1402/1403 8000 NSW SCT013 TEMPO 1403/1406 25015G25KT TEMPO 1408/1412 27015G27KT 3500 TSRA BKN010 FEW015CB BKN050 TEMPO 1422/1424 0800 FG VV002", "raw": "METAR VVPK 141600Z AUTO 25004KT 9999 NCD 21/20 Q1015 RERA", "fltcat": "VFR", "wind": "250° @ 4 kt", "vis": ">10 km", "clouds": "—", "temp": 21, "dewp": 20, "qnh": "1015 hPa"}, {"icao": "VVPQ", "name": "Phu Quoc Intl", "metar": "METAR VVPQ 141630Z VRB01KT 9999 SCT015 SCT040 26/26 Q1012 NOSIG", "speci": null, "taf": "TAF VVPQ 132300Z 1400/1424 27010KT 9999 SCT015 SCT040 TEMPO 1400/1403 3000 TSRA BKN013 FEW015CB BKN040 TEMPO 1403/1407 28020G30KT 2000 +TSRA SCT013 SCT015CB BKN040 TEMPO 1407/1410 5000 SHRA SCT013 FEW015CB BKN040", "raw": "METAR VVPQ 141630Z VRB01KT 9999 SCT015 SCT040 26/26 Q1012 NOSIG", "fltcat": "VFR", "wind": "VRB @ 1 kt", "vis": ">10 km", "clouds": "SCT015 SCT040", "temp": 26, "dewp": 26, "qnh": "1012 hPa"}, {"icao": "VVTH", "name": "Dong Tac — Tuy Hoa", "metar": "METAR VVTH 141630Z AUTO 24006KT 190V260 CAVOK 27/24 Q1009", "speci": null, "taf": "TAF VVTH 132300Z 1400/1409 23012KT 9999 FEW017 SCT060", "raw": "METAR VVTH 141630Z AUTO 24006KT 190V260 CAVOK 27/24 Q1009", "fltcat": "VFR", "wind": "240° @ 6 kt", "vis": "CAVOK", "clouds": "NSC", "temp": 27, "dewp": 24, "qnh": "1009 hPa"}, {"icao": "VVTS", "name": "Tan Son Nhat — Ho Chi Minh City", "metar": "METAR VVTS 141630Z 23011KT CAVOK 29/24 Q1011 NOSIG", "speci": null, "taf": "TAF VVTS 132300Z 1400/1506 24010KT 9999 SCT017 TEMPO 1402/1405 24015G25KT 5000 TSRA BKN015 FEW017CB TEMPO 1405/1410 24018G30KT 2500 +TSRA BKN015 SCT017CB", "raw": "METAR VVTS 141630Z 23011KT CAVOK 29/24 Q1011 NOSIG", "fltcat": "VFR", "wind": "230° @ 11 kt", "vis": "CAVOK", "clouds": "NSC", "temp": 29, "dewp": 24, "qnh": "1011 hPa", "atis": [{"kind": "ARR", "time": "2026-07-14 16:17 UTC", "text": "VVTS ARR ATIS P 0030Z VVTS INFO P 0030Z. ILSW APCH IN RWY 25R.. LDG RWY 25R AND DEP RWY 25L.. 0030Z. WIND RWY 25R TDZ 280/5KT VRB BTN 250/ AND 320/ CAVOK T29 DP27 QNH 1010HPA TREND NOSIG. ADZ ON INITIAL CTC YOU HAVE INFO P."}, {"kind": "DEP", "time": "2026-07-14 15:01 UTC", "text": "VVTS DEP ATIS O 0000Z VVTS INFO O 0000Z. ILSW APCH IN RWY 25R.. LDG RWY 25R AND DEP RWY 25L.. 0000Z. WIND RWY 25R TDZ 280/3KT VRB BTN 250/ AND 310/ CAVOK T28 DP27 QNH 1010HPA TREND NOSIG. ADZ ON INITIAL CTC YOU HAVE INFO O."}]}, {"icao": "VVTX", "name": "Tho Xuan — Thanh Hoa", "metar": "METAR VVTX 141630Z AUTO 28003KT CAVOK 26/24 Q1003 NOSIG", "speci": null, "taf": "TAF VVTX 132300Z 1400/1409 24006KT 9999 FEW025 TEMPO 1407/1409 4000 TSRA SCT010 FEW027CB", "raw": "METAR VVTX 141630Z AUTO 28003KT CAVOK 26/24 Q1003 NOSIG", "fltcat": "VFR", "wind": "280° @ 3 kt", "vis": "CAVOK", "clouds": "NSC", "temp": 26, "dewp": 24, "qnh": "1003 hPa"}, {"icao": "VVVD", "name": "Van Don — Quang Ninh", "metar": "METAR VVVD 141630Z AUTO VRB01KT 9999 NCD 29/27 Q1003", "speci": null, "taf": "TAF VVVD 132300Z 1400/1424 21005KT 9999 FEW025 TEMPO 1419/1424 3500 TSRA SCT015 FEW027CB", "raw": "METAR VVVD 141630Z AUTO VRB01KT 9999 NCD 29/27 Q1003", "fltcat": "VFR", "wind": "VRB @ 1 kt", "vis": ">10 km", "clouds": "—", "temp": 29, "dewp": 27, "qnh": "1003 hPa"}, {"icao": "VVVH", "name": "Vinh", "metar": "METAR VVVH 141630Z 30003KT 260V340 CAVOK 30/22 Q1003 NOSIG", "speci": null, "taf": "TAF VVVH 132300Z 1400/1424 23005KT 9999 FEW020", "raw": "METAR VVVH 141630Z 30003KT 260V340 CAVOK 30/22 Q1003 NOSIG", "fltcat": "VFR", "wind": "300° @ 3 kt", "vis": "CAVOK", "clouds": "NSC", "temp": 30, "dewp": 22, "qnh": "1003 hPa"}]}