{"updated": "2026-07-22T07:41:52+00:00", "source": "VN MET", "stations": [{"icao": "VVBM", "name": "Buon Ma Thuot", "metar": "METAR VVBM 220730Z 29007KT 240V330 9999 SCT015 FEW017CB SCT040 31/22 Q1010 NOSIG", "speci": null, "taf": "TAF VVBM 220500Z 2206/2306 30008KT 9999 SCT015 SCT040 TEMPO 2206/2211 5000 TSRA BKN010 FEW015CB BKN040", "raw": "METAR VVBM 220730Z 29007KT 240V330 9999 SCT015 FEW017CB SCT040 31/22 Q1010 NOSIG", "fltcat": "VFR", "wind": "290° @ 7 kt", "vis": ">10 km", "clouds": "SCT015 FEW017 SCT040", "temp": 31, "dewp": 22, "qnh": "1010 hPa"}, {"icao": "VVCA", "name": "Chu Lai", "metar": "METAR VVCA 220730Z 09011KT 040V110 9999 FEW025 36/24 Q1004 NOSIG", "speci": null, "taf": "TAF VVCA 220500Z 2206/2215 07008KT 9999 FEW020 TEMPO 2208/2212 TS SCT013 FEW017CB", "raw": "METAR VVCA 220730Z 09011KT 040V110 9999 FEW025 36/24 Q1004 NOSIG", "fltcat": "VFR", "wind": "090° @ 11 kt", "vis": ">10 km", "clouds": "FEW025", "temp": 36, "dewp": 24, "qnh": "1004 hPa"}, {"icao": "VVCI", "name": "Cat Bi — Hai Phong", "metar": "METAR VVCI 220730Z 13010KT 100V160 CAVOK 33/26 Q1003 NOSIG", "speci": null, "taf": "TAF VVCI 220500Z 2206/2306 12008KT 9999 SCT023 TEMPO 2206/2210 4000 SHRA SCT013 FEW027CB TEMPO 2220/2301 3200 TSRA BKN010 FEW027CB", "raw": "METAR VVCI 220730Z 13010KT 100V160 CAVOK 33/26 Q1003 NOSIG", "fltcat": "VFR", "wind": "130° @ 10 kt", "vis": "CAVOK", "clouds": "NSC", "temp": 33, "dewp": 26, "qnh": "1003 hPa"}, {"icao": "VVCR", "name": "Cam Ranh — Nha Trang", "metar": "METAR VVCR 220730Z 13012KT 9999 FEW017CB 35/22 Q1007 NOSIG", "speci": null, "taf": "TAF VVCR 220500Z 2206/2306 10010KT 9999 FEW020 TEMPO 2208/2212 TS SCT013 FEW015CB BECMG 2212/2213 19007KT", "raw": "METAR VVCR 220730Z 13012KT 9999 FEW017CB 35/22 Q1007 NOSIG", "fltcat": "VFR", "wind": "130° @ 12 kt", "vis": ">10 km", "clouds": "FEW017", "temp": 35, "dewp": 22, "qnh": "1007 hPa", "atis": [{"kind": "ARR", "time": "2026-07-22 05:32 UTC", "text": "VVCR ARR ATIS O 1300Z VVCR INFO O 1300Z. ILS YANKEE APPROACH IN USE. LDG RWY 20L AND DPTG RWY 20R.. 1300Z. WIND RWY 20L TDZ 190/7KT MID 190/8KT END 180/7KT RWY 20R TDZ 190/7KT VIS RWY 20L TDZ 10KM END 10KM CLD RWY 20L SCT 7200FT T31 DP24 QNH 1007HPA TREND NOSIG. ADZ ON INITIAL CTC YOU HAVE INFO O."}, {"kind": "DEP", "time": "2026-05-29 05:57 UTC", "text": "VVCR DEP ATIS S 0533Z VVCR INFO S 0533Z. ILS Z APCH IN USE.. LDG RWY 02R AND DPTG RWY 02L.. 0532Z. WIND RWY 02R TDZ 080/9KT MID 090/8KT END 100/8KT RWY 02L TDZ 080/8KT CAVOK T31 DP26 QNH 1009HPA TREND TEMPO FM0630 VIS 4000M MOD TSRA. ADZ ON INITIAL CTC YOU HAVE INFO S."}]}, {"icao": "VVCS", "name": "Con Dao", "metar": "METAR VVCS 220730Z 27008KT 210V320 9999 FEW017 32/25 Q1009 NOSIG", "speci": null, "taf": "TAF VVCS 220500Z 2206/2215 27010KT 9999 SCT017 TEMPO 2206/2210 27015G25KT", "raw": "METAR VVCS 220730Z 27008KT 210V320 9999 FEW017 32/25 Q1009 NOSIG", "fltcat": "VFR", "wind": "270° @ 8 kt", "vis": ">10 km", "clouds": "FEW017", "temp": 32, "dewp": 25, "qnh": "1009 hPa"}, {"icao": "VVCT", "name": "Can Tho Intl", "metar": "METAR VVCT 220730Z 25009KT 220V320 9999 SCT017 33/25 Q1009 NOSIG", "speci": null, "taf": "TAF VVCT 220500Z 2206/2306 27008KT 9999 SCT015 SCT040 TEMPO 2207/2211 TS SCT015 FEW017CB", "raw": "METAR VVCT 220730Z 25009KT 220V320 9999 SCT017 33/25 Q1009 NOSIG", "fltcat": "VFR", "wind": "250° @ 9 kt", "vis": ">10 km", "clouds": "SCT017", "temp": 33, "dewp": 25, "qnh": "1009 hPa"}, {"icao": "VVDB", "name": "Dien Bien Phu", "metar": "METAR VVDB 220730Z 19006KT 110V250 9999 FEW030 SCT038 32/24 Q1006 NOSIG", "speci": null, "taf": "TAF VVDB 220500Z 2206/2215 23005KT 9999 SCT030 TEMPO 2208/2212 4500 TSRA SCT010 FEW025CB", "raw": "METAR VVDB 220730Z 19006KT 110V250 9999 FEW030 SCT038 32/24 Q1006 NOSIG", "fltcat": "VFR", "wind": "190° @ 6 kt", "vis": ">10 km", "clouds": "FEW030 SCT038", "temp": 32, "dewp": 24, "qnh": "1006 hPa"}, {"icao": "VVDH", "name": "Dong Hoi", "metar": "METAR VVDH 220730Z 25009KT 200V290 CAVOK 35/22 Q1004 NOSIG", "speci": null, "taf": "TAF VVDH 220500Z 2206/2215 24008KT 9999 FEW025 TEMPO 2206/2208 24015G25KT", "raw": "METAR VVDH 220730Z 25009KT 200V290 CAVOK 35/22 Q1004 NOSIG", "fltcat": "VFR", "wind": "250° @ 9 kt", "vis": "CAVOK", "clouds": "NSC", "temp": 35, "dewp": 22, "qnh": "1004 hPa"}, {"icao": "VVDN", "name": "Da Nang Intl", "metar": "METAR VVDN 220730Z 10006KT 050V140 9999 FEW020 36/22 Q1005 NOSIG", "speci": null, "taf": "TAF VVDN 220500Z 2206/2306 01010KT 9999 FEW020 SCT060 BECMG 2208/2209 10010KT PROB30 TEMPO 2209/2213 4000 TSRA BKN013 FEW015CB BKN050 BECMG 2213/2214 22006KT", "raw": "METAR VVDN 220730Z 10006KT 050V140 9999 FEW020 36/22 Q1005 NOSIG", "fltcat": "VFR", "wind": "100° @ 6 kt", "vis": ">10 km", "clouds": "FEW020", "temp": 36, "dewp": 22, "qnh": "1005 hPa", "atis": [{"kind": "ARR", "time": "2026-07-22 06:20 UTC", "text": "VVDN ARR ATIS D 1302Z VVDN INFO D 1302Z. ILS VICTOR APPROACH 35L.. DPTG RWY 35R.. 1302Z. WIND 160/02KT CAVOK T32 DP25 QNH 1004HPA TREND NOSIG. ADZ ON INITIAL CTC YOU HAVE INFO. D."}, {"kind": "DEP", "time": "2026-07-21 03:51 UTC", "text": "VVDN DEP ATIS M 0432Z VVDN INFO M 0432Z. ILS VICTOR APPROACH 35L.. DPTG RWY 35R.. 0432Z. WIND 220/04KT CAVOK T37 DP22 QNH 1004HPA TREND NOSIG. ADZ ON INITIAL CTC YOU HAVE INFO. M."}]}, {"icao": "VVNB", "name": "Noi Bai — Ha Noi", "metar": "METAR VVNB 220730Z 14007KT 110V170 9999 FEW027TCU FEW037 34/27 Q1003 NOSIG", "speci": null, "taf": "TAF VVNB 220500Z 2206/2306 10005KT 8000 SCT020 BKN040 PROB40 TEMPO 2206/2210 3500 TSRA SCT010 FEW027CB TEMPO 2220/2301 4000 TSRA BKN010 FEW027CB", "raw": "METAR VVNB 220730Z 14007KT 110V170 9999 FEW027TCU FEW037 34/27 Q1003 NOSIG", "fltcat": "VFR", "wind": "140° @ 7 kt", "vis": ">10 km", "clouds": "FEW027 FEW037", "temp": 34, "dewp": 27, "qnh": "1003 hPa", "atis": [{"kind": "ARR", "time": "2026-07-22 07:06 UTC", "text": "VVNB ARR ATIS M 1330Z VVNB INFO M 1330Z. ILS X RWY 11L. DPTG RWY 11R AND ARR RWY 11L .. 1330Z. WIND 220/6KT CAVOK T35 DP24 QNH 0999HPA TREND NOSIG. ADZ ON INITIAL CTC YOU HAVE INFO M."}, {"kind": "DEP", "time": "2026-07-21 21:58 UTC", "text": "VVNB DEP ATIS F 1000Z VVNB INFO F 1000Z. ILS X RWY 11L. DPTG RWY 11R AND ARR RWY 11L .. 1000Z. WIND 250/7KT CAVOK T38 DP24 QNH 0997HPA TREND NOSIG. ADZ ON INITIAL CTC YOU HAVE INFO F."}]}, {"icao": "VVPB", "name": "Phu Bai — Hue", "metar": "METAR VVPB 220730Z 05009KT 9999 FEW020 SCT070 35/22 Q1005 NOSIG", "speci": null, "taf": "TAF VVPB 220500Z 2206/2306 25007KT 9999 FEW020 SCT070 BECMG 2206/2208 06010KT TEMPO 2209/2213 TS SCT013 FEW015CB SCT060 BECMG 2213/2214 23006KT", "raw": "METAR VVPB 220730Z 05009KT 9999 FEW020 SCT070 35/22 Q1005 NOSIG", "fltcat": "VFR", "wind": "050° @ 9 kt", "vis": ">10 km", "clouds": "FEW020 SCT070", "temp": 35, "dewp": 22, "qnh": "1005 hPa"}, {"icao": "VVPC", "name": "Phu Cat — Quy Nhon", "metar": "METAR VVPC 220730Z 24008KT 9999 VCSH SCT025 FEW027CB 37/21 Q1004 TEMPO TS", "speci": "SPECI VVPC 220737Z 24007KT 9999 TS SCT025 FEW027CB 37/21 Q1004 TEMPO TL0810 30015G25KT 4000 TSRA", "taf": "TAF VVPC 220500Z 2206/2306 26013KT 9999 FEW020 TEMPO 2208/2212 TS SCT013 FEW017CB", "raw": "SPECI VVPC 220737Z 24007KT 9999 TS SCT025 FEW027CB 37/21 Q1004 TEMPO TL0810 30015G25KT 4000 TSRA", "fltcat": "VFR", "wind": "240° @ 7 kt", "vis": ">10 km", "clouds": "SCT025 FEW027", "temp": 37, "dewp": 21, "qnh": "1004 hPa"}, {"icao": "VVPK", "name": "Pleiku", "metar": "METAR VVPK 220730Z 24011KT 210V280 9999 FEW020 FEW023CB BKN090 27/21 Q1012 TEMPO 25015G25KT 4000 TSRA", "speci": null, "taf": "TAF VVPK 220500Z 2206/2306 26012KT 9999 FEW020 SCT040 TEMPO 2206/2211 27015G25KT 3000 TSRA BKN010 FEW015CB BKN040 TEMPO 2222/2301 3000 RA BR BKN004 BKN006", "raw": "METAR VVPK 220730Z 24011KT 210V280 9999 FEW020 FEW023CB BKN090 27/21 Q1012 TEMPO 25015G25KT 4000 TSRA", "fltcat": "VFR", "wind": "240° @ 11 kt", "vis": ">10 km", "clouds": "FEW020 FEW023 BKN090", "temp": 27, "dewp": 21, "qnh": "1012 hPa"}, {"icao": "VVPQ", "name": "Phu Quoc Intl", "metar": "METAR VVPQ 220730Z 25009KT 9999 SCT015 32/29 Q1010 NOSIG", "speci": null, "taf": "TAF VVPQ 220500Z 2206/2306 27011KT 9999 SCT017 SCT040 TEMPO 2207/2211 TS SCT015 FEW017CB TEMPO 2222/2302 5000 TSRA SCT015 FEW017CB", "raw": "METAR VVPQ 220730Z 25009KT 9999 SCT015 32/29 Q1010 NOSIG", "fltcat": "VFR", "wind": "250° @ 9 kt", "vis": ">10 km", "clouds": "SCT015", "temp": 32, "dewp": 29, "qnh": "1010 hPa"}, {"icao": "VVRG", "name": "Rach Gia", "metar": "METAR VVRG 220730Z 24009KT 200V280 9999 FEW017 33/25 Q1009 NOSIG", "speci": null, "taf": "TAF VVRG 220500Z 2206/2215 26010KT 9999 SCT017 SCT040 TEMPO 2207/2211 TS SCT015 FEW017CB", "raw": "METAR VVRG 220730Z 24009KT 200V280 9999 FEW017 33/25 Q1009 NOSIG", "fltcat": "VFR", "wind": "240° @ 9 kt", "vis": ">10 km", "clouds": "FEW017", "temp": 33, "dewp": 25, "qnh": "1009 hPa"}, {"icao": "VVTH", "name": "Dong Tac — Tuy Hoa", "metar": "METAR VVTH 220730Z 23009KT 180V310 9999 FEW065 38/21 Q1005 NOSIG", "speci": null, "taf": "TAF VVTH 220500Z 2206/2215 25014KT 9999 FEW020 BECMG 2207/2208 14010KT TEMPO 2209/2212 TS SCT013 FEW017CB", "raw": "METAR VVTH 220730Z 23009KT 180V310 9999 FEW065 38/21 Q1005 NOSIG", "fltcat": "VFR", "wind": "230° @ 9 kt", "vis": ">10 km", "clouds": "FEW065", "temp": 38, "dewp": 21, "qnh": "1005 hPa"}, {"icao": "VVTS", "name": "Tan Son Nhat — Ho Chi Minh City", "metar": "METAR VVTS 220730Z 26010KT 230V310 CAVOK 35/23 Q1007 NOSIG", "speci": null, "taf": "TAF VVTS 220500Z 2206/2312 26012KT 9999 SCT017", "raw": "METAR VVTS 220730Z 26010KT 230V310 CAVOK 35/23 Q1007 NOSIG", "fltcat": "VFR", "wind": "260° @ 10 kt", "vis": "CAVOK", "clouds": "NSC", "temp": 35, "dewp": 23, "qnh": "1007 hPa", "atis": [{"kind": "ARR", "time": "2026-07-22 07:15 UTC", "text": "VVTS ARR ATIS K 1330Z VVTS INFO K 1330Z. ILSW APCH IN RWY 25R.. LDG RWY 25R AND DEP RWY 25L.. 1330Z. WIND RWY 25L TDZ 250/10KT MID 240/10KT MAX15 MNM7 END 250/9KT MAX14 MNM6 VRB BTN 210/ AND 270/ RWY 25R TDZ 250/10KT CAVOK T30 DP26 QNH 1007HPA TREND NOSIG. ADZ ON INITIAL CTC YOU HAVE INFO K."}, {"kind": "DEP", "time": "2026-07-22 01:37 UTC", "text": "VVTS DEP ATIS F 1130Z VVTS INFO F 1130Z. ILSW APCH IN RWY 25R.. LDG RWY 25R AND DEP RWY 25L.. 1130Z. WIND RWY 25R TDZ 270/8KT VIS 10KM CLD FEW 4100FT T32 DP25 QNH 1006HPA TREND NOSIG. ADZ ON INITIAL CTC YOU HAVE INFO F."}]}, {"icao": "VVTX", "name": "Tho Xuan — Thanh Hoa", "metar": "METAR VVTX 220730Z 14006KT CAVOK 37/19 Q1002 NOSIG", "speci": null, "taf": "TAF VVTX 220500Z 2206/2215 12007KT 9999 FEW020", "raw": "METAR VVTX 220730Z 14006KT CAVOK 37/19 Q1002 NOSIG", "fltcat": "VFR", "wind": "140° @ 6 kt", "vis": "CAVOK", "clouds": "NSC", "temp": 37, "dewp": 19, "qnh": "1002 hPa"}, {"icao": "VVVD", "name": "Van Don — Quang Ninh", "metar": "METAR VVVD 220730Z 18007KT 9999 FEW025 SCT035 33/27 Q1004 NOSIG", "speci": null, "taf": "TAF VVVD 220500Z 2206/2306 12008KT 9999 SCT023 TEMPO 2206/2210 4000 SHRA SCT012 FEW025TCU TEMPO 2218/2224 3200 TSRA BKN010 FEW027CB", "raw": "METAR VVVD 220730Z 18007KT 9999 FEW025 SCT035 33/27 Q1004 NOSIG", "fltcat": "VFR", "wind": "180° @ 7 kt", "vis": ">10 km", "clouds": "FEW025 SCT035", "temp": 33, "dewp": 27, "qnh": "1004 hPa"}, {"icao": "VVVH", "name": "Vinh", "metar": "METAR VVVH 220730Z 22007KT 180V290 CAVOK 35/22 Q1003 NOSIG", "speci": null, "taf": "TAF VVVH 220500Z 2206/2306 23010KT 9999 FEW025", "raw": "METAR VVVH 220730Z 22007KT 180V290 CAVOK 35/22 Q1003 NOSIG", "fltcat": "VFR", "wind": "220° @ 7 kt", "vis": "CAVOK", "clouds": "NSC", "temp": 35, "dewp": 22, "qnh": "1003 hPa"}]}